<?xml version="1.0" encoding="UTF-8"?>
<kml xmlns="http://www.opengis.net/kml/2.2" xmlns:gx="http://www.google.com/kml/ext/2.2">
<Document><name>10/13 Tue · Kaminoyama → Aizu (Higashiyama)</name><description>South-west over into the Aizu basin. Flyover runs 14 min at 300 m (984 ft) above ground, tilt 60°. Double-click the tour below to play it.</description>
<Style id="rt"><LineStyle><color>b32fd5ff</color><width>3</width></LineStyle></Style>
<gx:Tour><name>▶ 10/13 Tue · Kaminoyama → Aizu (Higashiyama) — 158 km (98 mi)</name><description>South-west over into the Aizu basin.</description><gx:Playlist><gx:FlyTo><gx:duration>4</gx:duration><gx:flyToMode>bounce</gx:flyToMode><Camera><longitude>140.262885</longitude><latitude>38.148496</latitude><altitude>300</altitude><heading>194.4</heading><tilt>60</tilt><altitudeMode>relativeToGround</altitudeMode></Camera></gx:FlyTo><gx:FlyTo><gx:duration>5.6</gx:duration><gx:flyToMode>smooth</gx:flyToMode><Camera><longitude>140.259275</longitude><latitude>38.137450</latitude><altitude>300</altitude><heading>183.0</heading><tilt>60</tilt><altitudeMode>relativeToGround</altitudeMode></Camera></gx:FlyTo><gx:FlyTo><gx:duration>5.6</gx:duration><gx:flyToMode>smooth</gx:flyToMode><Camera><longitude>140.258760</longitude><latitude>38.129811</latitude><altitude>300</altitude><heading>219.0</heading><tilt>60</tilt><altitudeMode>relativeToGround</altitudeMode></Camera></gx:FlyTo><gx:FlyTo><gx:duration>5.6</gx:duration><gx:flyToMode>smooth</gx:flyToMode><Camera><longitude>140.252838</longitude><latitude>38.124061</latitude><altitude>300</altitude><heading>210.6</heading><tilt>60</tilt><altitudeMode>relativeToGround</altitudeMode></Camera></gx:FlyTo><gx:FlyTo><gx:duration>5.6</gx:duration><gx:flyToMode>smooth</gx:flyToMode><Camera><longitude>140.246615</longitude><latitude>38.115778</latitude><altitude>300</altitude><heading>242.2</heading><tilt>60</tilt><altitudeMode>relativeToGround</altitudeMode></Camera></gx:FlyTo><gx:FlyTo><gx:duration>5.6</gx:duration><gx:flyToMode>smooth</gx:flyToMode><Camera><longitude>140.229578</longitude><latitude>38.108697</latitude><altitude>300</altitude><heading>237.8</heading><tilt>60</tilt><altitudeMode>relativeToGround</altitudeMode></Camera></gx:FlyTo><gx:FlyTo><gx:duration>5.6</gx:duration><gx:flyToMode>smooth</gx:flyToMode><Camera><longitude>140.218506</longitude><latitude>38.103204</latitude><altitude>300</altitude><heading>215.9</heading><tilt>60</tilt><altitudeMode>relativeToGround</altitudeMode></Camera></gx:FlyTo><gx:FlyTo><gx:duration>5.6</gx:duration><gx:flyToMode>smooth</gx:flyToMode><Camera><longitude>140.211554</longitude><latitude>38.095651</latitude><altitude>300</altitude><heading>203.6</heading><tilt>60</tilt><altitudeMode>relativeToGround</altitudeMode></Camera></gx:FlyTo><gx:FlyTo><gx:duration>5.6</gx:duration><gx:flyToMode>smooth</gx:flyToMode><Camera><longitude>140.206361</longitude><latitude>38.086295</latitude><altitude>300</altitude><heading>221.6</heading><tilt>60</tilt><altitudeMode>relativeToGround</altitudeMode></Camera></gx:FlyTo><gx:FlyTo><gx:duration>5.6</gx:duration><gx:flyToMode>smooth</gx:flyToMode><Camera><longitude>140.196147</longitude><latitude>38.077240</latitude><altitude>300</altitude><heading>212.1</heading><tilt>60</tilt><altitudeMode>relativeToGround</altitudeMode></Camera></gx:FlyTo><gx:FlyTo><gx:duration>5.6</gx:duration><gx:flyToMode>smooth</gx:flyToMode><Camera><longitude>140.189538</longitude><latitude>38.068957</latitude><altitude>300</altitude><heading>170.2</heading><tilt>60</tilt><altitudeMode>relativeToGround</altitudeMode></Camera></gx:FlyTo><gx:FlyTo><gx:duration>5.6</gx:duration><gx:flyToMode>smooth</gx:flyToMode><Camera><longitude>140.191555</longitude><latitude>38.059731</latitude><altitude>300</altitude><heading>171.3</heading><tilt>60</tilt><altitudeMode>relativeToGround</altitudeMode></Camera></gx:FlyTo><gx:FlyTo><gx:duration>5.6</gx:duration><gx:flyToMode>smooth</gx:flyToMode><Camera><longitude>140.193529</longitude><latitude>38.049517</latitude><altitude>300</altitude><heading>204.9</heading><tilt>60</tilt><altitudeMode>relativeToGround</altitudeMode></Camera></gx:FlyTo><gx:FlyTo><gx:duration>5.6</gx:duration><gx:flyToMode>smooth</gx:flyToMode><Camera><longitude>140.187006</longitude><latitude>38.038445</latitude><altitude>300</altitude><heading>217.0</heading><tilt>60</tilt><altitudeMode>relativeToGround</altitudeMode></Camera></gx:FlyTo><gx:FlyTo><gx:duration>5.6</gx:duration><gx:flyToMode>smooth</gx:flyToMode><Camera><longitude>140.179539</longitude><latitude>38.030634</latitude><altitude>300</altitude><heading>246.6</heading><tilt>60</tilt><altitudeMode>relativeToGround</altitudeMode></Camera></gx:FlyTo><gx:FlyTo><gx:duration>5.6</gx:duration><gx:flyToMode>smooth</gx:flyToMode><Camera><longitude>140.167351</longitude><latitude>38.026471</latitude><altitude>300</altitude><heading>222.7</heading><tilt>60</tilt><altitudeMode>relativeToGround</altitudeMode></Camera></gx:FlyTo><gx:FlyTo><gx:duration>5.6</gx:duration><gx:flyToMode>smooth</gx:flyToMode><Camera><longitude>140.159068</longitude><latitude>38.019390</latitude><altitude>300</altitude><heading>189.9</heading><tilt>60</tilt><altitudeMode>relativeToGround</altitudeMode></Camera></gx:FlyTo><gx:FlyTo><gx:duration>5.6</gx:duration><gx:flyToMode>smooth</gx:flyToMode><Camera><longitude>140.156837</longitude><latitude>38.009348</latitude><altitude>300</altitude><heading>181.9</heading><tilt>60</tilt><altitudeMode>relativeToGround</altitudeMode></Camera></gx:FlyTo><gx:FlyTo><gx:duration>5.6</gx:duration><gx:flyToMode>smooth</gx:flyToMode><Camera><longitude>140.156450</longitude><latitude>38.000164</latitude><altitude>300</altitude><heading>181.8</heading><tilt>60</tilt><altitudeMode>relativeToGround</altitudeMode></Camera></gx:FlyTo><gx:FlyTo><gx:duration>5.6</gx:duration><gx:flyToMode>smooth</gx:flyToMode><Camera><longitude>140.156064</longitude><latitude>37.990594</latitude><altitude>300</altitude><heading>216.0</heading><tilt>60</tilt><altitudeMode>relativeToGround</altitudeMode></Camera></gx:FlyTo><gx:FlyTo><gx:duration>5.6</gx:duration><gx:flyToMode>smooth</gx:flyToMode><Camera><longitude>140.147567</longitude><latitude>37.981367</latitude><altitude>300</altitude><heading>225.7</heading><tilt>60</tilt><altitudeMode>relativeToGround</altitudeMode></Camera></gx:FlyTo><gx:FlyTo><gx:duration>5.6</gx:duration><gx:flyToMode>smooth</gx:flyToMode><Camera><longitude>140.139198</longitude><latitude>37.974930</latitude><altitude>300</altitude><heading>241.8</heading><tilt>60</tilt><altitudeMode>relativeToGround</altitudeMode></Camera></gx:FlyTo><gx:FlyTo><gx:duration>5.6</gx:duration><gx:flyToMode>smooth</gx:flyToMode><Camera><longitude>140.128341</longitude><latitude>37.970338</latitude><altitude>300</altitude><heading>217.6</heading><tilt>60</tilt><altitudeMode>relativeToGround</altitudeMode></Camera></gx:FlyTo><gx:FlyTo><gx:duration>5.6</gx:duration><gx:flyToMode>smooth</gx:flyToMode><Camera><longitude>140.119929</longitude><latitude>37.961712</latitude><altitude>300</altitude><heading>194.5</heading><tilt>60</tilt><altitudeMode>relativeToGround</altitudeMode></Camera></gx:FlyTo><gx:FlyTo><gx:duration>5.6</gx:duration><gx:flyToMode>smooth</gx:flyToMode><Camera><longitude>140.117140</longitude><latitude>37.953215</latitude><altitude>300</altitude><heading>214.1</heading><tilt>60</tilt><altitudeMode>relativeToGround</altitudeMode></Camera></gx:FlyTo><gx:FlyTo><gx:duration>5.6</gx:duration><gx:flyToMode>smooth</gx:flyToMode><Camera><longitude>140.111947</longitude><latitude>37.947164</latitude><altitude>300</altitude><heading>183.4</heading><tilt>60</tilt><altitudeMode>relativeToGround</altitudeMode></Camera></gx:FlyTo><gx:FlyTo><gx:duration>5.6</gx:duration><gx:flyToMode>smooth</gx:flyToMode><Camera><longitude>140.111175</longitude><latitude>37.936907</latitude><altitude>300</altitude><heading>192.7</heading><tilt>60</tilt><altitudeMode>relativeToGround</altitudeMode></Camera></gx:FlyTo><gx:FlyTo><gx:duration>5.6</gx:duration><gx:flyToMode>smooth</gx:flyToMode><Camera><longitude>140.108557</longitude><latitude>37.927766</latitude><altitude>300</altitude><heading>235.9</heading><tilt>60</tilt><altitudeMode>relativeToGround</altitudeMode></Camera></gx:FlyTo><gx:FlyTo><gx:duration>5.6</gx:duration><gx:flyToMode>smooth</gx:flyToMode><Camera><longitude>140.100360</longitude><latitude>37.923388</latitude><altitude>300</altitude><heading>259.9</heading><tilt>60</tilt><altitudeMode>relativeToGround</altitudeMode></Camera></gx:FlyTo><gx:FlyTo><gx:duration>5.6</gx:duration><gx:flyToMode>smooth</gx:flyToMode><Camera><longitude>140.087485</longitude><latitude>37.921586</latitude><altitude>300</altitude><heading>243.5</heading><tilt>60</tilt><altitudeMode>relativeToGround</altitudeMode></Camera></gx:FlyTo><gx:FlyTo><gx:duration>5.6</gx:duration><gx:flyToMode>smooth</gx:flyToMode><Camera><longitude>140.077143</longitude><latitude>37.917509</latitude><altitude>300</altitude><heading>226.2</heading><tilt>60</tilt><altitudeMode>relativeToGround</altitudeMode></Camera></gx:FlyTo><gx:FlyTo><gx:duration>5.6</gx:duration><gx:flyToMode>smooth</gx:flyToMode><Camera><longitude>140.068688</longitude><latitude>37.911115</latitude><altitude>300</altitude><heading>216.1</heading><tilt>60</tilt><altitudeMode>relativeToGround</altitudeMode></Camera></gx:FlyTo><gx:FlyTo><gx:duration>5.6</gx:duration><gx:flyToMode>smooth</gx:flyToMode><Camera><longitude>140.061221</longitude><latitude>37.903047</latitude><altitude>300</altitude><heading>208.0</heading><tilt>60</tilt><altitudeMode>relativeToGround</altitudeMode></Camera></gx:FlyTo><gx:FlyTo><gx:duration>5.6</gx:duration><gx:flyToMode>smooth</gx:flyToMode><Camera><longitude>140.055513</longitude><latitude>37.894592</latitude><altitude>300</altitude><heading>179.3</heading><tilt>60</tilt><altitudeMode>relativeToGround</altitudeMode></Camera></gx:FlyTo><gx:FlyTo><gx:duration>5.6</gx:duration><gx:flyToMode>smooth</gx:flyToMode><Camera><longitude>140.055642</longitude><latitude>37.885623</latitude><altitude>300</altitude><heading>168.8</heading><tilt>60</tilt><altitudeMode>relativeToGround</altitudeMode></Camera></gx:FlyTo><gx:FlyTo><gx:duration>5.6</gx:duration><gx:flyToMode>smooth</gx:flyToMode><Camera><longitude>140.058346</longitude><latitude>37.874851</latitude><altitude>300</altitude><heading>167.8</heading><tilt>60</tilt><altitudeMode>relativeToGround</altitudeMode></Camera></gx:FlyTo><gx:FlyTo><gx:duration>5.6</gx:duration><gx:flyToMode>smooth</gx:flyToMode><Camera><longitude>140.061007</longitude><latitude>37.865152</latitude><altitude>300</altitude><heading>145.6</heading><tilt>60</tilt><altitudeMode>relativeToGround</altitudeMode></Camera></gx:FlyTo><gx:FlyTo><gx:duration>5.6</gx:duration><gx:flyToMode>smooth</gx:flyToMode><Camera><longitude>140.067530</longitude><latitude>37.857642</latitude><altitude>300</altitude><heading>135.1</heading><tilt>60</tilt><altitudeMode>relativeToGround</altitudeMode></Camera></gx:FlyTo><gx:FlyTo><gx:duration>5.6</gx:duration><gx:flyToMode>smooth</gx:flyToMode><Camera><longitude>140.075984</longitude><latitude>37.850947</latitude><altitude>300</altitude><heading>119.4</heading><tilt>60</tilt><altitudeMode>relativeToGround</altitudeMode></Camera></gx:FlyTo><gx:FlyTo><gx:duration>5.6</gx:duration><gx:flyToMode>smooth</gx:flyToMode><Camera><longitude>140.086112</longitude><latitude>37.846441</latitude><altitude>300</altitude><heading>142.7</heading><tilt>60</tilt><altitudeMode>relativeToGround</altitudeMode></Camera></gx:FlyTo><gx:FlyTo><gx:duration>5.6</gx:duration><gx:flyToMode>smooth</gx:flyToMode><Camera><longitude>140.092206</longitude><latitude>37.840133</latitude><altitude>300</altitude><heading>159.6</heading><tilt>60</tilt><altitudeMode>relativeToGround</altitudeMode></Camera></gx:FlyTo><gx:FlyTo><gx:duration>5.6</gx:duration><gx:flyToMode>smooth</gx:flyToMode><Camera><longitude>140.095897</longitude><latitude>37.832279</latitude><altitude>300</altitude><heading>147.8</heading><tilt>60</tilt><altitudeMode>relativeToGround</altitudeMode></Camera></gx:FlyTo><gx:FlyTo><gx:duration>5.6</gx:duration><gx:flyToMode>smooth</gx:flyToMode><Camera><longitude>140.102420</longitude><latitude>37.824082</latitude><altitude>300</altitude><heading>149.7</heading><tilt>60</tilt><altitudeMode>relativeToGround</altitudeMode></Camera></gx:FlyTo><gx:FlyTo><gx:duration>5.6</gx:duration><gx:flyToMode>smooth</gx:flyToMode><Camera><longitude>140.108385</longitude><latitude>37.816014</latitude><altitude>300</altitude><heading>170.2</heading><tilt>60</tilt><altitudeMode>relativeToGround</altitudeMode></Camera></gx:FlyTo><gx:FlyTo><gx:duration>5.6</gx:duration><gx:flyToMode>smooth</gx:flyToMode><Camera><longitude>140.110230</longitude><latitude>37.807560</latitude><altitude>300</altitude><heading>179.3</heading><tilt>60</tilt><altitudeMode>relativeToGround</altitudeMode></Camera></gx:FlyTo><gx:FlyTo><gx:duration>5.6</gx:duration><gx:flyToMode>smooth</gx:flyToMode><Camera><longitude>140.110359</longitude><latitude>37.799063</latitude><altitude>300</altitude><heading>148.3</heading><tilt>60</tilt><altitudeMode>relativeToGround</altitudeMode></Camera></gx:FlyTo><gx:FlyTo><gx:duration>5.6</gx:duration><gx:flyToMode>smooth</gx:flyToMode><Camera><longitude>140.116196</longitude><latitude>37.791595</latitude><altitude>300</altitude><heading>168.4</heading><tilt>60</tilt><altitudeMode>relativeToGround</altitudeMode></Camera></gx:FlyTo><gx:FlyTo><gx:duration>5.6</gx:duration><gx:flyToMode>smooth</gx:flyToMode><Camera><longitude>140.118556</longitude><latitude>37.782540</latitude><altitude>300</altitude><heading>198.5</heading><tilt>60</tilt><altitudeMode>relativeToGround</altitudeMode></Camera></gx:FlyTo><gx:FlyTo><gx:duration>5.6</gx:duration><gx:flyToMode>smooth</gx:flyToMode><Camera><longitude>140.115852</longitude><latitude>37.776146</latitude><altitude>300</altitude><heading>224.3</heading><tilt>60</tilt><altitudeMode>relativeToGround</altitudeMode></Camera></gx:FlyTo><gx:FlyTo><gx:duration>5.6</gx:duration><gx:flyToMode>smooth</gx:flyToMode><Camera><longitude>140.109973</longitude><latitude>37.771382</latitude><altitude>300</altitude><heading>171.9</heading><tilt>60</tilt><altitudeMode>relativeToGround</altitudeMode></Camera></gx:FlyTo><gx:FlyTo><gx:duration>5.6</gx:duration><gx:flyToMode>smooth</gx:flyToMode><Camera><longitude>140.111003</longitude><latitude>37.765632</latitude><altitude>300</altitude><heading>236.9</heading><tilt>60</tilt><altitudeMode>relativeToGround</altitudeMode></Camera></gx:FlyTo><gx:FlyTo><gx:duration>5.6</gx:duration><gx:flyToMode>smooth</gx:flyToMode><Camera><longitude>140.105166</longitude><latitude>37.762628</latitude><altitude>300</altitude><heading>197.1</heading><tilt>60</tilt><altitudeMode>relativeToGround</altitudeMode></Camera></gx:FlyTo><gx:FlyTo><gx:duration>5.6</gx:duration><gx:flyToMode>smooth</gx:flyToMode><Camera><longitude>140.102892</longitude><latitude>37.756791</latitude><altitude>300</altitude><heading>231.2</heading><tilt>60</tilt><altitudeMode>relativeToGround</altitudeMode></Camera></gx:FlyTo><gx:FlyTo><gx:duration>5.6</gx:duration><gx:flyToMode>smooth</gx:flyToMode><Camera><longitude>140.097485</longitude><latitude>37.753358</latitude><altitude>300</altitude><heading>124.1</heading><tilt>60</tilt><altitudeMode>relativeToGround</altitudeMode></Camera></gx:FlyTo><gx:FlyTo><gx:duration>5.6</gx:duration><gx:flyToMode>smooth</gx:flyToMode><Camera><longitude>140.102463</longitude><latitude>37.750697</latitude><altitude>300</altitude><heading>262.3</heading><tilt>60</tilt><altitudeMode>relativeToGround</altitudeMode></Camera></gx:FlyTo><gx:FlyTo><gx:duration>5.6</gx:duration><gx:flyToMode>smooth</gx:flyToMode><Camera><longitude>140.094481</longitude><latitude>37.749839</latitude><altitude>300</altitude><heading>309.9</heading><tilt>60</tilt><altitudeMode>relativeToGround</altitudeMode></Camera></gx:FlyTo><gx:FlyTo><gx:duration>5.6</gx:duration><gx:flyToMode>smooth</gx:flyToMode><Camera><longitude>140.086884</longitude><latitude>37.754860</latitude><altitude>300</altitude><heading>280.6</heading><tilt>60</tilt><altitudeMode>relativeToGround</altitudeMode></Camera></gx:FlyTo><gx:FlyTo><gx:duration>5.6</gx:duration><gx:flyToMode>smooth</gx:flyToMode><Camera><longitude>140.079889</longitude><latitude>37.755890</latitude><altitude>300</altitude><heading>207.4</heading><tilt>60</tilt><altitudeMode>relativeToGround</altitudeMode></Camera></gx:FlyTo><gx:FlyTo><gx:duration>5.6</gx:duration><gx:flyToMode>smooth</gx:flyToMode><Camera><longitude>140.078001</longitude><latitude>37.753015</latitude><altitude>300</altitude><heading>191.4</heading><tilt>60</tilt><altitudeMode>relativeToGround</altitudeMode></Camera></gx:FlyTo><gx:FlyTo><gx:duration>5.6</gx:duration><gx:flyToMode>smooth</gx:flyToMode><Camera><longitude>140.077486</longitude><latitude>37.750998</latitude><altitude>300</altitude><heading>165.9</heading><tilt>60</tilt><altitudeMode>relativeToGround</altitudeMode></Camera></gx:FlyTo><gx:FlyTo><gx:duration>5.6</gx:duration><gx:flyToMode>smooth</gx:flyToMode><Camera><longitude>140.078688</longitude><latitude>37.747221</latitude><altitude>300</altitude><heading>213.2</heading><tilt>60</tilt><altitudeMode>relativeToGround</altitudeMode></Camera></gx:FlyTo><gx:FlyTo><gx:duration>5.6</gx:duration><gx:flyToMode>smooth</gx:flyToMode><Camera><longitude>140.076241</longitude><latitude>37.744260</latitude><altitude>300</altitude><heading>291.0</heading><tilt>60</tilt><altitudeMode>relativeToGround</altitudeMode></Camera></gx:FlyTo><gx:FlyTo><gx:duration>5.6</gx:duration><gx:flyToMode>smooth</gx:flyToMode><Camera><longitude>140.071993</longitude><latitude>37.745547</latitude><altitude>300</altitude><heading>177.9</heading><tilt>60</tilt><altitudeMode>relativeToGround</altitudeMode></Camera></gx:FlyTo><gx:FlyTo><gx:duration>5.6</gx:duration><gx:flyToMode>smooth</gx:flyToMode><Camera><longitude>140.072379</longitude><latitude>37.737222</latitude><altitude>300</altitude><heading>192.9</heading><tilt>60</tilt><altitudeMode>relativeToGround</altitudeMode></Camera></gx:FlyTo><gx:FlyTo><gx:duration>5.6</gx:duration><gx:flyToMode>smooth</gx:flyToMode><Camera><longitude>140.069847</longitude><latitude>37.728467</latitude><altitude>300</altitude><heading>230.0</heading><tilt>60</tilt><altitudeMode>relativeToGround</altitudeMode></Camera></gx:FlyTo><gx:FlyTo><gx:duration>5.6</gx:duration><gx:flyToMode>smooth</gx:flyToMode><Camera><longitude>140.061564</longitude><latitude>37.722974</latitude><altitude>300</altitude><heading>185.6</heading><tilt>60</tilt><altitudeMode>relativeToGround</altitudeMode></Camera></gx:FlyTo><gx:FlyTo><gx:duration>5.6</gx:duration><gx:flyToMode>smooth</gx:flyToMode><Camera><longitude>140.060792</longitude><latitude>37.716751</latitude><altitude>300</altitude><heading>171.2</heading><tilt>60</tilt><altitudeMode>relativeToGround</altitudeMode></Camera></gx:FlyTo><gx:FlyTo><gx:duration>5.6</gx:duration><gx:flyToMode>smooth</gx:flyToMode><Camera><longitude>140.062680</longitude><latitude>37.707095</latitude><altitude>300</altitude><heading>185.3</heading><tilt>60</tilt><altitudeMode>relativeToGround</altitudeMode></Camera></gx:FlyTo><gx:FlyTo><gx:duration>5.6</gx:duration><gx:flyToMode>smooth</gx:flyToMode><Camera><longitude>140.061736</longitude><latitude>37.698984</latitude><altitude>300</altitude><heading>187.0</heading><tilt>60</tilt><altitudeMode>relativeToGround</altitudeMode></Camera></gx:FlyTo><gx:FlyTo><gx:duration>5.6</gx:duration><gx:flyToMode>smooth</gx:flyToMode><Camera><longitude>140.060534</longitude><latitude>37.691216</latitude><altitude>300</altitude><heading>148.2</heading><tilt>60</tilt><altitudeMode>relativeToGround</altitudeMode></Camera></gx:FlyTo><gx:FlyTo><gx:duration>5.6</gx:duration><gx:flyToMode>smooth</gx:flyToMode><Camera><longitude>140.066242</longitude><latitude>37.683921</latitude><altitude>300</altitude><heading>143.1</heading><tilt>60</tilt><altitudeMode>relativeToGround</altitudeMode></Camera></gx:FlyTo><gx:FlyTo><gx:duration>5.6</gx:duration><gx:flyToMode>smooth</gx:flyToMode><Camera><longitude>140.073195</longitude><latitude>37.676582</latitude><altitude>300</altitude><heading>158.0</heading><tilt>60</tilt><altitudeMode>relativeToGround</altitudeMode></Camera></gx:FlyTo><gx:FlyTo><gx:duration>5.6</gx:duration><gx:flyToMode>smooth</gx:flyToMode><Camera><longitude>140.077014</longitude><latitude>37.669115</latitude><altitude>300</altitude><heading>155.7</heading><tilt>60</tilt><altitudeMode>relativeToGround</altitudeMode></Camera></gx:FlyTo><gx:FlyTo><gx:duration>5.6</gx:duration><gx:flyToMode>smooth</gx:flyToMode><Camera><longitude>140.081263</longitude><latitude>37.661648</latitude><altitude>300</altitude><heading>75.7</heading><tilt>60</tilt><altitudeMode>relativeToGround</altitudeMode></Camera></gx:FlyTo><gx:FlyTo><gx:duration>5.6</gx:duration><gx:flyToMode>smooth</gx:flyToMode><Camera><longitude>140.089374</longitude><latitude>37.663279</latitude><altitude>300</altitude><heading>68.5</heading><tilt>60</tilt><altitudeMode>relativeToGround</altitudeMode></Camera></gx:FlyTo><gx:FlyTo><gx:duration>5.6</gx:duration><gx:flyToMode>smooth</gx:flyToMode><Camera><longitude>140.100532</longitude><latitude>37.666755</latitude><altitude>300</altitude><heading>61.6</heading><tilt>60</tilt><altitudeMode>relativeToGround</altitudeMode></Camera></gx:FlyTo><gx:FlyTo><gx:duration>5.6</gx:duration><gx:flyToMode>smooth</gx:flyToMode><Camera><longitude>140.108943</longitude><latitude>37.670360</latitude><altitude>300</altitude><heading>66.3</heading><tilt>60</tilt><altitudeMode>relativeToGround</altitudeMode></Camera></gx:FlyTo><gx:FlyTo><gx:duration>5.6</gx:duration><gx:flyToMode>smooth</gx:flyToMode><Camera><longitude>140.118470</longitude><latitude>37.673664</latitude><altitude>300</altitude><heading>77.3</heading><tilt>60</tilt><altitudeMode>relativeToGround</altitudeMode></Camera></gx:FlyTo><gx:FlyTo><gx:duration>5.6</gx:duration><gx:flyToMode>smooth</gx:flyToMode><Camera><longitude>140.127139</longitude><latitude>37.675209</latitude><altitude>300</altitude><heading>97.7</heading><tilt>60</tilt><altitudeMode>relativeToGround</altitudeMode></Camera></gx:FlyTo><gx:FlyTo><gx:duration>5.6</gx:duration><gx:flyToMode>smooth</gx:flyToMode><Camera><longitude>140.136709</longitude><latitude>37.674179</latitude><altitude>300</altitude><heading>108.9</heading><tilt>60</tilt><altitudeMode>relativeToGround</altitudeMode></Camera></gx:FlyTo><gx:FlyTo><gx:duration>5.6</gx:duration><gx:flyToMode>smooth</gx:flyToMode><Camera><longitude>140.143533</longitude><latitude>37.672334</latitude><altitude>300</altitude><heading>115.4</heading><tilt>60</tilt><altitudeMode>relativeToGround</altitudeMode></Camera></gx:FlyTo><gx:FlyTo><gx:duration>5.6</gx:duration><gx:flyToMode>smooth</gx:flyToMode><Camera><longitude>140.146966</longitude><latitude>37.671046</latitude><altitude>300</altitude><heading>202.1</heading><tilt>60</tilt><altitudeMode>relativeToGround</altitudeMode></Camera></gx:FlyTo><gx:FlyTo><gx:duration>5.6</gx:duration><gx:flyToMode>smooth</gx:flyToMode><Camera><longitude>140.143061</longitude><latitude>37.663450</latitude><altitude>300</altitude><heading>117.2</heading><tilt>60</tilt><altitudeMode>relativeToGround</altitudeMode></Camera></gx:FlyTo><gx:FlyTo><gx:duration>5.6</gx:duration><gx:flyToMode>smooth</gx:flyToMode><Camera><longitude>140.148339</longitude><latitude>37.661304</latitude><altitude>300</altitude><heading>117.0</heading><tilt>60</tilt><altitudeMode>relativeToGround</altitudeMode></Camera></gx:FlyTo><gx:FlyTo><gx:duration>5.6</gx:duration><gx:flyToMode>smooth</gx:flyToMode><Camera><longitude>140.154390</longitude><latitude>37.658858</latitude><altitude>300</altitude><heading>124.2</heading><tilt>60</tilt><altitudeMode>relativeToGround</altitudeMode></Camera></gx:FlyTo><gx:FlyTo><gx:duration>5.6</gx:duration><gx:flyToMode>smooth</gx:flyToMode><Camera><longitude>140.161729</longitude><latitude>37.654910</latitude><altitude>300</altitude><heading>115.3</heading><tilt>60</tilt><altitudeMode>relativeToGround</altitudeMode></Camera></gx:FlyTo><gx:FlyTo><gx:duration>5.6</gx:duration><gx:flyToMode>smooth</gx:flyToMode><Camera><longitude>140.171256</longitude><latitude>37.651348</latitude><altitude>300</altitude><heading>74.1</heading><tilt>60</tilt><altitudeMode>relativeToGround</altitudeMode></Camera></gx:FlyTo><gx:FlyTo><gx:duration>5.6</gx:duration><gx:flyToMode>smooth</gx:flyToMode><Camera><longitude>140.184560</longitude><latitude>37.654352</latitude><altitude>300</altitude><heading>98.1</heading><tilt>60</tilt><altitudeMode>relativeToGround</altitudeMode></Camera></gx:FlyTo><gx:FlyTo><gx:duration>5.6</gx:duration><gx:flyToMode>smooth</gx:flyToMode><Camera><longitude>140.196018</longitude><latitude>37.653065</latitude><altitude>300</altitude><heading>110.2</heading><tilt>60</tilt><altitudeMode>relativeToGround</altitudeMode></Camera></gx:FlyTo><gx:FlyTo><gx:duration>5.6</gx:duration><gx:flyToMode>smooth</gx:flyToMode><Camera><longitude>140.207648</longitude><latitude>37.649674</latitude><altitude>300</altitude><heading>108.0</heading><tilt>60</tilt><altitudeMode>relativeToGround</altitudeMode></Camera></gx:FlyTo><gx:FlyTo><gx:duration>5.6</gx:duration><gx:flyToMode>smooth</gx:flyToMode><Camera><longitude>140.213828</longitude><latitude>37.648087</latitude><altitude>300</altitude><heading>84.4</heading><tilt>60</tilt><altitudeMode>relativeToGround</altitudeMode></Camera></gx:FlyTo><gx:FlyTo><gx:duration>5.6</gx:duration><gx:flyToMode>smooth</gx:flyToMode><Camera><longitude>140.218806</longitude><latitude>37.648473</latitude><altitude>300</altitude><heading>136.8</heading><tilt>60</tilt><altitudeMode>relativeToGround</altitudeMode></Camera></gx:FlyTo><gx:FlyTo><gx:duration>5.6</gx:duration><gx:flyToMode>smooth</gx:flyToMode><Camera><longitude>140.221553</longitude><latitude>37.646155</latitude><altitude>300</altitude><heading>196.9</heading><tilt>60</tilt><altitudeMode>relativeToGround</altitudeMode></Camera></gx:FlyTo><gx:FlyTo><gx:duration>5.6</gx:duration><gx:flyToMode>smooth</gx:flyToMode><Camera><longitude>140.218420</longitude><latitude>37.638001</latitude><altitude>300</altitude><heading>208.1</heading><tilt>60</tilt><altitudeMode>relativeToGround</altitudeMode></Camera></gx:FlyTo><gx:FlyTo><gx:duration>5.6</gx:duration><gx:flyToMode>smooth</gx:flyToMode><Camera><longitude>140.212111</longitude><latitude>37.628646</latitude><altitude>300</altitude><heading>216.4</heading><tilt>60</tilt><altitudeMode>relativeToGround</altitudeMode></Camera></gx:FlyTo><gx:FlyTo><gx:duration>5.6</gx:duration><gx:flyToMode>smooth</gx:flyToMode><Camera><longitude>140.205288</longitude><latitude>37.621307</latitude><altitude>300</altitude><heading>259.0</heading><tilt>60</tilt><altitudeMode>relativeToGround</altitudeMode></Camera></gx:FlyTo><gx:FlyTo><gx:duration>5.6</gx:duration><gx:flyToMode>smooth</gx:flyToMode><Camera><longitude>140.193872</longitude><latitude>37.619548</latitude><altitude>300</altitude><heading>284.4</heading><tilt>60</tilt><altitudeMode>relativeToGround</altitudeMode></Camera></gx:FlyTo><gx:FlyTo><gx:duration>5.6</gx:duration><gx:flyToMode>smooth</gx:flyToMode><Camera><longitude>140.182672</longitude><latitude>37.621822</latitude><altitude>300</altitude><heading>274.0</heading><tilt>60</tilt><altitudeMode>relativeToGround</altitudeMode></Camera></gx:FlyTo><gx:FlyTo><gx:duration>5.6</gx:duration><gx:flyToMode>smooth</gx:flyToMode><Camera><longitude>140.171041</longitude><latitude>37.622466</latitude><altitude>300</altitude><heading>266.7</heading><tilt>60</tilt><altitudeMode>relativeToGround</altitudeMode></Camera></gx:FlyTo><gx:FlyTo><gx:duration>5.6</gx:duration><gx:flyToMode>smooth</gx:flyToMode><Camera><longitude>140.159798</longitude><latitude>37.621951</latitude><altitude>300</altitude><heading>259.5</heading><tilt>60</tilt><altitudeMode>relativeToGround</altitudeMode></Camera></gx:FlyTo><gx:FlyTo><gx:duration>5.6</gx:duration><gx:flyToMode>smooth</gx:flyToMode><Camera><longitude>140.147181</longitude><latitude>37.620106</latitude><altitude>300</altitude><heading>218.4</heading><tilt>60</tilt><altitudeMode>relativeToGround</altitudeMode></Camera></gx:FlyTo><gx:FlyTo><gx:duration>5.6</gx:duration><gx:flyToMode>smooth</gx:flyToMode><Camera><longitude>140.138812</longitude><latitude>37.611737</latitude><altitude>300</altitude><heading>228.9</heading><tilt>60</tilt><altitudeMode>relativeToGround</altitudeMode></Camera></gx:FlyTo><gx:FlyTo><gx:duration>5.6</gx:duration><gx:flyToMode>smooth</gx:flyToMode><Camera><longitude>140.132847</longitude><latitude>37.607617</latitude><altitude>300</altitude><heading>266.6</heading><tilt>60</tilt><altitudeMode>relativeToGround</altitudeMode></Camera></gx:FlyTo><gx:FlyTo><gx:duration>5.6</gx:duration><gx:flyToMode>smooth</gx:flyToMode><Camera><longitude>140.122762</longitude><latitude>37.607145</latitude><altitude>300</altitude><heading>331.2</heading><tilt>60</tilt><altitudeMode>relativeToGround</altitudeMode></Camera></gx:FlyTo><gx:FlyTo><gx:duration>5.6</gx:duration><gx:flyToMode>smooth</gx:flyToMode><Camera><longitude>140.117440</longitude><latitude>37.614827</latitude><altitude>300</altitude><heading>332.5</heading><tilt>60</tilt><altitudeMode>relativeToGround</altitudeMode></Camera></gx:FlyTo><gx:FlyTo><gx:duration>5.6</gx:duration><gx:flyToMode>smooth</gx:flyToMode><Camera><longitude>140.112033</longitude><latitude>37.623067</latitude><altitude>300</altitude><heading>314.0</heading><tilt>60</tilt><altitudeMode>relativeToGround</altitudeMode></Camera></gx:FlyTo><gx:FlyTo><gx:duration>5.6</gx:duration><gx:flyToMode>smooth</gx:flyToMode><Camera><longitude>140.104351</longitude><latitude>37.628946</latitude><altitude>300</altitude><heading>344.6</heading><tilt>60</tilt><altitudeMode>relativeToGround</altitudeMode></Camera></gx:FlyTo><gx:FlyTo><gx:duration>5.6</gx:duration><gx:flyToMode>smooth</gx:flyToMode><Camera><longitude>140.101218</longitude><latitude>37.637959</latitude><altitude>300</altitude><heading>350.0</heading><tilt>60</tilt><altitudeMode>relativeToGround</altitudeMode></Camera></gx:FlyTo><gx:FlyTo><gx:duration>5.6</gx:duration><gx:flyToMode>smooth</gx:flyToMode><Camera><longitude>140.099459</longitude><latitude>37.645855</latitude><altitude>300</altitude><heading>334.5</heading><tilt>60</tilt><altitudeMode>relativeToGround</altitudeMode></Camera></gx:FlyTo><gx:FlyTo><gx:duration>5.6</gx:duration><gx:flyToMode>smooth</gx:flyToMode><Camera><longitude>140.095167</longitude><latitude>37.652979</latitude><altitude>300</altitude><heading>308.9</heading><tilt>60</tilt><altitudeMode>relativeToGround</altitudeMode></Camera></gx:FlyTo><gx:FlyTo><gx:duration>5.6</gx:duration><gx:flyToMode>smooth</gx:flyToMode><Camera><longitude>140.086627</longitude><latitude>37.658429</latitude><altitude>300</altitude><heading>270.9</heading><tilt>60</tilt><altitudeMode>relativeToGround</altitudeMode></Camera></gx:FlyTo><gx:FlyTo><gx:duration>5.6</gx:duration><gx:flyToMode>smooth</gx:flyToMode><Camera><longitude>140.076585</longitude><latitude>37.658558</latitude><altitude>300</altitude><heading>250.2</heading><tilt>60</tilt><altitudeMode>relativeToGround</altitudeMode></Camera></gx:FlyTo><gx:FlyTo><gx:duration>5.6</gx:duration><gx:flyToMode>smooth</gx:flyToMode><Camera><longitude>140.067401</longitude><latitude>37.655940</latitude><altitude>300</altitude><heading>206.9</heading><tilt>60</tilt><altitudeMode>relativeToGround</altitudeMode></Camera></gx:FlyTo><gx:FlyTo><gx:duration>5.6</gx:duration><gx:flyToMode>smooth</gx:flyToMode><Camera><longitude>140.062809</longitude><latitude>37.648773</latitude><altitude>300</altitude><heading>245.1</heading><tilt>60</tilt><altitudeMode>relativeToGround</altitudeMode></Camera></gx:FlyTo><gx:FlyTo><gx:duration>5.6</gx:duration><gx:flyToMode>smooth</gx:flyToMode><Camera><longitude>140.050879</longitude><latitude>37.644396</latitude><altitude>300</altitude><heading>180.0</heading><tilt>60</tilt><altitudeMode>relativeToGround</altitudeMode></Camera></gx:FlyTo><gx:FlyTo><gx:duration>5.6</gx:duration><gx:flyToMode>smooth</gx:flyToMode><Camera><longitude>140.050879</longitude><latitude>37.637315</latitude><altitude>300</altitude><heading>158.9</heading><tilt>60</tilt><altitudeMode>relativeToGround</altitudeMode></Camera></gx:FlyTo><gx:FlyTo><gx:duration>5.6</gx:duration><gx:flyToMode>smooth</gx:flyToMode><Camera><longitude>140.052681</longitude><latitude>37.633624</latitude><altitude>300</altitude><heading>181.5</heading><tilt>60</tilt><altitudeMode>relativeToGround</altitudeMode></Camera></gx:FlyTo><gx:FlyTo><gx:duration>5.6</gx:duration><gx:flyToMode>smooth</gx:flyToMode><Camera><longitude>140.052381</longitude><latitude>37.624526</latitude><altitude>300</altitude><heading>206.3</heading><tilt>60</tilt><altitudeMode>relativeToGround</altitudeMode></Camera></gx:FlyTo><gx:FlyTo><gx:duration>5.6</gx:duration><gx:flyToMode>smooth</gx:flyToMode><Camera><longitude>140.048475</longitude><latitude>37.618260</latitude><altitude>300</altitude><heading>165.9</heading><tilt>60</tilt><altitudeMode>relativeToGround</altitudeMode></Camera></gx:FlyTo><gx:FlyTo><gx:duration>5.6</gx:duration><gx:flyToMode>smooth</gx:flyToMode><Camera><longitude>140.051308</longitude><latitude>37.609334</latitude><altitude>300</altitude><heading>172.7</heading><tilt>60</tilt><altitudeMode>relativeToGround</altitudeMode></Camera></gx:FlyTo><gx:FlyTo><gx:duration>5.6</gx:duration><gx:flyToMode>smooth</gx:flyToMode><Camera><longitude>140.052381</longitude><latitude>37.602682</latitude><altitude>300</altitude><heading>282.3</heading><tilt>60</tilt><altitudeMode>relativeToGround</altitudeMode></Camera></gx:FlyTo><gx:FlyTo><gx:duration>5.6</gx:duration><gx:flyToMode>smooth</gx:flyToMode><Camera><longitude>140.045900</longitude><latitude>37.603798</latitude><altitude>300</altitude><heading>225.3</heading><tilt>60</tilt><altitudeMode>relativeToGround</altitudeMode></Camera></gx:FlyTo><gx:FlyTo><gx:duration>5.6</gx:duration><gx:flyToMode>smooth</gx:flyToMode><Camera><longitude>140.042338</longitude><latitude>37.601008</latitude><altitude>300</altitude><heading>210.5</heading><tilt>60</tilt><altitudeMode>relativeToGround</altitudeMode></Camera></gx:FlyTo><gx:FlyTo><gx:duration>5.6</gx:duration><gx:flyToMode>smooth</gx:flyToMode><Camera><longitude>140.039334</longitude><latitude>37.596974</latitude><altitude>300</altitude><heading>208.3</heading><tilt>60</tilt><altitudeMode>relativeToGround</altitudeMode></Camera></gx:FlyTo><gx:FlyTo><gx:duration>5.6</gx:duration><gx:flyToMode>smooth</gx:flyToMode><Camera><longitude>140.035686</longitude><latitude>37.591610</latitude><altitude>300</altitude><heading>234.8</heading><tilt>60</tilt><altitudeMode>relativeToGround</altitudeMode></Camera></gx:FlyTo><gx:FlyTo><gx:duration>5.6</gx:duration><gx:flyToMode>smooth</gx:flyToMode><Camera><longitude>140.029464</longitude><latitude>37.588134</latitude><altitude>300</altitude><heading>208.5</heading><tilt>60</tilt><altitudeMode>relativeToGround</altitudeMode></Camera></gx:FlyTo><gx:FlyTo><gx:duration>5.6</gx:duration><gx:flyToMode>smooth</gx:flyToMode><Camera><longitude>140.026288</longitude><latitude>37.583499</latitude><altitude>300</altitude><heading>183.0</heading><tilt>60</tilt><altitudeMode>relativeToGround</altitudeMode></Camera></gx:FlyTo><gx:FlyTo><gx:duration>5.6</gx:duration><gx:flyToMode>smooth</gx:flyToMode><Camera><longitude>140.025773</longitude><latitude>37.575817</latitude><altitude>300</altitude><heading>276.4</heading><tilt>60</tilt><altitudeMode>relativeToGround</altitudeMode></Camera></gx:FlyTo><gx:FlyTo><gx:duration>5.6</gx:duration><gx:flyToMode>smooth</gx:flyToMode><Camera><longitude>140.022383</longitude><latitude>37.576118</latitude><altitude>300</altitude><heading>202.7</heading><tilt>60</tilt><altitudeMode>relativeToGround</altitudeMode></Camera></gx:FlyTo><gx:FlyTo><gx:duration>5.6</gx:duration><gx:flyToMode>smooth</gx:flyToMode><Camera><longitude>140.018864</longitude><latitude>37.569466</latitude><altitude>300</altitude><heading>235.3</heading><tilt>60</tilt><altitudeMode>relativeToGround</altitudeMode></Camera></gx:FlyTo><gx:FlyTo><gx:duration>5.6</gx:duration><gx:flyToMode>smooth</gx:flyToMode><Camera><longitude>140.009465</longitude><latitude>37.564316</latitude><altitude>300</altitude><heading>240.6</heading><tilt>60</tilt><altitudeMode>relativeToGround</altitudeMode></Camera></gx:FlyTo><gx:FlyTo><gx:duration>5.6</gx:duration><gx:flyToMode>smooth</gx:flyToMode><Camera><longitude>139.998693</longitude><latitude>37.559509</latitude><altitude>300</altitude><heading>302.5</heading><tilt>60</tilt><altitudeMode>relativeToGround</altitudeMode></Camera></gx:FlyTo><gx:FlyTo><gx:duration>5.6</gx:duration><gx:flyToMode>smooth</gx:flyToMode><Camera><longitude>139.989166</longitude><latitude>37.564316</latitude><altitude>300</altitude><heading>239.3</heading><tilt>60</tilt><altitudeMode>relativeToGround</altitudeMode></Camera></gx:FlyTo><gx:FlyTo><gx:duration>5.6</gx:duration><gx:flyToMode>smooth</gx:flyToMode><Camera><longitude>139.979854</longitude><latitude>37.559938</latitude><altitude>300</altitude><heading>212.5</heading><tilt>60</tilt><altitudeMode>relativeToGround</altitudeMode></Camera></gx:FlyTo><gx:FlyTo><gx:duration>5.6</gx:duration><gx:flyToMode>smooth</gx:flyToMode><Camera><longitude>139.974232</longitude><latitude>37.552943</latitude><altitude>300</altitude><heading>231.0</heading><tilt>60</tilt><altitudeMode>relativeToGround</altitudeMode></Camera></gx:FlyTo><gx:FlyTo><gx:duration>5.6</gx:duration><gx:flyToMode>smooth</gx:flyToMode><Camera><longitude>139.967880</longitude><latitude>37.548866</latitude><altitude>300</altitude><heading>299.9</heading><tilt>60</tilt><altitudeMode>relativeToGround</altitudeMode></Camera></gx:FlyTo><gx:FlyTo><gx:duration>5.6</gx:duration><gx:flyToMode>smooth</gx:flyToMode><Camera><longitude>139.956379</longitude><latitude>37.554102</latitude><altitude>300</altitude><heading>263.1</heading><tilt>60</tilt><altitudeMode>relativeToGround</altitudeMode></Camera></gx:FlyTo><gx:FlyTo><gx:duration>5.6</gx:duration><gx:flyToMode>smooth</gx:flyToMode><Camera><longitude>139.945693</longitude><latitude>37.553072</latitude><altitude>300</altitude><heading>186.6</heading><tilt>60</tilt><altitudeMode>relativeToGround</altitudeMode></Camera></gx:FlyTo><gx:FlyTo><gx:duration>5.6</gx:duration><gx:flyToMode>smooth</gx:flyToMode><Camera><longitude>139.944320</longitude><latitude>37.543716</latitude><altitude>300</altitude><heading>180.4</heading><tilt>60</tilt><altitudeMode>relativeToGround</altitudeMode></Camera></gx:FlyTo><gx:FlyTo><gx:duration>5.6</gx:duration><gx:flyToMode>smooth</gx:flyToMode><Camera><longitude>139.944234</longitude><latitude>37.533889</latitude><altitude>300</altitude><heading>173.0</heading><tilt>60</tilt><altitudeMode>relativeToGround</altitudeMode></Camera></gx:FlyTo><gx:FlyTo><gx:duration>5.6</gx:duration><gx:flyToMode>smooth</gx:flyToMode><Camera><longitude>139.945607</longitude><latitude>37.525048</latitude><altitude>300</altitude><heading>203.7</heading><tilt>60</tilt><altitudeMode>relativeToGround</altitudeMode></Camera></gx:FlyTo><gx:FlyTo><gx:duration>5.6</gx:duration><gx:flyToMode>smooth</gx:flyToMode><Camera><longitude>139.941230</longitude><latitude>37.517152</latitude><altitude>300</altitude><heading>178.5</heading><tilt>60</tilt><altitudeMode>relativeToGround</altitudeMode></Camera></gx:FlyTo><gx:FlyTo><gx:duration>5.6</gx:duration><gx:flyToMode>smooth</gx:flyToMode><Camera><longitude>139.941530</longitude><latitude>37.508054</latitude><altitude>300</altitude><heading>171.3</heading><tilt>60</tilt><altitudeMode>relativeToGround</altitudeMode></Camera></gx:FlyTo><gx:FlyTo><gx:duration>5.6</gx:duration><gx:flyToMode>smooth</gx:flyToMode><Camera><longitude>139.943247</longitude><latitude>37.499170</latitude><altitude>300</altitude><heading>159.5</heading><tilt>60</tilt><altitudeMode>relativeToGround</altitudeMode></Camera></gx:FlyTo><gx:FlyTo><gx:duration>5.6</gx:duration><gx:flyToMode>smooth</gx:flyToMode><Camera><longitude>139.947152</longitude><latitude>37.490888</latitude><altitude>300</altitude><heading>140.6</heading><tilt>60</tilt><altitudeMode>relativeToGround</altitudeMode></Camera></gx:FlyTo><gx:FlyTo><gx:duration>5.6</gx:duration><gx:flyToMode>smooth</gx:flyToMode><Camera><longitude>139.954576</longitude><latitude>37.483721</latitude><altitude>300</altitude><heading>129.8</heading><tilt>60</tilt><altitudeMode>relativeToGround</altitudeMode></Camera></gx:FlyTo><gx:FlyTo><gx:duration>5.6</gx:duration><gx:flyToMode>smooth</gx:flyToMode><Camera><longitude>139.962816</longitude><latitude>37.478271</latitude><altitude>300</altitude><heading>187.1</heading><tilt>60</tilt><altitudeMode>relativeToGround</altitudeMode></Camera></gx:FlyTo><gx:FlyTo><gx:duration>5.6</gx:duration><gx:flyToMode>smooth</gx:flyToMode><Camera><longitude>139.962153</longitude><latitude>37.474051</latitude><altitude>300</altitude><heading>187.1</heading><tilt>60</tilt><altitudeMode>relativeToGround</altitudeMode></Camera></gx:FlyTo></gx:Playlist></gx:Tour>
<Placemark><name>Route line — 10/13 Tue</name><visibility>0</visibility><styleUrl>#rt</styleUrl><LineString><altitudeMode>relativeToGround</altitudeMode><coordinates>140.262885,38.148496,120 140.262890,38.148521,120 140.263224,38.148479,120 140.264425,38.148308,120 140.263782,38.146763,120 140.263481,38.146076,120 140.262837,38.144403,120 140.262623,38.143888,120 140.262237,38.142943,120 140.261850,38.141999,120 140.261378,38.141098,120 140.259275,38.137450,120 140.258889,38.136806,120 140.258160,38.136034,120 140.257902,38.135777,120 140.257258,38.135176,120 140.257130,38.135090,120 140.256915,38.134918,120 140.256400,38.134446,120 140.255885,38.133974,120 140.256743,38.133159,120 140.257001,38.132815,120 140.257215,38.132515,120 140.257859,38.131399,120 140.258031,38.131099,120 140.258632,38.130026,120 140.258760,38.129811,120 140.259104,38.129210,120 140.259147,38.129082,120 140.259447,38.128610,120 140.260177,38.127322,120 140.258760,38.126507,120 140.258245,38.126249,120 140.257773,38.125992,120 140.257430,38.125906,120 140.257258,38.125949,120 140.256529,38.126206,120 140.255971,38.126249,120 140.255585,38.126121,120 140.254469,38.125391,120 140.252838,38.124061,120 140.251937,38.123202,120 140.251164,38.122301,120 140.250092,38.120885,120 140.248203,38.117580,120 140.247259,38.116422,120 140.246615,38.115778,120 140.245972,38.115177,120 140.245285,38.114662,120 140.243740,38.113675,120 140.242453,38.113031,120 140.240779,38.112345,120 140.229578,38.108697,120 140.225544,38.107367,120 140.223355,38.106551,120 140.222282,38.105993,120 140.221081,38.105264,120 140.220222,38.104620,120 140.218506,38.103204,120 140.216961,38.101830,120 140.215287,38.100286,120 140.213914,38.098783,120 140.212712,38.097281,120 140.211554,38.095651,120 140.210052,38.093247,120 140.208421,38.089814,120 140.207477,38.088012,120 140.206361,38.086295,120 140.205331,38.084965,120 140.204172,38.083677,120 140.202885,38.082476,120 140.200825,38.080802,120 140.196147,38.077240,120 140.193615,38.075180,120 140.192499,38.074150,120 140.191684,38.073249,120 140.190654,38.071704,120 140.190139,38.070588,120 140.189538,38.068957,120 140.189281,38.067670,120 140.189195,38.066425,120 140.189238,38.065524,120 140.189409,38.064280,120 140.189538,38.063765,120 140.190096,38.062134,120 140.190697,38.060975,120 140.191555,38.059731,120 140.192542,38.058228,120 140.193357,38.056598,120 140.193787,38.055267,120 140.194044,38.053594,120 140.194087,38.052349,120 140.193958,38.051276,120 140.193529,38.049517,120 140.192800,38.047800,120 140.189924,38.043079,120 140.189795,38.042865,120 140.187006,38.038445,120 140.184817,38.035054,120 140.184216,38.034239,120 140.183101,38.033037,120 140.182028,38.032136,120 140.181170,38.031535,120 140.179539,38.030634,120 140.178208,38.030033,120 140.174432,38.028789,120 140.170441,38.027501,120 140.169969,38.027329,120 140.167351,38.026471,120 140.167093,38.026385,120 140.165420,38.025699,120 140.164003,38.024926,120 140.162973,38.024240,120 140.161815,38.023210,120 140.161557,38.022995,120 140.161386,38.022823,120 140.161128,38.022566,120 140.160313,38.021622,120 140.159583,38.020463,120 140.159068,38.019390,120 140.158510,38.017845,120 140.157995,38.016000,120 140.157566,38.014026,120 140.156837,38.009348,120 140.156794,38.008704,120 140.156708,38.007030,120 140.156665,38.006344,120 140.156622,38.005185,120 140.156622,38.004842,120 140.156536,38.002996,120 140.156536,38.002954,120 140.156493,38.001194,120 140.156450,38.000164,120 140.156407,37.999778,120 140.156322,37.995358,120 140.156279,37.994971,120 140.156150,37.992096,120 140.156150,37.991753,120 140.156064,37.990594,120 140.155678,37.989178,120 140.155077,37.988019,120 140.154090,37.986603,120 140.153060,37.985616,120 140.151901,37.984715,120 140.147567,37.981367,120 140.145636,37.979865,120 140.139713,37.975359,120 140.139198,37.974930,120 140.137610,37.973728,120 140.136409,37.972956,120 140.135465,37.972484,120 140.134306,37.971969,120 140.133448,37.971668,120 140.132074,37.971282,120 140.131259,37.971067,120 140.128341,37.970338,120 140.126624,37.969651,120 140.125551,37.969050,120 140.124993,37.968750,120 140.124221,37.968149,120 140.123062,37.966990,120 140.122375,37.966089,120 140.121646,37.964888,120 140.119929,37.961712,120 140.119629,37.961154,120 140.119414,37.960811,120 140.118728,37.959566,120 140.118213,37.958794,120 140.117912,37.958107,120 140.117483,37.957335,120 140.117311,37.957034,120 140.116968,37.956433,120 140.116582,37.955618,120 140.116367,37.954845,120 140.116539,37.954330,120 140.117054,37.953687,120 140.117140,37.953215,120 140.116925,37.952614,120 140.116796,37.952142,120 140.116711,37.951884,120 140.116239,37.950683,120 140.116024,37.950683,120 140.115509,37.950683,120 140.114779,37.950726,120 140.114694,37.950726,120 140.113449,37.950811,120 140.112977,37.950811,120 140.112505,37.950768,120 140.112247,37.950425,120 140.112076,37.948623,120 140.111947,37.947164,120 140.111647,37.943473,120 140.111647,37.943087,120 140.111303,37.938366,120 140.111175,37.936907,120 140.111003,37.935791,120 140.110316,37.933645,120 140.110188,37.933173,120 140.109415,37.930770,120 140.109243,37.930126,120 140.109158,37.929740,120 140.108557,37.927766,120 140.108256,37.927079,120 140.107355,37.925534,120 140.106454,37.924504,120 140.105982,37.924075,120 140.105596,37.923818,120 140.105166,37.923603,120 140.105038,37.923517,120 140.104952,37.923260,120 140.104051,37.923346,120 140.103793,37.923388,120 140.103149,37.923388,120 140.102420,37.923388,120 140.101304,37.923388,120 140.100360,37.923388,120 140.099630,37.923388,120 140.098257,37.923388,120 140.097613,37.923431,120 140.096240,37.923431,120 140.095725,37.923431,120 140.095468,37.923431,120 140.093279,37.923388,120 140.092206,37.923217,120 140.090833,37.922916,120 140.089245,37.922316,120 140.087485,37.921586,120 140.086756,37.921329,120 140.083280,37.919912,120 140.082550,37.919655,120 140.080705,37.918925,120 140.080061,37.918668,120 140.079975,37.918668,120 140.078902,37.918239,120 140.078773,37.918153,120 140.077143,37.917509,120 140.076585,37.917295,120 140.074439,37.916436,120 140.074310,37.916393,120 140.072894,37.915835,120 140.072508,37.915664,120 140.072293,37.915535,120 140.071735,37.915149,120 140.071478,37.914805,120 140.070662,37.913690,120 140.069675,37.912230,120 140.069203,37.911673,120 140.068688,37.911115,120 140.068045,37.910471,120 140.067744,37.910171,120 140.066414,37.908969,120 140.066328,37.908883,120 140.065856,37.907896,120 140.065126,37.907166,120 140.064139,37.906222,120 140.063925,37.906051,120 140.063238,37.905579,120 140.062208,37.904806,120 140.062079,37.904677,120 140.061221,37.903047,120 140.060792,37.902317,120 140.060062,37.901545,120 140.059118,37.900643,120 140.058475,37.899570,120 140.058432,37.899313,120 140.058475,37.898669,120 140.058517,37.898197,120 140.058217,37.897682,120 140.057273,37.896695,120 140.056715,37.896266,120 140.055814,37.895494,120 140.055513,37.894592,120 140.055385,37.894120,120 140.055213,37.891932,120 140.055256,37.891631,120 140.055599,37.889614,120 140.055556,37.889271,120 140.055385,37.888370,120 140.055299,37.886825,120 140.055342,37.886224,120 140.055642,37.885623,120 140.055728,37.885237,120 140.055342,37.884164,120 140.055728,37.882061,120 140.056458,37.880645,120 140.056758,37.879829,120 140.056844,37.879529,120 140.057316,37.878027,120 140.057402,37.877641,120 140.058346,37.874851,120 140.058560,37.874250,120 140.058861,37.873349,120 140.059333,37.871890,120 140.059547,37.871289,120 140.059805,37.870302,120 140.059891,37.869058,120 140.059934,37.868414,120 140.059977,37.867513,120 140.060148,37.866826,120 140.060492,37.866182,120 140.061007,37.865152,120 140.061221,37.864895,120 140.061951,37.864208,120 140.062380,37.863822,120 140.063796,37.862535,120 140.064011,37.862320,120 140.064611,37.861805,120 140.065212,37.861075,120 140.066156,37.859745,120 140.066457,37.859187,120 140.066972,37.858672,120 140.067101,37.858071,120 140.067229,37.857857,120 140.067530,37.857642,120 140.068130,37.857213,120 140.068560,37.856870,120 140.070019,37.855496,120 140.070448,37.855282,120 140.071049,37.855024,120 140.071478,37.854724,120 140.072379,37.853866,120 140.073237,37.853136,120 140.074439,37.852278,120 140.074868,37.851677,120 140.075212,37.851377,120 140.075984,37.850947,120 140.079203,37.849874,120 140.079632,37.849660,120 140.080361,37.849145,120 140.081005,37.848759,120 140.081863,37.848330,120 140.082593,37.847986,120 140.083408,37.847729,120 140.085511,37.846656,120 140.086112,37.846441,120 140.086670,37.846313,120 140.087013,37.846270,120 140.087185,37.846227,120 140.088601,37.846055,120 140.089374,37.845583,120 140.089744,37.844916,120 140.089933,37.844981,120 140.089744,37.844916,120 140.089803,37.844810,120 140.090489,37.843308,120 140.090575,37.843137,120 140.090618,37.843051,120 140.091047,37.842364,120 140.091691,37.841291,120 140.092206,37.840133,120 140.092378,37.839832,120 140.092978,37.839103,120 140.094352,37.837515,120 140.095296,37.836313,120 140.095639,37.835884,120 140.095811,37.835670,120 140.095897,37.835283,120 140.095725,37.834854,120 140.095210,37.834253,120 140.095038,37.833953,120 140.094953,37.833695,120 140.095038,37.833352,120 140.095725,37.832494,120 140.095897,37.832279,120 140.096326,37.831850,120 140.096927,37.831206,120 140.099888,37.827988,120 140.100145,37.827430,120 140.100145,37.827301,120 140.100317,37.827044,120 140.101089,37.826486,120 140.101218,37.826400,120 140.101776,37.825456,120 140.102420,37.824082,120 140.102720,37.823610,120 140.103321,37.823267,120 140.103922,37.822881,120 140.104351,37.822452,120 140.104480,37.822323,120 140.104909,37.821765,120 140.105381,37.820950,120 140.106454,37.820048,120 140.106711,37.819662,120 140.107141,37.818289,120 140.107441,37.817817,120 140.107913,37.816701,120 140.108385,37.816014,120 140.108514,37.815285,120 140.108900,37.814813,120 140.109887,37.813954,120 140.110402,37.812238,120 140.110574,37.811980,120 140.111346,37.811379,120 140.111432,37.811208,120 140.111432,37.810993,120 140.111217,37.810264,120 140.111046,37.810049,120 140.109973,37.809191,120 140.109844,37.809019,120 140.109801,37.808762,120 140.110230,37.807560,120 140.110230,37.806916,120 140.109973,37.806058,120 140.109758,37.804942,120 140.109243,37.804384,120 140.109200,37.804041,120 140.109758,37.803526,120 140.109844,37.803354,120 140.109801,37.803140,120 140.109243,37.802410,120 140.108943,37.802067,120 140.108900,37.801895,120 140.109029,37.801723,120 140.109415,37.801423,120 140.109544,37.801080,120 140.109930,37.800736,120 140.110102,37.800479,120 140.110059,37.799921,120 140.110359,37.799063,120 140.110188,37.798290,120 140.110316,37.797432,120 140.110488,37.796960,120 140.111389,37.796359,120 140.111604,37.796144,120 140.111861,37.795587,120 140.112805,37.794943,120 140.113020,37.794514,120 140.113964,37.793527,120 140.114651,37.792196,120 140.114951,37.791939,120 140.116196,37.791595,120 140.116582,37.791424,120 140.116925,37.790823,120 140.118127,37.789879,120 140.118728,37.789750,120 140.118856,37.789536,120 140.118513,37.789149,120 140.118341,37.788463,120 140.118384,37.787905,120 140.118341,37.787604,120 140.117998,37.786446,120 140.117741,37.786059,120 140.117698,37.785759,120 140.118556,37.782540,120 140.118942,37.781940,120 140.119114,37.781596,120 140.119243,37.780995,120 140.119157,37.780437,120 140.119028,37.779965,120 140.118513,37.779493,120 140.118384,37.779107,120 140.118384,37.778635,120 140.118084,37.778163,120 140.118170,37.777863,120 140.118341,37.777734,120 140.119286,37.777090,120 140.119457,37.776833,120 140.119371,37.776747,120 140.119114,37.776747,120 140.117955,37.777004,120 140.117612,37.777004,120 140.117269,37.776747,120 140.115852,37.776146,120 140.115595,37.775931,120 140.115552,37.775760,120 140.115595,37.774773,120 140.115380,37.774129,120 140.115123,37.773829,120 140.114737,37.773700,120 140.114007,37.773657,120 140.111732,37.773871,120 140.111518,37.773829,120 140.111389,37.773700,120 140.111175,37.772927,120 140.110874,37.772884,120 140.110188,37.773185,120 140.109973,37.773142,120 140.109887,37.773013,120 140.109973,37.772884,120 140.110316,37.772799,120 140.110445,37.772627,120 140.110102,37.772069,120 140.109973,37.771382,120 140.109801,37.771039,120 140.109544,37.770824,120 140.109415,37.770782,120 140.108814,37.770996,120 140.108728,37.770996,120 140.108643,37.770867,120 140.108643,37.770824,120 140.108771,37.770696,120 140.109415,37.770352,120 140.109501,37.770267,120 140.109630,37.769365,120 140.109715,37.769108,120 140.109887,37.769108,120 140.110016,37.769194,120 140.110273,37.769752,120 140.110445,37.769794,120 140.110703,37.769709,120 140.111132,37.769151,120 140.111089,37.769022,120 140.110874,37.768764,120 140.111046,37.768207,120 140.111003,37.765632,120 140.111046,37.765503,120 140.111432,37.765245,120 140.111389,37.764816,120 140.111775,37.764215,120 140.111732,37.763872,120 140.111389,37.762585,120 140.111346,37.762542,120 140.111046,37.762456,120 140.109887,37.762370,120 140.109715,37.762027,120 140.109544,37.761898,120 140.108814,37.761984,120 140.108514,37.761726,120 140.108256,37.761683,120 140.107827,37.761941,120 140.107613,37.761941,120 140.107355,37.761769,120 140.107183,37.761726,120 140.106754,37.761941,120 140.106325,37.761855,120 140.106153,37.761898,120 140.105681,37.762327,120 140.105166,37.762628,120 140.104995,37.762971,120 140.104866,37.763443,120 140.104651,37.763615,120 140.104394,37.763658,120 140.103664,37.763572,120 140.103450,37.763443,120 140.103364,37.763314,120 140.103493,37.763186,120 140.104051,37.763100,120 140.104179,37.762971,120 140.104094,37.761855,120 140.103750,37.758851,120 140.103793,37.758508,120 140.104136,37.758164,120 140.104094,37.757649,120 140.103965,37.757521,120 140.103621,37.757349,120 140.102892,37.756791,120 140.102806,37.756534,120 140.102849,37.756405,120 140.103064,37.756276,120 140.103750,37.755976,120 140.104651,37.755761,120 140.104823,37.755632,120 140.104823,37.755547,120 140.104737,37.755418,120 140.103965,37.755075,120 140.103364,37.754517,120 140.102248,37.754045,120 140.102119,37.753873,120 140.102077,37.753315,120 140.101733,37.753015,120 140.101390,37.752843,120 140.100446,37.752671,120 140.099759,37.752585,120 140.098643,37.753015,120 140.097485,37.753358,120 140.097270,37.753358,120 140.097184,37.753272,120 140.097270,37.753143,120 140.097485,37.753015,120 140.098257,37.752671,120 140.098343,37.752585,120 140.098429,37.752457,120 140.098257,37.752328,120 140.097442,37.752242,120 140.096669,37.751942,120 140.096583,37.751813,120 140.096583,37.751684,120 140.096798,37.751555,120 140.096927,37.751598,120 140.098042,37.751770,120 140.098472,37.751684,120 140.098901,37.751384,120 140.099158,37.750611,120 140.099373,37.750397,120 140.099587,37.750354,120 140.099673,37.750397,120 140.100145,37.750697,120 140.100360,37.750740,120 140.100961,37.750397,120 140.101218,37.750311,120 140.101390,37.750483,120 140.101519,37.750869,120 140.101690,37.750955,120 140.102463,37.750697,120 140.103021,37.750697,120 140.103235,37.750611,120 140.103321,37.750483,120 140.103235,37.750311,120 140.102034,37.749925,120 140.101562,37.749925,120 140.100832,37.750010,120 140.100446,37.749925,120 140.099459,37.749410,120 140.099115,37.749367,120 140.098815,37.749410,120 140.098128,37.749882,120 140.097742,37.749925,120 140.097184,37.749667,120 140.096068,37.749367,120 140.095425,37.749023,120 140.095210,37.748981,120 140.095081,37.749023,120 140.094652,37.749710,120 140.094481,37.749839,120 140.093923,37.749882,120 140.093150,37.750354,120 140.092335,37.750182,120 140.091111,37.750942,120 140.091137,37.750967,120 140.091111,37.750942,120 140.091090,37.750955,120 140.090747,37.751255,120 140.089803,37.752500,120 140.089631,37.753015,120 140.089417,37.753658,120 140.089073,37.754130,120 140.088859,37.754860,120 140.088644,37.755032,120 140.088387,37.755117,120 140.087571,37.755246,120 140.087271,37.755203,120 140.086884,37.754860,120 140.086799,37.754817,120 140.086627,37.754860,120 140.086327,37.755075,120 140.086069,37.755075,120 140.085683,37.754946,120 140.085511,37.754817,120 140.085211,37.754130,120 140.085082,37.754002,120 140.084953,37.754045,120 140.084782,37.754431,120 140.084610,37.754560,120 140.083838,37.754302,120 140.083666,37.754302,120 140.083494,37.754388,120 140.083451,37.754560,120 140.083880,37.755418,120 140.083880,37.755761,120 140.083752,37.755890,120 140.083451,37.756062,120 140.083151,37.756062,120 140.082636,37.755933,120 140.082421,37.755933,120 140.082250,37.756019,120 140.081992,37.756362,120 140.081606,37.756491,120 140.081306,37.756405,120 140.080147,37.755804,120 140.079889,37.755890,120 140.079632,37.756319,120 140.079460,37.756405,120 140.079288,37.756362,120 140.079246,37.756190,120 140.079460,37.755632,120 140.080061,37.754989,120 140.080104,37.754774,120 140.079889,37.754688,120 140.079203,37.754817,120 140.078988,37.754731,120 140.078902,37.754602,120 140.079031,37.754474,120 140.079589,37.754388,120 140.079718,37.754216,120 140.079460,37.753959,120 140.079160,37.753830,120 140.078859,37.753959,120 140.078473,37.754302,120 140.078387,37.754474,120 140.078473,37.754860,120 140.078430,37.755032,120 140.078216,37.755117,120 140.078087,37.755075,120 140.078001,37.754817,120 140.078087,37.754431,120 140.078344,37.753787,120 140.078001,37.753272,120 140.078001,37.753015,120 140.078559,37.752371,120 140.078559,37.752242,120 140.078430,37.752199,120 140.078259,37.752242,120 140.078001,37.752757,120 140.077486,37.753015,120 140.077229,37.753100,120 140.077014,37.753015,120 140.076971,37.752929,120 140.077100,37.752843,120 140.077701,37.752671,120 140.077829,37.752542,120 140.077958,37.752028,120 140.078259,37.751727,120 140.078430,37.751169,120 140.078688,37.750783,120 140.078559,37.750697,120 140.078387,37.750654,120 140.078301,37.750740,120 140.078216,37.751083,120 140.078044,37.751126,120 140.077915,37.751083,120 140.077915,37.750955,120 140.078344,37.750053,120 140.078344,37.749925,120 140.078216,37.749839,120 140.078001,37.749882,120 140.077658,37.750869,120 140.077486,37.750998,120 140.077314,37.750998,120 140.077186,37.750955,120 140.076885,37.750525,120 140.076885,37.750354,120 140.077357,37.750182,120 140.077529,37.749925,120 140.077400,37.749367,120 140.077615,37.748895,120 140.077357,37.747993,120 140.077186,37.747650,120 140.077229,37.747521,120 140.077271,37.747478,120 140.077443,37.747436,120 140.078301,37.747822,120 140.078473,37.747736,120 140.078473,37.747650,120 140.078430,37.747521,120 140.077915,37.747393,120 140.077400,37.747092,120 140.076671,37.746835,120 140.076671,37.746663,120 140.076714,37.746620,120 140.076928,37.746577,120 140.078044,37.747221,120 140.078301,37.747307,120 140.078602,37.747307,120 140.078688,37.747221,120 140.078688,37.747135,120 140.078602,37.747049,120 140.077915,37.746964,120 140.077443,37.746577,120 140.076671,37.745504,120 140.076628,37.745333,120 140.076799,37.745247,120 140.076928,37.745290,120 140.077271,37.745891,120 140.078001,37.746491,120 140.078387,37.746491,120 140.078859,37.746363,120 140.078945,37.746277,120 140.078859,37.746105,120 140.078933,37.746086,120 140.078859,37.746105,120 140.078688,37.746105,120 140.078387,37.746277,120 140.078130,37.746320,120 140.077529,37.745762,120 140.077400,37.745461,120 140.077529,37.744946,120 140.077357,37.744431,120 140.077229,37.744217,120 140.077014,37.744131,120 140.076241,37.744260,120 140.076027,37.744389,120 140.075641,37.745547,120 140.075040,37.745976,120 140.075040,37.746749,120 140.074825,37.746964,120 140.074654,37.746964,120 140.074224,37.746835,120 140.073581,37.746921,120 140.073366,37.746878,120 140.073237,37.746749,120 140.073066,37.746019,120 140.072980,37.745891,120 140.072894,37.745891,120 140.072680,37.745976,120 140.072207,37.747092,120 140.072036,37.747178,120 140.071821,37.747135,120 140.071392,37.746835,120 140.071349,37.746749,120 140.071392,37.746534,120 140.072122,37.745762,120 140.071993,37.745547,120 140.071564,37.745376,120 140.071521,37.745204,120 140.072207,37.744646,120 140.072465,37.744389,120 140.072551,37.744088,120 140.072551,37.743659,120 140.073152,37.742071,120 140.073237,37.741556,120 140.073109,37.740140,120 140.073023,37.738509,120 140.072508,37.737565,120 140.072379,37.737222,120 140.072465,37.736020,120 140.072551,37.734990,120 140.072293,37.733231,120 140.072250,37.732716,120 140.071993,37.731214,120 140.071907,37.730613,120 140.071821,37.730227,120 140.071607,37.729926,120 140.070791,37.729197,120 140.069847,37.728467,120 140.069675,37.728381,120 140.069118,37.727995,120 140.068731,37.727866,120 140.067787,37.727909,120 140.067573,37.727823,120 140.066457,37.727094,120 140.066199,37.726922,120 140.065813,37.726707,120 140.064440,37.726021,120 140.063367,37.725720,120 140.063109,37.725377,120 140.061908,37.723532,120 140.061564,37.722974,120 140.060749,37.721815,120 140.059934,37.721686,120 140.059419,37.721386,120 140.058603,37.720742,120 140.057831,37.720356,120 140.057445,37.719884,120 140.057530,37.719584,120 140.057917,37.719455,120 140.058174,37.719326,120 140.058732,37.718511,120 140.059032,37.717781,120 140.059547,37.717438,120 140.059934,37.717094,120 140.060792,37.716751,120 140.061693,37.715292,120 140.061994,37.714949,120 140.062466,37.714691,120 140.062809,37.713919,120 140.062551,37.713232,120 140.062594,37.712803,120 140.062809,37.712460,120 140.062766,37.712073,120 140.062938,37.711601,120 140.062895,37.711172,120 140.062981,37.710700,120 140.062680,37.707095,120 140.062852,37.705593,120 140.062637,37.705293,120 140.062165,37.704992,120 140.061650,37.703662,120 140.060921,37.703319,120 140.060577,37.702675,120 140.060191,37.702160,120 140.060105,37.701902,120 140.060148,37.701688,120 140.060878,37.700272,120 140.061007,37.700057,120 140.061436,37.699714,120 140.061522,37.699327,120 140.061736,37.698984,120 140.061908,37.698426,120 140.061865,37.698340,120 140.061650,37.698255,120 140.061049,37.698212,120 140.060835,37.698083,120 140.060921,37.697525,120 140.061178,37.697139,120 140.061264,37.696881,120 140.060577,37.696023,120 140.060363,37.695594,120 140.059547,37.694864,120 140.059333,37.694392,120 140.059376,37.694178,120 140.059462,37.693920,120 140.059719,37.693706,120 140.059805,37.693319,120 140.059676,37.692590,120 140.059891,37.691603,120 140.059977,37.691474,120 140.060534,37.691216,120 140.061564,37.690229,120 140.061522,37.689672,120 140.061865,37.688642,120 140.061865,37.687826,120 140.061951,37.687526,120 140.063066,37.686238,120 140.063281,37.686110,120 140.064354,37.685981,120 140.064569,37.685895,120 140.064654,37.685809,120 140.064826,37.685294,120 140.065255,37.685037,120 140.065556,37.684650,120 140.065985,37.684393,120 140.066242,37.683921,120 140.066414,37.683835,120 140.067143,37.683578,120 140.068345,37.682462,120 140.068560,37.681947,120 140.068645,37.681818,120 140.069203,37.680531,120 140.069418,37.680230,120 140.069633,37.680058,120 140.070963,37.679286,120 140.071263,37.678900,120 140.071435,37.678728,120 140.071607,37.678471,120 140.072122,37.677870,120 140.072165,37.677827,120 140.073195,37.676582,120 140.073881,37.675767,120 140.074353,37.674222,120 140.074697,37.673578,120 140.074997,37.673063,120 140.075727,37.672548,120 140.076113,37.672248,120 140.076542,37.671690,120 140.077443,37.671304,120 140.077829,37.671046,120 140.077958,37.670789,120 140.077872,37.670403,120 140.077744,37.670102,120 140.077443,37.669673,120 140.077357,37.669587,120 140.077014,37.669115,120 140.077314,37.668386,120 140.076971,37.667356,120 140.076842,37.666755,120 140.076885,37.666497,120 140.077057,37.666283,120 140.077915,37.665682,120 140.078130,37.665467,120 140.078344,37.665210,120 140.078473,37.665081,120 140.078773,37.664952,120 140.080061,37.664652,120 140.080276,37.664480,120 140.080662,37.663965,120 140.080748,37.663836,120 140.081434,37.662592,120 140.081434,37.662292,120 140.081263,37.661648,120 140.081348,37.661390,120 140.081863,37.660489,120 140.082035,37.660189,120 140.082593,37.660103,120 140.083108,37.660060,120 140.084009,37.659931,120 140.084739,37.659802,120 140.085082,37.659760,120 140.085168,37.659717,120 140.088043,37.662292,120 140.089374,37.663279,120 140.090489,37.664051,120 140.091734,37.664952,120 140.092936,37.665553,120 140.093880,37.665939,120 140.095725,37.666411,120 140.097227,37.666841,120 140.098472,37.667055,120 140.100532,37.666755,120 140.101132,37.666755,120 140.101647,37.666841,120 140.101862,37.666926,120 140.102162,37.667055,120 140.102677,37.667398,120 140.103064,37.667785,120 140.103064,37.667999,120 140.103021,37.668171,120 140.102677,37.668600,120 140.102677,37.668772,120 140.102806,37.668943,120 140.103064,37.669072,120 140.104351,37.669244,120 140.104566,37.669373,120 140.104866,37.669673,120 140.105338,37.670317,120 140.105510,37.670445,120 140.106068,37.670617,120 140.106325,37.670660,120 140.106668,37.670574,120 140.107441,37.670231,120 140.107741,37.670059,120 140.108171,37.669973,120 140.108943,37.670360,120 140.109587,37.670403,120 140.110230,37.670574,120 140.111990,37.671475,120 140.112462,37.671947,120 140.112591,37.672505,120 140.112677,37.672591,120 140.113406,37.672935,120 140.113835,37.673407,120 140.114093,37.673492,120 140.114908,37.673278,120 140.115252,37.673364,120 140.115724,37.673664,120 140.116196,37.674308,120 140.116539,37.674394,120 140.116754,37.674351,120 140.117483,37.673836,120 140.118470,37.673664,120 140.118728,37.673664,120 140.119243,37.673836,120 140.119929,37.674394,120 140.120358,37.674694,120 140.121646,37.675295,120 140.121863,37.675512,120 140.121534,37.675719,120 140.121863,37.675512,120 140.122075,37.675724,120 140.122461,37.676411,120 140.122719,37.676582,120 140.122976,37.676668,120 140.123448,37.676668,120 140.124092,37.676497,120 140.125208,37.675767,120 140.126152,37.675338,120 140.127139,37.675209,120 140.127568,37.675252,120 140.129628,37.675767,120 140.130787,37.676067,120 140.131731,37.676411,120 140.132418,37.676411,120 140.133104,37.676153,120 140.133619,37.675767,120 140.134091,37.675552,120 140.134478,37.675509,120 140.135765,37.675724,120 140.136065,37.675681,120 140.136323,37.675509,120 140.136495,37.675166,120 140.136709,37.674179,120 140.136623,37.672720,120 140.136838,37.672076,120 140.137138,37.671862,120 140.137353,37.671862,120 140.137568,37.672033,120 140.137696,37.672720,120 140.138083,37.673278,120 140.138469,37.673578,120 140.138855,37.673664,120 140.139327,37.673664,120 140.139713,37.673578,120 140.140228,37.673278,120 140.141001,37.672677,120 140.141559,37.672462,120 140.141988,37.672377,120 140.142503,37.672420,120 140.143147,37.672462,120 140.143533,37.672334,120 140.143833,37.672119,120 140.144176,37.671518,120 140.144563,37.671432,120 140.144820,37.671518,120 140.145206,37.672119,120 140.146279,37.673149,120 140.146279,37.673621,120 140.145979,37.674308,120 140.146108,37.674522,120 140.146322,37.674608,120 140.146451,37.674608,120 140.146666,37.674437,120 140.146708,37.674222,120 140.146494,37.673750,120 140.146537,37.673578,120 140.146751,37.673278,120 140.147309,37.672677,120 140.147481,37.672334,120 140.146966,37.671046,120 140.147009,37.669973,120 140.146923,37.669673,120 140.146322,37.668729,120 140.146108,37.668257,120 140.146022,37.667742,120 140.146065,37.667184,120 140.146279,37.666583,120 140.146494,37.666154,120 140.146580,37.665768,120 140.146494,37.665253,120 140.146194,37.664738,120 140.145893,37.664480,120 140.145507,37.664351,120 140.143790,37.664008,120 140.143661,37.663965,120 140.143061,37.663450,120 140.142202,37.662249,120 140.141902,37.661991,120 140.141516,37.661691,120 140.141258,37.661304,120 140.141215,37.661047,120 140.141387,37.660832,120 140.141945,37.660661,120 140.143962,37.660704,120 140.144391,37.660618,120 140.144820,37.659974,120 140.145121,37.659760,120 140.145378,37.659717,120 140.145721,37.659760,120 140.146022,37.659845,120 140.148339,37.661304,120 140.148811,37.661519,120 140.148983,37.661519,120 140.149455,37.661347,120 140.149713,37.660918,120 140.149627,37.660446,120 140.149112,37.659888,120 140.149026,37.659588,120 140.149198,37.659373,120 140.149412,37.659330,120 140.149970,37.659416,120 140.150528,37.659502,120 140.151129,37.658987,120 140.151515,37.658858,120 140.151730,37.658815,120 140.152073,37.658901,120 140.152502,37.659416,120 140.152760,37.659502,120 140.153618,37.659459,120 140.154004,37.659717,120 140.154176,37.659888,120 140.154433,37.660017,120 140.154562,37.660017,120 140.154777,37.659845,120 140.154390,37.658858,120 140.154433,37.658730,120 140.154605,37.658558,120 140.155249,37.658343,120 140.155592,37.658386,120 140.156279,37.658601,120 140.156579,37.658601,120 140.156751,37.658515,120 140.156837,37.658343,120 140.156837,37.657614,120 140.156879,37.657442,120 140.157008,37.657313,120 140.159240,37.656884,120 140.160656,37.656970,120 140.161171,37.656927,120 140.161343,37.656841,120 140.161686,37.656541,120 140.161858,37.656069,120 140.161772,37.655768,120 140.161514,37.655339,120 140.161514,37.655082,120 140.161729,37.654910,120 140.162501,37.654996,120 140.162759,37.654953,120 140.162802,37.654738,120 140.162501,37.654266,120 140.162544,37.654095,120 140.162673,37.653923,120 140.163231,37.653537,120 140.164776,37.652721,120 140.165334,37.652206,120 140.165849,37.651863,120 140.167866,37.651477,120 140.168595,37.651348,120 140.169411,37.651262,120 140.169539,37.651219,120 140.170012,37.651262,120 140.171256,37.651348,120 140.174046,37.651606,120 140.174818,37.651863,120 140.176878,37.652807,120 140.177779,37.653108,120 140.180697,37.653151,120 140.181427,37.653322,120 140.184560,37.654352,120 140.186362,37.654910,120 140.186963,37.654953,120 140.187693,37.654910,120 140.188594,37.654781,120 140.190010,37.654567,120 140.191426,37.654395,120 140.192327,37.654223,120 140.193658,37.654009,120 140.194602,37.653666,120 140.194945,37.653537,120 140.195417,37.653322,120 140.196018,37.653065,120 140.196147,37.653022,120 140.199666,37.651563,120 140.200868,37.651134,120 140.202370,37.651005,120 140.204859,37.650919,120 140.205803,37.650790,120 140.206232,37.650576,120 140.207648,37.649674,120 140.209236,37.649159,120 140.209537,37.648988,120 140.211682,37.647614,120 140.211854,37.647572,120 140.212069,37.647614,120 140.212240,37.647786,120 140.212240,37.647958,120 140.212111,37.648129,120 140.210867,37.648859,120 140.210867,37.649159,120 140.211039,37.649331,120 140.211296,37.649331,120 140.211682,37.649117,120 140.212755,37.648473,120 140.213571,37.648129,120 140.213828,37.648087,120 140.214128,37.648215,120 140.214214,37.648430,120 140.214086,37.648602,120 140.213914,37.648687,120 140.213356,37.648730,120 140.213056,37.648816,120 140.212626,37.649460,120 140.212712,37.649717,120 140.212884,37.649846,120 140.213184,37.649846,120 140.213699,37.649331,120 140.213914,37.649202,120 140.214171,37.649202,120 140.214772,37.649331,120 140.215030,37.649288,120 140.215244,37.649159,120 140.215888,37.648516,120 140.215845,37.647743,120 140.216017,37.647529,120 140.216360,37.647486,120 140.216660,37.647657,120 140.217004,37.648172,120 140.217133,37.648344,120 140.217519,37.648430,120 140.218806,37.648473,120 140.219150,37.648430,120 140.219364,37.648215,120 140.219321,37.648044,120 140.219150,37.647872,120 140.218892,37.647829,120 140.217948,37.648001,120 140.217648,37.647958,120 140.217519,37.647872,120 140.217476,37.647743,120 140.217562,37.647529,120 140.217733,37.647400,120 140.218163,37.647314,120 140.219364,37.647099,120 140.219665,37.647099,120 140.220995,37.647700,120 140.222239,37.647829,120 140.222626,37.647872,120 140.222926,37.647786,120 140.223055,37.647614,120 140.223012,37.647443,120 140.222883,37.647314,120 140.222197,37.646928,120 140.221939,37.646713,120 140.221553,37.646155,120 140.220609,37.644439,120 140.220480,37.643838,120 140.220437,37.643409,120 140.220523,37.643194,120 140.220780,37.642980,120 140.221090,37.642945,120 140.221113,37.643078,120 140.221090,37.642945,120 140.221167,37.642937,120 140.221038,37.641778,120 140.220909,37.641006,120 140.220823,37.640619,120 140.220566,37.640276,120 140.220265,37.639890,120 140.219193,37.638946,120 140.218763,37.638559,120 140.218420,37.638001,120 140.218334,37.637701,120 140.218205,37.635341,120 140.218077,37.634997,120 140.217433,37.634225,120 140.216060,37.632937,120 140.215373,37.632251,120 140.214128,37.630663,120 140.212111,37.628646,120 140.208678,37.624741,120 140.207949,37.624054,120 140.207090,37.623496,120 140.206747,37.623196,120 140.205846,37.621694,120 140.205288,37.621307,120 140.204730,37.621093,120 140.201898,37.620578,120 140.201640,37.620535,120 140.201426,37.620492,120 140.201297,37.620492,120 140.200825,37.620406,120 140.196104,37.619677,120 140.195675,37.619591,120 140.194774,37.619505,120 140.193872,37.619548,120 140.192928,37.619634,120 140.190139,37.619934,120 140.188465,37.620106,120 140.187221,37.620320,120 140.185375,37.621050,120 140.183873,37.621651,120 140.183787,37.621694,120 140.183315,37.621779,120 140.182672,37.621822,120 140.181127,37.621608,120 140.179753,37.621350,120 140.179195,37.621350,120 140.178809,37.621350,120 140.176792,37.621651,120 140.175247,37.621779,120 140.172672,37.621908,120 140.171900,37.622080,120 140.171041,37.622466,120 140.169840,37.623153,120 140.169067,37.623453,120 140.168509,37.623496,120 140.166063,37.623324,120 140.165849,37.623281,120 140.165462,37.623196,120 140.164990,37.623024,120 140.163145,37.622552,120 140.162115,37.622252,120 140.161128,37.622080,120 140.160484,37.621994,120 140.159798,37.621951,120 140.159369,37.621951,120 140.157051,37.621822,120 140.154390,37.621737,120 140.153146,37.621651,120 140.153017,37.621651,120 140.152931,37.621651,120 140.151129,37.621479,120 140.150270,37.621222,120 140.147181,37.620106,120 140.146751,37.619934,120 140.146365,37.619505,120 140.146065,37.618861,120 140.145421,37.616415,120 140.145292,37.615943,120 140.144992,37.615170,120 140.144777,37.614827,120 140.144520,37.614655,120 140.138812,37.611737,120 140.138254,37.611351,120 140.138040,37.611051,120 140.137911,37.610707,120 140.137868,37.610021,120 140.137782,37.608089,120 140.137696,37.607489,120 140.137610,37.607231,120 140.137353,37.606888,120 140.137095,37.606587,120 140.136495,37.606716,120 140.135636,37.606931,120 140.135121,37.607059,120 140.134048,37.607274,120 140.133405,37.607489,120 140.132847,37.607617,120 140.132418,37.607617,120 140.131817,37.607617,120 140.131645,37.607617,120 140.131173,37.607574,120 140.130315,37.607446,120 140.129113,37.606974,120 140.128984,37.606931,120 140.128555,37.606716,120 140.126967,37.605901,120 140.126281,37.605600,120 140.126066,37.605515,120 140.125723,37.605600,120 140.124822,37.606587,120 140.124650,37.606630,120 140.124521,37.606587,120 140.124092,37.606845,120 140.122762,37.607145,120 140.121646,37.607746,120 140.120487,37.609506,120 140.119715,37.610192,120 140.119243,37.610536,120 140.118599,37.611008,120 140.117869,37.611609,120 140.117784,37.611780,120 140.117741,37.612424,120 140.117998,37.613368,120 140.117569,37.614312,120 140.117440,37.614827,120 140.117612,37.615685,120 140.117612,37.616029,120 140.116925,37.617488,120 140.116496,37.618217,120 140.115938,37.618775,120 140.115123,37.619162,120 140.114822,37.619376,120 140.114522,37.620063,120 140.114222,37.620277,120 140.113535,37.620792,120 140.113363,37.620964,120 140.113363,37.622123,120 140.113149,37.622423,120 140.112033,37.623067,120 140.111475,37.623582,120 140.111003,37.623882,120 140.107613,37.624784,120 140.106325,37.625427,120 140.104952,37.626414,120 140.104737,37.626672,120 140.104651,37.626886,120 140.104566,37.627916,120 140.104523,37.628131,120 140.104351,37.628946,120 140.104008,37.629890,120 140.103750,37.631350,120 140.103621,37.632551,120 140.103707,37.634225,120 140.103364,37.635942,120 140.103235,37.636285,120 140.102978,37.636585,120 140.101218,37.637959,120 140.100188,37.638388,120 140.099716,37.638817,120 140.098643,37.640018,120 140.098429,37.640319,120 140.098343,37.640576,120 140.098429,37.641134,120 140.099416,37.642207,120 140.099545,37.642894,120 140.099545,37.643580,120 140.099244,37.645211,120 140.099244,37.645555,120 140.099459,37.645855,120 140.100274,37.646542,120 140.100746,37.646713,120 140.101647,37.646842,120 140.101862,37.646971,120 140.101948,37.647185,120 140.101948,37.647357,120 140.101819,37.647700,120 140.101776,37.647786,120 140.101604,37.648129,120 140.101562,37.648344,120 140.101604,37.649417,120 140.101476,37.649846,120 140.100961,37.650146,120 140.099845,37.650447,120 140.098901,37.651134,120 140.097656,37.651734,120 140.095167,37.652979,120 140.094352,37.653451,120 140.093880,37.653880,120 140.093665,37.654223,120 140.093322,37.654738,120 140.093107,37.655125,120 140.092206,37.656155,120 140.091949,37.656283,120 140.090404,37.656755,120 140.089502,37.657099,120 140.088859,37.657356,120 140.088730,37.657442,120 140.088129,37.657657,120 140.086884,37.658257,120 140.086627,37.658429,120 140.085812,37.659330,120 140.085511,37.659588,120 140.085168,37.659717,120 140.085082,37.659760,120 140.084739,37.659802,120 140.084009,37.659931,120 140.083108,37.660060,120 140.082593,37.660103,120 140.082035,37.660189,120 140.081780,37.660076,120 140.081821,37.660018,120 140.081780,37.660076,120 140.080962,37.659717,120 140.079331,37.659330,120 140.076585,37.658558,120 140.076113,37.658429,120 140.075855,37.658343,120 140.075254,37.658172,120 140.074911,37.658172,120 140.072894,37.658772,120 140.072594,37.658730,120 140.072036,37.658472,120 140.071692,37.657914,120 140.071306,37.656670,120 140.070791,37.656069,120 140.070148,37.655511,120 140.069890,37.655468,120 140.069461,37.655468,120 140.068173,37.655683,120 140.067401,37.655940,120 140.066800,37.656240,120 140.066457,37.656155,120 140.066285,37.656026,120 140.066285,37.655854,120 140.066886,37.654996,120 140.066929,37.654696,120 140.066671,37.654181,120 140.066285,37.653794,120 140.064998,37.652678,120 140.064697,37.652292,120 140.064354,37.651391,120 140.064397,37.650876,120 140.064526,37.650404,120 140.064354,37.649846,120 140.063624,37.649374,120 140.062809,37.648773,120 140.062037,37.648301,120 140.061092,37.648258,120 140.060406,37.648258,120 140.060019,37.648172,120 140.059161,37.647443,120 140.058689,37.647271,120 140.056715,37.647314,120 140.056200,37.647271,120 140.055943,37.647228,120 140.050879,37.644396,120 140.050535,37.644053,120 140.050492,37.643623,120 140.050406,37.643280,120 140.050321,37.642293,120 140.050406,37.642078,120 140.050578,37.641864,120 140.051565,37.641263,120 140.053067,37.641091,120 140.053368,37.640877,120 140.053496,37.640662,120 140.053368,37.640190,120 140.052509,37.639589,120 140.051093,37.637830,120 140.050879,37.637315,120 140.050921,37.636971,120 140.051994,37.635255,120 140.052209,37.635083,120 140.052466,37.635083,120 140.052638,37.635255,120 140.052767,37.635984,120 140.052896,37.636113,120 140.053110,37.636156,120 140.053368,37.636070,120 140.053926,37.635384,120 140.054054,37.635083,120 140.054011,37.634826,120 140.053411,37.634525,120 140.053411,37.634268,120 140.053625,37.634139,120 140.054655,37.633753,120 140.054827,37.633538,120 140.054827,37.633367,120 140.054612,37.633152,120 140.054312,37.633066,120 140.052681,37.633624,120 140.052381,37.633667,120 140.052037,37.633538,120 140.051222,37.632809,120 140.051007,37.632465,120 140.050707,37.630320,120 140.050192,37.628903,120 140.050321,37.628689,120 140.051994,37.626758,120 140.052381,37.624526,120 140.052466,37.624269,120 140.053853,37.623010,120 140.053762,37.622947,120 140.053853,37.623010,120 140.054784,37.622166,120 140.054870,37.621822,120 140.054698,37.621479,120 140.053411,37.621136,120 140.053024,37.620921,120 140.052853,37.620664,120 140.052681,37.619848,120 140.052466,37.619591,120 140.052080,37.619505,120 140.051351,37.619891,120 140.050964,37.619934,120 140.050750,37.619891,120 140.048475,37.618260,120 140.048261,37.618046,120 140.047960,37.617531,120 140.047874,37.617016,120 140.048046,37.614741,120 140.048261,37.614484,120 140.048389,37.614398,120 140.048776,37.614098,120 140.048862,37.613926,120 140.048561,37.613282,120 140.048518,37.613068,120 140.049248,37.612038,120 140.050235,37.610278,120 140.051308,37.609334,120 140.052252,37.609034,120 140.052381,37.608905,120 140.052381,37.608819,120 140.052209,37.608776,120 140.051608,37.608905,120 140.051479,37.608862,120 140.051479,37.608776,120 140.052037,37.608476,120 140.052252,37.608175,120 140.052595,37.606802,120 140.052466,37.606072,120 140.052552,37.605815,120 140.052853,37.605643,120 140.053325,37.605515,120 140.053368,37.605429,120 140.053282,37.605257,120 140.052595,37.604871,120 140.052466,37.604613,120 140.052209,37.603626,120 140.052466,37.602811,120 140.052381,37.602682,120 140.052166,37.602639,120 140.049891,37.602940,120 140.049248,37.603154,120 140.049119,37.603197,120 140.048990,37.603412,120 140.049033,37.603540,120 140.049376,37.603884,120 140.049376,37.604012,120 140.049291,37.604141,120 140.049033,37.604227,120 140.048733,37.604227,120 140.047660,37.603755,120 140.047317,37.603798,120 140.047059,37.603927,120 140.045815,37.605300,120 140.045514,37.605429,120 140.045257,37.605257,120 140.045128,37.604957,120 140.045085,37.604656,120 140.045900,37.603798,120 140.045986,37.603540,120 140.045815,37.603369,120 140.045171,37.603025,120 140.044699,37.602167,120 140.044484,37.602038,120 140.044398,37.602124,120 140.044484,37.602768,120 140.044441,37.603326,120 140.044570,37.603669,120 140.044570,37.603884,120 140.043840,37.604828,120 140.043712,37.604914,120 140.043411,37.604914,120 140.043240,37.604828,120 140.043240,37.604656,120 140.043283,37.603412,120 140.043197,37.602897,120 140.042810,37.602210,120 140.042338,37.601008,120 140.041695,37.600279,120 140.041437,37.600193,120 140.041180,37.600236,120 140.039592,37.601051,120 140.039291,37.601395,120 140.039034,37.602038,120 140.038862,37.602124,120 140.038605,37.602167,120 140.038047,37.601910,120 140.037875,37.601738,120 140.037575,37.600923,120 140.037661,37.600579,120 140.038390,37.599635,120 140.038519,37.599506,120 140.039334,37.599120,120 140.039463,37.598820,120 140.039334,37.596974,120 140.039077,37.596116,120 140.038905,37.595944,120 140.038519,37.595816,120 140.038218,37.595601,120 140.038176,37.595472,120 140.038261,37.594829,120 140.038176,37.594614,120 140.037704,37.594185,120 140.037489,37.594099,120 140.037274,37.594142,120 140.037103,37.594228,120 140.036073,37.595387,120 140.035858,37.595515,120 140.035729,37.595429,120 140.035858,37.593884,120 140.035815,37.593327,120 140.035644,37.592554,120 140.035686,37.591610,120 140.035644,37.591438,120 140.035515,37.591352,120 140.035300,37.591267,120 140.034657,37.591310,120 140.034442,37.591395,120 140.033970,37.591867,120 140.033755,37.591867,120 140.033627,37.591825,120 140.032940,37.591267,120 140.032597,37.590795,120 140.032425,37.590666,120 140.032253,37.590666,120 140.032039,37.590795,120 140.031781,37.591696,120 140.031610,37.591825,120 140.031438,37.591739,120 140.030322,37.590194,120 140.030065,37.589250,120 140.029464,37.588134,120 140.029421,37.587962,120 140.029507,37.587876,120 140.029721,37.587919,120 140.030193,37.588992,120 140.030322,37.589121,120 140.030494,37.589035,120 140.030494,37.588906,120 140.030193,37.588177,120 140.029936,37.587018,120 140.029635,37.586718,120 140.029078,37.586460,120 140.028992,37.586374,120 140.028992,37.586246,120 140.029120,37.586203,120 140.029507,37.586374,120 140.029893,37.586460,120 140.029979,37.586417,120 140.029979,37.586374,120 140.029764,37.586203,120 140.028734,37.585773,120 140.028262,37.585516,120 140.026288,37.583499,120 140.026116,37.583327,120 140.026116,37.583199,120 140.026202,37.583113,120 140.027061,37.582984,120 140.027361,37.582898,120 140.027575,37.582726,120 140.027533,37.582469,120 140.027361,37.582211,120 140.026803,37.581482,120 140.026674,37.580452,120 140.026631,37.579937,120 140.026717,37.579422,120 140.026803,37.579207,120 140.026889,37.578650,120 140.026803,37.578220,120 140.026116,37.577534,120 140.025644,37.577190,120 140.025215,37.577190,120 140.025043,37.577147,120 140.025129,37.576933,120 140.025430,37.576547,120 140.025773,37.575817,120 140.025816,37.575345,120 140.025687,37.574787,120 140.025773,37.574701,120 140.025945,37.574744,120 140.026374,37.575474,120 140.026803,37.575688,120 140.026975,37.575731,120 140.027103,37.575731,120 140.027189,37.575645,120 140.027189,37.575517,120 140.026631,37.575173,120 140.026288,37.574573,120 140.026031,37.574358,120 140.025301,37.574015,120 140.025001,37.573929,120 140.024872,37.573972,120 140.024829,37.574143,120 140.024872,37.575130,120 140.024743,37.575431,120 140.024099,37.575817,120 140.023799,37.575946,120 140.022898,37.575989,120 140.022383,37.576118,120 140.022297,37.576203,120 140.022254,37.576418,120 140.022297,37.576718,120 140.022254,37.577019,120 140.022039,37.577276,120 140.021439,37.577791,120 140.021224,37.577834,120 140.020881,37.577791,120 140.020494,37.577405,120 140.019765,37.576504,120 140.019550,37.575989,120 140.019379,37.575517,120 140.019336,37.575173,120 140.018950,37.574229,120 140.018907,37.573714,120 140.019035,37.573028,120 140.019035,37.572427,120 140.019035,37.572341,120 140.019035,37.571998,120 140.018992,37.571740,120 140.018992,37.571654,120 140.018864,37.569466,120 140.018821,37.569294,120 140.018692,37.568994,120 140.018435,37.568822,120 140.018306,37.568736,120 140.017834,37.568479,120 140.017748,37.568479,120 140.017061,37.568135,120 140.016460,37.567921,120 140.016160,37.567878,120 140.015388,37.567964,120 140.014186,37.568178,120 140.013885,37.568135,120 140.013413,37.567878,120 140.012383,37.566934,120 140.010366,37.565131,120 140.010195,37.564960,120 140.009465,37.564316,120 140.008993,37.564015,120 140.008564,37.563887,120 140.005860,37.562857,120 140.004787,37.562470,120 140.004487,37.562385,120 140.003500,37.561955,120 140.003200,37.561655,120 140.002813,37.561097,120 140.002770,37.560968,120 140.002599,37.560711,120 140.002427,37.560582,120 140.001655,37.560368,120 140.001354,37.560282,120 140.000539,37.560024,120 140.000281,37.559938,120 139.998693,37.559509,120 139.998264,37.559724,120 139.998050,37.559810,120 139.997234,37.560196,120 139.996762,37.560453,120 139.996676,37.560496,120 139.996247,37.560711,120 139.994659,37.562127,120 139.993715,37.562985,120 139.992900,37.563629,120 139.992299,37.563972,120 139.991484,37.564316,120 139.990411,37.564445,120 139.989166,37.564316,120 139.988608,37.564144,120 139.988308,37.564058,120 139.987707,37.563887,120 139.987364,37.563715,120 139.986634,37.563329,120 139.985862,37.562857,120 139.985690,37.562728,120 139.983888,37.561398,120 139.983115,37.560797,120 139.982686,37.560582,120 139.982214,37.560496,120 139.981828,37.560453,120 139.979854,37.560282,120 139.979854,37.559938,120 139.979725,37.559595,120 139.979167,37.558994,120 139.975863,37.557750,120 139.975219,37.557449,120 139.974790,37.557149,120 139.974403,37.556720,120 139.974146,37.556205,120 139.974146,37.555861,120 139.974189,37.554488,120 139.974189,37.554145,120 139.974189,37.553930,120 139.974232,37.552943,120 139.974146,37.552600,120 139.973674,37.551613,120 139.973459,37.551270,120 139.973116,37.550797,120 139.972601,37.550154,120 139.972343,37.549639,120 139.972086,37.549038,120 139.971528,37.548437,120 139.970841,37.547965,120 139.970112,37.547579,120 139.969640,37.547321,120 139.969597,37.547407,120 139.969125,37.547922,120 139.968352,37.548566,120 139.967880,37.548866,120 139.966550,37.549424,120 139.965777,37.549682,120 139.964404,37.550154,120 139.963803,37.550325,120 139.962988,37.550626,120 139.962344,37.550926,120 139.960885,37.551656,120 139.960713,37.551742,120 139.959812,37.552257,120 139.956379,37.554102,120 139.954877,37.554617,120 139.953504,37.554832,120 139.952903,37.554832,120 139.952517,37.554789,120 139.952173,37.554789,120 139.951701,37.554789,120 139.949298,37.554402,120 139.949169,37.554402,120 139.948568,37.554274,120 139.948096,37.554145,120 139.947538,37.554059,120 139.946895,37.553844,120 139.946294,37.553544,120 139.945693,37.553072,120 139.945006,37.552085,120 139.944792,37.551312,120 139.944749,37.550282,120 139.944749,37.548523,120 139.944749,37.546763,120 139.944706,37.546334,120 139.944577,37.545519,120 139.944448,37.544918,120 139.944320,37.543716,120 139.944406,37.542987,120 139.944663,37.541871,120 139.944706,37.541056,120 139.944663,37.540455,120 139.944491,37.539897,120 139.944320,37.539597,120 139.944234,37.539339,120 139.943933,37.538824,120 139.943461,37.537665,120 139.943376,37.537150,120 139.943376,37.536678,120 139.943376,37.536550,120 139.943590,37.535863,120 139.944234,37.533889,120 139.944406,37.533159,120 139.944363,37.532301,120 139.944191,37.530756,120 139.944234,37.529769,120 139.944320,37.529469,120 139.945006,37.527709,120 139.945135,37.527494,120 139.945478,37.526550,120 139.945607,37.526121,120 139.945607,37.525048,120 139.945393,37.524276,120 139.945221,37.523804,120 139.944577,37.522430,120 139.944234,37.521658,120 139.944062,37.521315,120 139.943805,37.520885,120 139.943333,37.520199,120 139.942818,37.519684,120 139.941745,37.518826,120 139.940801,37.518353,120 139.941015,37.517753,120 139.941230,37.517152,120 139.941273,37.517066,120 139.941487,37.516551,120 139.941659,37.516165,120 139.941916,37.515478,120 139.942131,37.514620,120 139.942174,37.514491,120 139.942217,37.513547,120 139.942217,37.512646,120 139.942088,37.512002,120 139.941959,37.511187,120 139.941874,37.510414,120 139.941745,37.509599,120 139.941659,37.508826,120 139.941616,37.508483,120 139.941530,37.508054,120 139.941487,37.507710,120 139.941444,37.505822,120 139.941444,37.505264,120 139.941530,37.504749,120 139.941530,37.504663,120 139.941616,37.504449,120 139.941831,37.503719,120 139.942131,37.503033,120 139.942303,37.502561,120 139.942818,37.501359,120 139.943118,37.500243,120 139.943204,37.499642,120 139.943247,37.499170,120 139.943247,37.498784,120 139.943118,37.497754,120 139.942732,37.496209,120 139.942560,37.495522,120 139.942517,37.495308,120 139.942174,37.494063,120 139.942818,37.493978,120 139.943676,37.493377,120 139.944062,37.493119,120 139.944448,37.492819,120 139.944878,37.492518,120 139.947152,37.490888,120 139.947281,37.490759,120 139.947667,37.490416,120 139.947753,37.490330,120 139.948783,37.489386,120 139.949255,37.488828,120 139.949770,37.488356,120 139.950285,37.487884,120 139.950328,37.487841,120 139.951530,37.486682,120 139.951658,37.486553,120 139.953289,37.484708,120 139.953933,37.484150,120 139.954576,37.483721,120 139.954963,37.483506,120 139.955649,37.483163,120 139.956164,37.482905,120 139.956679,37.482648,120 139.956808,37.482605,120 139.956808,37.482433,120 139.956980,37.482347,120 139.957452,37.482090,120 139.957752,37.481875,120 139.958181,37.481532,120 139.958997,37.481060,120 139.959641,37.480845,120 139.960070,37.480416,120 139.960241,37.480073,120 139.960499,37.478786,120 139.960756,37.478571,120 139.960971,37.478485,120 139.962258,37.478356,120 139.962816,37.478271,120 139.963245,37.478013,120 139.963460,37.477713,120 139.963460,37.477241,120 139.963374,37.476597,120 139.962602,37.475009,120 139.962173,37.474236,120 139.962113,37.474059,120 139.962153,37.474051,120</coordinates></LineString></Placemark>
</Document></kml>
