<?xml version="1.0" encoding="UTF-8"?>
<kml xmlns="http://www.opengis.net/kml/2.2" xmlns:gx="http://www.google.com/kml/ext/2.2">
<Document><name>10/11 Sun · Shizukuishi → Naruko Onsen</name><description>South down the Ou spine into the Naruko gorge. Flyover runs 15 min at 300 m (984 ft) above ground, tilt 60°. Double-click the tour below to play it.</description>
<Style id="rt"><LineStyle><color>b32fd5ff</color><width>3</width></LineStyle></Style>
<gx:Tour><name>▶ 10/11 Sun · Shizukuishi → Naruko Onsen — 175 km (108 mi)</name><description>South down the Ou spine into the Naruko gorge.</description><gx:Playlist><gx:FlyTo><gx:duration>4</gx:duration><gx:flyToMode>bounce</gx:flyToMode><Camera><longitude>140.934976</longitude><latitude>39.640035</latitude><altitude>300</altitude><heading>52.1</heading><tilt>60</tilt><altitudeMode>relativeToGround</altitudeMode></Camera></gx:FlyTo><gx:FlyTo><gx:duration>5.6</gx:duration><gx:flyToMode>smooth</gx:flyToMode><Camera><longitude>140.943732</longitude><latitude>39.645281</latitude><altitude>300</altitude><heading>139.7</heading><tilt>60</tilt><altitudeMode>relativeToGround</altitudeMode></Camera></gx:FlyTo><gx:FlyTo><gx:duration>5.6</gx:duration><gx:flyToMode>smooth</gx:flyToMode><Camera><longitude>140.947895</longitude><latitude>39.641504</latitude><altitude>300</altitude><heading>185.8</heading><tilt>60</tilt><altitudeMode>relativeToGround</altitudeMode></Camera></gx:FlyTo><gx:FlyTo><gx:duration>5.6</gx:duration><gx:flyToMode>smooth</gx:flyToMode><Camera><longitude>140.946736</longitude><latitude>39.632664</latitude><altitude>300</altitude><heading>173.1</heading><tilt>60</tilt><altitudeMode>relativeToGround</altitudeMode></Camera></gx:FlyTo><gx:FlyTo><gx:duration>5.6</gx:duration><gx:flyToMode>smooth</gx:flyToMode><Camera><longitude>140.948067</longitude><latitude>39.624166</latitude><altitude>300</altitude><heading>197.4</heading><tilt>60</tilt><altitudeMode>relativeToGround</altitudeMode></Camera></gx:FlyTo><gx:FlyTo><gx:duration>5.6</gx:duration><gx:flyToMode>smooth</gx:flyToMode><Camera><longitude>140.944376</longitude><latitude>39.615068</latitude><altitude>300</altitude><heading>224.4</heading><tilt>60</tilt><altitudeMode>relativeToGround</altitudeMode></Camera></gx:FlyTo><gx:FlyTo><gx:duration>5.6</gx:duration><gx:flyToMode>smooth</gx:flyToMode><Camera><longitude>140.936136</longitude><latitude>39.608588</latitude><altitude>300</altitude><heading>221.4</heading><tilt>60</tilt><altitudeMode>relativeToGround</altitudeMode></Camera></gx:FlyTo><gx:FlyTo><gx:duration>5.6</gx:duration><gx:flyToMode>smooth</gx:flyToMode><Camera><longitude>140.929055</longitude><latitude>39.602408</latitude><altitude>300</altitude><heading>222.8</heading><tilt>60</tilt><altitudeMode>relativeToGround</altitudeMode></Camera></gx:FlyTo><gx:FlyTo><gx:duration>5.6</gx:duration><gx:flyToMode>smooth</gx:flyToMode><Camera><longitude>140.920601</longitude><latitude>39.595370</latitude><altitude>300</altitude><heading>220.1</heading><tilt>60</tilt><altitudeMode>relativeToGround</altitudeMode></Camera></gx:FlyTo><gx:FlyTo><gx:duration>5.6</gx:duration><gx:flyToMode>smooth</gx:flyToMode><Camera><longitude>140.912919</longitude><latitude>39.588332</latitude><altitude>300</altitude><heading>192.6</heading><tilt>60</tilt><altitudeMode>relativeToGround</altitudeMode></Camera></gx:FlyTo><gx:FlyTo><gx:duration>5.6</gx:duration><gx:flyToMode>smooth</gx:flyToMode><Camera><longitude>140.910258</longitude><latitude>39.579191</latitude><altitude>300</altitude><heading>242.7</heading><tilt>60</tilt><altitudeMode>relativeToGround</altitudeMode></Camera></gx:FlyTo><gx:FlyTo><gx:duration>5.6</gx:duration><gx:flyToMode>smooth</gx:flyToMode><Camera><longitude>140.900774</longitude><latitude>39.575415</latitude><altitude>300</altitude><heading>267.7</heading><tilt>60</tilt><altitudeMode>relativeToGround</altitudeMode></Camera></gx:FlyTo><gx:FlyTo><gx:duration>5.6</gx:duration><gx:flyToMode>smooth</gx:flyToMode><Camera><longitude>140.889788</longitude><latitude>39.575071</latitude><altitude>300</altitude><heading>271.8</heading><tilt>60</tilt><altitudeMode>relativeToGround</altitudeMode></Camera></gx:FlyTo><gx:FlyTo><gx:duration>5.6</gx:duration><gx:flyToMode>smooth</gx:flyToMode><Camera><longitude>140.875669</longitude><latitude>39.575415</latitude><altitude>300</altitude><heading>251.2</heading><tilt>60</tilt><altitudeMode>relativeToGround</altitudeMode></Camera></gx:FlyTo><gx:FlyTo><gx:duration>5.6</gx:duration><gx:flyToMode>smooth</gx:flyToMode><Camera><longitude>140.865026</longitude><latitude>39.572625</latitude><altitude>300</altitude><heading>222.3</heading><tilt>60</tilt><altitudeMode>relativeToGround</altitudeMode></Camera></gx:FlyTo><gx:FlyTo><gx:duration>5.6</gx:duration><gx:flyToMode>smooth</gx:flyToMode><Camera><longitude>140.853224</longitude><latitude>39.562626</latitude><altitude>300</altitude><heading>214.6</heading><tilt>60</tilt><altitudeMode>relativeToGround</altitudeMode></Camera></gx:FlyTo><gx:FlyTo><gx:duration>5.6</gx:duration><gx:flyToMode>smooth</gx:flyToMode><Camera><longitude>140.845156</longitude><latitude>39.553614</latitude><altitude>300</altitude><heading>204.2</heading><tilt>60</tilt><altitudeMode>relativeToGround</altitudeMode></Camera></gx:FlyTo><gx:FlyTo><gx:duration>5.6</gx:duration><gx:flyToMode>smooth</gx:flyToMode><Camera><longitude>140.839276</longitude><latitude>39.543529</latitude><altitude>300</altitude><heading>205.3</heading><tilt>60</tilt><altitudeMode>relativeToGround</altitudeMode></Camera></gx:FlyTo><gx:FlyTo><gx:duration>5.6</gx:duration><gx:flyToMode>smooth</gx:flyToMode><Camera><longitude>140.833654</longitude><latitude>39.534345</latitude><altitude>300</altitude><heading>202.9</heading><tilt>60</tilt><altitudeMode>relativeToGround</altitudeMode></Camera></gx:FlyTo><gx:FlyTo><gx:duration>5.6</gx:duration><gx:flyToMode>smooth</gx:flyToMode><Camera><longitude>140.828676</longitude><latitude>39.525247</latitude><altitude>300</altitude><heading>175.3</heading><tilt>60</tilt><altitudeMode>relativeToGround</altitudeMode></Camera></gx:FlyTo><gx:FlyTo><gx:duration>5.6</gx:duration><gx:flyToMode>smooth</gx:flyToMode><Camera><longitude>140.829620</longitude><latitude>39.516363</latitude><altitude>300</altitude><heading>195.8</heading><tilt>60</tilt><altitudeMode>relativeToGround</altitudeMode></Camera></gx:FlyTo><gx:FlyTo><gx:duration>5.6</gx:duration><gx:flyToMode>smooth</gx:flyToMode><Camera><longitude>140.826230</longitude><latitude>39.507136</latitude><altitude>300</altitude><heading>225.3</heading><tilt>60</tilt><altitudeMode>relativeToGround</altitudeMode></Camera></gx:FlyTo><gx:FlyTo><gx:duration>5.6</gx:duration><gx:flyToMode>smooth</gx:flyToMode><Camera><longitude>140.817690</longitude><latitude>39.500613</latitude><altitude>300</altitude><heading>207.7</heading><tilt>60</tilt><altitudeMode>relativeToGround</altitudeMode></Camera></gx:FlyTo><gx:FlyTo><gx:duration>5.6</gx:duration><gx:flyToMode>smooth</gx:flyToMode><Camera><longitude>140.811682</longitude><latitude>39.491773</latitude><altitude>300</altitude><heading>215.1</heading><tilt>60</tilt><altitudeMode>relativeToGround</altitudeMode></Camera></gx:FlyTo><gx:FlyTo><gx:duration>5.6</gx:duration><gx:flyToMode>smooth</gx:flyToMode><Camera><longitude>140.804687</longitude><latitude>39.484091</latitude><altitude>300</altitude><heading>94.5</heading><tilt>60</tilt><altitudeMode>relativeToGround</altitudeMode></Camera></gx:FlyTo><gx:FlyTo><gx:duration>5.6</gx:duration><gx:flyToMode>smooth</gx:flyToMode><Camera><longitude>140.810394</longitude><latitude>39.483747</latitude><altitude>300</altitude><heading>250.8</heading><tilt>60</tilt><altitudeMode>relativeToGround</altitudeMode></Camera></gx:FlyTo><gx:FlyTo><gx:duration>5.6</gx:duration><gx:flyToMode>smooth</gx:flyToMode><Camera><longitude>140.803528</longitude><latitude>39.481902</latitude><altitude>300</altitude><heading>246.9</heading><tilt>60</tilt><altitudeMode>relativeToGround</altitudeMode></Camera></gx:FlyTo><gx:FlyTo><gx:duration>5.6</gx:duration><gx:flyToMode>smooth</gx:flyToMode><Camera><longitude>140.792198</longitude><latitude>39.478168</latitude><altitude>300</altitude><heading>235.4</heading><tilt>60</tilt><altitudeMode>relativeToGround</altitudeMode></Camera></gx:FlyTo><gx:FlyTo><gx:duration>5.6</gx:duration><gx:flyToMode>smooth</gx:flyToMode><Camera><longitude>140.782757</longitude><latitude>39.473147</latitude><altitude>300</altitude><heading>204.0</heading><tilt>60</tilt><altitudeMode>relativeToGround</altitudeMode></Camera></gx:FlyTo><gx:FlyTo><gx:duration>5.6</gx:duration><gx:flyToMode>smooth</gx:flyToMode><Camera><longitude>140.777521</longitude><latitude>39.464049</latitude><altitude>300</altitude><heading>214.5</heading><tilt>60</tilt><altitudeMode>relativeToGround</altitudeMode></Camera></gx:FlyTo><gx:FlyTo><gx:duration>5.6</gx:duration><gx:flyToMode>smooth</gx:flyToMode><Camera><longitude>140.770268</longitude><latitude>39.455895</latitude><altitude>300</altitude><heading>219.1</heading><tilt>60</tilt><altitudeMode>relativeToGround</altitudeMode></Camera></gx:FlyTo><gx:FlyTo><gx:duration>5.6</gx:duration><gx:flyToMode>smooth</gx:flyToMode><Camera><longitude>140.761728</longitude><latitude>39.447784</latitude><altitude>300</altitude><heading>223.6</heading><tilt>60</tilt><altitudeMode>relativeToGround</altitudeMode></Camera></gx:FlyTo><gx:FlyTo><gx:duration>5.6</gx:duration><gx:flyToMode>smooth</gx:flyToMode><Camera><longitude>140.753360</longitude><latitude>39.441004</latitude><altitude>300</altitude><heading>192.4</heading><tilt>60</tilt><altitudeMode>relativeToGround</altitudeMode></Camera></gx:FlyTo><gx:FlyTo><gx:duration>5.6</gx:duration><gx:flyToMode>smooth</gx:flyToMode><Camera><longitude>140.750828</longitude><latitude>39.432120</latitude><altitude>300</altitude><heading>204.8</heading><tilt>60</tilt><altitudeMode>relativeToGround</altitudeMode></Camera></gx:FlyTo><gx:FlyTo><gx:duration>5.6</gx:duration><gx:flyToMode>smooth</gx:flyToMode><Camera><longitude>140.745807</longitude><latitude>39.423709</latitude><altitude>300</altitude><heading>168.7</heading><tilt>60</tilt><altitudeMode>relativeToGround</altitudeMode></Camera></gx:FlyTo><gx:FlyTo><gx:duration>5.6</gx:duration><gx:flyToMode>smooth</gx:flyToMode><Camera><longitude>140.748038</longitude><latitude>39.415083</latitude><altitude>300</altitude><heading>158.6</heading><tilt>60</tilt><altitudeMode>relativeToGround</altitudeMode></Camera></gx:FlyTo><gx:FlyTo><gx:duration>5.6</gx:duration><gx:flyToMode>smooth</gx:flyToMode><Camera><longitude>140.752416</longitude><latitude>39.406457</latitude><altitude>300</altitude><heading>158.4</heading><tilt>60</tilt><altitudeMode>relativeToGround</altitudeMode></Camera></gx:FlyTo><gx:FlyTo><gx:duration>5.6</gx:duration><gx:flyToMode>smooth</gx:flyToMode><Camera><longitude>140.756750</longitude><latitude>39.398003</latitude><altitude>300</altitude><heading>173.4</heading><tilt>60</tilt><altitudeMode>relativeToGround</altitudeMode></Camera></gx:FlyTo><gx:FlyTo><gx:duration>5.6</gx:duration><gx:flyToMode>smooth</gx:flyToMode><Camera><longitude>140.758123</longitude><latitude>39.388819</latitude><altitude>300</altitude><heading>172.9</heading><tilt>60</tilt><altitudeMode>relativeToGround</altitudeMode></Camera></gx:FlyTo><gx:FlyTo><gx:duration>5.6</gx:duration><gx:flyToMode>smooth</gx:flyToMode><Camera><longitude>140.759711</longitude><latitude>39.378991</latitude><altitude>300</altitude><heading>174.1</heading><tilt>60</tilt><altitudeMode>relativeToGround</altitudeMode></Camera></gx:FlyTo><gx:FlyTo><gx:duration>5.6</gx:duration><gx:flyToMode>smooth</gx:flyToMode><Camera><longitude>140.761170</longitude><latitude>39.368005</latitude><altitude>300</altitude><heading>178.3</heading><tilt>60</tilt><altitudeMode>relativeToGround</altitudeMode></Camera></gx:FlyTo><gx:FlyTo><gx:duration>5.6</gx:duration><gx:flyToMode>smooth</gx:flyToMode><Camera><longitude>140.761514</longitude><latitude>39.358821</latitude><altitude>300</altitude><heading>163.2</heading><tilt>60</tilt><altitudeMode>relativeToGround</altitudeMode></Camera></gx:FlyTo><gx:FlyTo><gx:duration>5.6</gx:duration><gx:flyToMode>smooth</gx:flyToMode><Camera><longitude>140.764904</longitude><latitude>39.350152</latitude><altitude>300</altitude><heading>201.2</heading><tilt>60</tilt><altitudeMode>relativeToGround</altitudeMode></Camera></gx:FlyTo><gx:FlyTo><gx:duration>5.6</gx:duration><gx:flyToMode>smooth</gx:flyToMode><Camera><longitude>140.761085</longitude><latitude>39.342556</latitude><altitude>300</altitude><heading>215.0</heading><tilt>60</tilt><altitudeMode>relativeToGround</altitudeMode></Camera></gx:FlyTo><gx:FlyTo><gx:duration>5.6</gx:duration><gx:flyToMode>smooth</gx:flyToMode><Camera><longitude>140.754046</longitude><latitude>39.334788</latitude><altitude>300</altitude><heading>192.7</heading><tilt>60</tilt><altitudeMode>relativeToGround</altitudeMode></Camera></gx:FlyTo><gx:FlyTo><gx:duration>5.6</gx:duration><gx:flyToMode>smooth</gx:flyToMode><Camera><longitude>140.751171</longitude><latitude>39.324918</latitude><altitude>300</altitude><heading>155.9</heading><tilt>60</tilt><altitudeMode>relativeToGround</altitudeMode></Camera></gx:FlyTo><gx:FlyTo><gx:duration>5.6</gx:duration><gx:flyToMode>smooth</gx:flyToMode><Camera><longitude>140.755892</longitude><latitude>39.316764</latitude><altitude>300</altitude><heading>235.0</heading><tilt>60</tilt><altitudeMode>relativeToGround</altitudeMode></Camera></gx:FlyTo><gx:FlyTo><gx:duration>5.6</gx:duration><gx:flyToMode>smooth</gx:flyToMode><Camera><longitude>140.750828</longitude><latitude>39.314017</latitude><altitude>300</altitude><heading>236.9</heading><tilt>60</tilt><altitudeMode>relativeToGround</altitudeMode></Camera></gx:FlyTo><gx:FlyTo><gx:duration>5.6</gx:duration><gx:flyToMode>smooth</gx:flyToMode><Camera><longitude>140.744777</longitude><latitude>39.310970</latitude><altitude>300</altitude><heading>247.0</heading><tilt>60</tilt><altitudeMode>relativeToGround</altitudeMode></Camera></gx:FlyTo><gx:FlyTo><gx:duration>5.6</gx:duration><gx:flyToMode>smooth</gx:flyToMode><Camera><longitude>140.733662</longitude><latitude>39.307323</latitude><altitude>300</altitude><heading>233.8</heading><tilt>60</tilt><altitudeMode>relativeToGround</altitudeMode></Camera></gx:FlyTo><gx:FlyTo><gx:duration>5.6</gx:duration><gx:flyToMode>smooth</gx:flyToMode><Camera><longitude>140.724735</longitude><latitude>39.302258</latitude><altitude>300</altitude><heading>204.4</heading><tilt>60</tilt><altitudeMode>relativeToGround</altitudeMode></Camera></gx:FlyTo><gx:FlyTo><gx:duration>5.6</gx:duration><gx:flyToMode>smooth</gx:flyToMode><Camera><longitude>140.719929</longitude><latitude>39.294062</latitude><altitude>300</altitude><heading>219.4</heading><tilt>60</tilt><altitudeMode>relativeToGround</altitudeMode></Camera></gx:FlyTo><gx:FlyTo><gx:duration>5.6</gx:duration><gx:flyToMode>smooth</gx:flyToMode><Camera><longitude>140.711775</longitude><latitude>39.286380</latitude><altitude>300</altitude><heading>221.6</heading><tilt>60</tilt><altitudeMode>relativeToGround</altitudeMode></Camera></gx:FlyTo><gx:FlyTo><gx:duration>5.6</gx:duration><gx:flyToMode>smooth</gx:flyToMode><Camera><longitude>140.703707</longitude><latitude>39.279342</latitude><altitude>300</altitude><heading>258.0</heading><tilt>60</tilt><altitudeMode>relativeToGround</altitudeMode></Camera></gx:FlyTo><gx:FlyTo><gx:duration>5.6</gx:duration><gx:flyToMode>smooth</gx:flyToMode><Camera><longitude>140.691690</longitude><latitude>39.277368</latitude><altitude>300</altitude><heading>262.3</heading><tilt>60</tilt><altitudeMode>relativeToGround</altitudeMode></Camera></gx:FlyTo><gx:FlyTo><gx:duration>5.6</gx:duration><gx:flyToMode>smooth</gx:flyToMode><Camera><longitude>140.674438</longitude><latitude>39.275565</latitude><altitude>300</altitude><heading>253.4</heading><tilt>60</tilt><altitudeMode>relativeToGround</altitudeMode></Camera></gx:FlyTo><gx:FlyTo><gx:duration>5.6</gx:duration><gx:flyToMode>smooth</gx:flyToMode><Camera><longitude>140.663109</longitude><latitude>39.272947</latitude><altitude>300</altitude><heading>249.6</heading><tilt>60</tilt><altitudeMode>relativeToGround</altitudeMode></Camera></gx:FlyTo><gx:FlyTo><gx:duration>5.6</gx:duration><gx:flyToMode>smooth</gx:flyToMode><Camera><longitude>140.651479</longitude><latitude>39.269600</latitude><altitude>300</altitude><heading>263.0</heading><tilt>60</tilt><altitudeMode>relativeToGround</altitudeMode></Camera></gx:FlyTo><gx:FlyTo><gx:duration>5.6</gx:duration><gx:flyToMode>smooth</gx:flyToMode><Camera><longitude>140.639806</longitude><latitude>39.268484</latitude><altitude>300</altitude><heading>290.1</heading><tilt>60</tilt><altitudeMode>relativeToGround</altitudeMode></Camera></gx:FlyTo><gx:FlyTo><gx:duration>5.6</gx:duration><gx:flyToMode>smooth</gx:flyToMode><Camera><longitude>140.622511</longitude><latitude>39.273376</latitude><altitude>300</altitude><heading>298.4</heading><tilt>60</tilt><altitudeMode>relativeToGround</altitudeMode></Camera></gx:FlyTo><gx:FlyTo><gx:duration>5.6</gx:duration><gx:flyToMode>smooth</gx:flyToMode><Camera><longitude>140.612168</longitude><latitude>39.277711</latitude><altitude>300</altitude><heading>316.1</heading><tilt>60</tilt><altitudeMode>relativeToGround</altitudeMode></Camera></gx:FlyTo><gx:FlyTo><gx:duration>5.6</gx:duration><gx:flyToMode>smooth</gx:flyToMode><Camera><longitude>140.603242</longitude><latitude>39.284878</latitude><altitude>300</altitude><heading>283.8</heading><tilt>60</tilt><altitudeMode>relativeToGround</altitudeMode></Camera></gx:FlyTo><gx:FlyTo><gx:duration>5.6</gx:duration><gx:flyToMode>smooth</gx:flyToMode><Camera><longitude>140.590110</longitude><latitude>39.287367</latitude><altitude>300</altitude><heading>257.6</heading><tilt>60</tilt><altitudeMode>relativeToGround</altitudeMode></Camera></gx:FlyTo><gx:FlyTo><gx:duration>5.6</gx:duration><gx:flyToMode>smooth</gx:flyToMode><Camera><longitude>140.578523</longitude><latitude>39.285393</latitude><altitude>300</altitude><heading>249.0</heading><tilt>60</tilt><altitudeMode>relativeToGround</altitudeMode></Camera></gx:FlyTo><gx:FlyTo><gx:duration>5.6</gx:duration><gx:flyToMode>smooth</gx:flyToMode><Camera><longitude>140.566506</longitude><latitude>39.281831</latitude><altitude>300</altitude><heading>257.8</heading><tilt>60</tilt><altitudeMode>relativeToGround</altitudeMode></Camera></gx:FlyTo><gx:FlyTo><gx:duration>5.6</gx:duration><gx:flyToMode>smooth</gx:flyToMode><Camera><longitude>140.554490</longitude><latitude>39.279814</latitude><altitude>300</altitude><heading>275.3</heading><tilt>60</tilt><altitudeMode>relativeToGround</altitudeMode></Camera></gx:FlyTo><gx:FlyTo><gx:duration>5.6</gx:duration><gx:flyToMode>smooth</gx:flyToMode><Camera><longitude>140.546722</longitude><latitude>39.280372</latitude><altitude>300</altitude><heading>205.2</heading><tilt>60</tilt><altitudeMode>relativeToGround</altitudeMode></Camera></gx:FlyTo><gx:FlyTo><gx:duration>5.6</gx:duration><gx:flyToMode>smooth</gx:flyToMode><Camera><longitude>140.542259</longitude><latitude>39.273033</latitude><altitude>300</altitude><heading>205.2</heading><tilt>60</tilt><altitudeMode>relativeToGround</altitudeMode></Camera></gx:FlyTo><gx:FlyTo><gx:duration>5.6</gx:duration><gx:flyToMode>smooth</gx:flyToMode><Camera><longitude>140.535779</longitude><latitude>39.262390</latitude><altitude>300</altitude><heading>203.2</heading><tilt>60</tilt><altitudeMode>relativeToGround</altitudeMode></Camera></gx:FlyTo><gx:FlyTo><gx:duration>5.6</gx:duration><gx:flyToMode>smooth</gx:flyToMode><Camera><longitude>140.530500</longitude><latitude>39.252863</latitude><altitude>300</altitude><heading>200.8</heading><tilt>60</tilt><altitudeMode>relativeToGround</altitudeMode></Camera></gx:FlyTo><gx:FlyTo><gx:duration>5.6</gx:duration><gx:flyToMode>smooth</gx:flyToMode><Camera><longitude>140.525351</longitude><latitude>39.242392</latitude><altitude>300</altitude><heading>190.2</heading><tilt>60</tilt><altitudeMode>relativeToGround</altitudeMode></Camera></gx:FlyTo><gx:FlyTo><gx:duration>5.6</gx:duration><gx:flyToMode>smooth</gx:flyToMode><Camera><longitude>140.523548</longitude><latitude>39.234667</latitude><altitude>300</altitude><heading>194.0</heading><tilt>60</tilt><altitudeMode>relativeToGround</altitudeMode></Camera></gx:FlyTo><gx:FlyTo><gx:duration>5.6</gx:duration><gx:flyToMode>smooth</gx:flyToMode><Camera><longitude>140.521145</longitude><latitude>39.227200</latitude><altitude>300</altitude><heading>205.0</heading><tilt>60</tilt><altitudeMode>relativeToGround</altitudeMode></Camera></gx:FlyTo><gx:FlyTo><gx:duration>5.6</gx:duration><gx:flyToMode>smooth</gx:flyToMode><Camera><longitude>140.515952</longitude><latitude>39.218574</latitude><altitude>300</altitude><heading>117.4</heading><tilt>60</tilt><altitudeMode>relativeToGround</altitudeMode></Camera></gx:FlyTo><gx:FlyTo><gx:duration>5.6</gx:duration><gx:flyToMode>smooth</gx:flyToMode><Camera><longitude>140.526338</longitude><latitude>39.214411</latitude><altitude>300</altitude><heading>148.7</heading><tilt>60</tilt><altitudeMode>relativeToGround</altitudeMode></Camera></gx:FlyTo><gx:FlyTo><gx:duration>5.6</gx:duration><gx:flyToMode>smooth</gx:flyToMode><Camera><longitude>140.533419</longitude><latitude>39.205399</latitude><altitude>300</altitude><heading>132.8</heading><tilt>60</tilt><altitudeMode>relativeToGround</altitudeMode></Camera></gx:FlyTo><gx:FlyTo><gx:duration>5.6</gx:duration><gx:flyToMode>smooth</gx:flyToMode><Camera><longitude>140.541444</longitude><latitude>39.199648</latitude><altitude>300</altitude><heading>141.0</heading><tilt>60</tilt><altitudeMode>relativeToGround</altitudeMode></Camera></gx:FlyTo><gx:FlyTo><gx:duration>5.6</gx:duration><gx:flyToMode>smooth</gx:flyToMode><Camera><longitude>140.549254</longitude><latitude>39.192181</latitude><altitude>300</altitude><heading>158.7</heading><tilt>60</tilt><altitudeMode>relativeToGround</altitudeMode></Camera></gx:FlyTo><gx:FlyTo><gx:duration>5.6</gx:duration><gx:flyToMode>smooth</gx:flyToMode><Camera><longitude>140.553675</longitude><latitude>39.183383</latitude><altitude>300</altitude><heading>167.8</heading><tilt>60</tilt><altitudeMode>relativeToGround</altitudeMode></Camera></gx:FlyTo><gx:FlyTo><gx:duration>5.6</gx:duration><gx:flyToMode>smooth</gx:flyToMode><Camera><longitude>140.556250</longitude><latitude>39.174113</latitude><altitude>300</altitude><heading>156.7</heading><tilt>60</tilt><altitudeMode>relativeToGround</altitudeMode></Camera></gx:FlyTo><gx:FlyTo><gx:duration>5.6</gx:duration><gx:flyToMode>smooth</gx:flyToMode><Camera><longitude>140.561013</longitude><latitude>39.165530</latitude><altitude>300</altitude><heading>204.0</heading><tilt>60</tilt><altitudeMode>relativeToGround</altitudeMode></Camera></gx:FlyTo><gx:FlyTo><gx:duration>5.6</gx:duration><gx:flyToMode>smooth</gx:flyToMode><Camera><longitude>140.557494</longitude><latitude>39.159393</latitude><altitude>300</altitude><heading>173.6</heading><tilt>60</tilt><altitudeMode>relativeToGround</altitudeMode></Camera></gx:FlyTo><gx:FlyTo><gx:duration>5.6</gx:duration><gx:flyToMode>smooth</gx:flyToMode><Camera><longitude>140.558481</longitude><latitude>39.152527</latitude><altitude>300</altitude><heading>168.2</heading><tilt>60</tilt><altitudeMode>relativeToGround</altitudeMode></Camera></gx:FlyTo><gx:FlyTo><gx:duration>5.6</gx:duration><gx:flyToMode>smooth</gx:flyToMode><Camera><longitude>140.560842</longitude><latitude>39.143772</latitude><altitude>300</altitude><heading>160.3</heading><tilt>60</tilt><altitudeMode>relativeToGround</altitudeMode></Camera></gx:FlyTo><gx:FlyTo><gx:duration>5.6</gx:duration><gx:flyToMode>smooth</gx:flyToMode><Camera><longitude>140.564833</longitude><latitude>39.135103</latitude><altitude>300</altitude><heading>166.6</heading><tilt>60</tilt><altitudeMode>relativeToGround</altitudeMode></Camera></gx:FlyTo><gx:FlyTo><gx:duration>5.6</gx:duration><gx:flyToMode>smooth</gx:flyToMode><Camera><longitude>140.567579</longitude><latitude>39.126177</latitude><altitude>300</altitude><heading>162.3</heading><tilt>60</tilt><altitudeMode>relativeToGround</altitudeMode></Camera></gx:FlyTo><gx:FlyTo><gx:duration>5.6</gx:duration><gx:flyToMode>smooth</gx:flyToMode><Camera><longitude>140.571227</longitude><latitude>39.117293</latitude><altitude>300</altitude><heading>146.7</heading><tilt>60</tilt><altitudeMode>relativeToGround</altitudeMode></Camera></gx:FlyTo><gx:FlyTo><gx:duration>5.6</gx:duration><gx:flyToMode>smooth</gx:flyToMode><Camera><longitude>140.577579</longitude><latitude>39.109783</latitude><altitude>300</altitude><heading>214.7</heading><tilt>60</tilt><altitudeMode>relativeToGround</altitudeMode></Camera></gx:FlyTo><gx:FlyTo><gx:duration>5.6</gx:duration><gx:flyToMode>smooth</gx:flyToMode><Camera><longitude>140.571184</longitude><latitude>39.102616</latitude><altitude>300</altitude><heading>169.7</heading><tilt>60</tilt><altitudeMode>relativeToGround</altitudeMode></Camera></gx:FlyTo><gx:FlyTo><gx:duration>5.6</gx:duration><gx:flyToMode>smooth</gx:flyToMode><Camera><longitude>140.573373</longitude><latitude>39.093304</latitude><altitude>300</altitude><heading>137.5</heading><tilt>60</tilt><altitudeMode>relativeToGround</altitudeMode></Camera></gx:FlyTo><gx:FlyTo><gx:duration>5.6</gx:duration><gx:flyToMode>smooth</gx:flyToMode><Camera><longitude>140.579853</longitude><latitude>39.087811</latitude><altitude>300</altitude><heading>153.3</heading><tilt>60</tilt><altitudeMode>relativeToGround</altitudeMode></Camera></gx:FlyTo><gx:FlyTo><gx:duration>5.6</gx:duration><gx:flyToMode>smooth</gx:flyToMode><Camera><longitude>140.585217</longitude><latitude>39.079528</latitude><altitude>300</altitude><heading>176.2</heading><tilt>60</tilt><altitudeMode>relativeToGround</altitudeMode></Camera></gx:FlyTo><gx:FlyTo><gx:duration>5.6</gx:duration><gx:flyToMode>smooth</gx:flyToMode><Camera><longitude>140.585990</longitude><latitude>39.070559</latitude><altitude>300</altitude><heading>144.6</heading><tilt>60</tilt><altitudeMode>relativeToGround</altitudeMode></Camera></gx:FlyTo><gx:FlyTo><gx:duration>5.6</gx:duration><gx:flyToMode>smooth</gx:flyToMode><Camera><longitude>140.592599</longitude><latitude>39.063349</latitude><altitude>300</altitude><heading>115.6</heading><tilt>60</tilt><altitudeMode>relativeToGround</altitudeMode></Camera></gx:FlyTo><gx:FlyTo><gx:duration>5.6</gx:duration><gx:flyToMode>smooth</gx:flyToMode><Camera><longitude>140.602384</longitude><latitude>39.059701</latitude><altitude>300</altitude><heading>116.9</heading><tilt>60</tilt><altitudeMode>relativeToGround</altitudeMode></Camera></gx:FlyTo><gx:FlyTo><gx:duration>5.6</gx:duration><gx:flyToMode>smooth</gx:flyToMode><Camera><longitude>140.611653</longitude><latitude>39.056053</latitude><altitude>300</altitude><heading>98.7</heading><tilt>60</tilt><altitudeMode>relativeToGround</altitudeMode></Camera></gx:FlyTo><gx:FlyTo><gx:duration>5.6</gx:duration><gx:flyToMode>smooth</gx:flyToMode><Camera><longitude>140.623198</longitude><latitude>39.054680</latitude><altitude>300</altitude><heading>148.8</heading><tilt>60</tilt><altitudeMode>relativeToGround</altitudeMode></Camera></gx:FlyTo><gx:FlyTo><gx:duration>5.6</gx:duration><gx:flyToMode>smooth</gx:flyToMode><Camera><longitude>140.628991</longitude><latitude>39.047256</latitude><altitude>300</altitude><heading>169.9</heading><tilt>60</tilt><altitudeMode>relativeToGround</altitudeMode></Camera></gx:FlyTo><gx:FlyTo><gx:duration>5.6</gx:duration><gx:flyToMode>smooth</gx:flyToMode><Camera><longitude>140.630965</longitude><latitude>39.038630</latitude><altitude>300</altitude><heading>133.9</heading><tilt>60</tilt><altitudeMode>relativeToGround</altitudeMode></Camera></gx:FlyTo><gx:FlyTo><gx:duration>5.6</gx:duration><gx:flyToMode>smooth</gx:flyToMode><Camera><longitude>140.639462</longitude><latitude>39.032278</latitude><altitude>300</altitude><heading>145.7</heading><tilt>60</tilt><altitudeMode>relativeToGround</altitudeMode></Camera></gx:FlyTo><gx:FlyTo><gx:duration>5.6</gx:duration><gx:flyToMode>smooth</gx:flyToMode><Camera><longitude>140.647488</longitude><latitude>39.023137</latitude><altitude>300</altitude><heading>133.6</heading><tilt>60</tilt><altitudeMode>relativeToGround</altitudeMode></Camera></gx:FlyTo><gx:FlyTo><gx:duration>5.6</gx:duration><gx:flyToMode>smooth</gx:flyToMode><Camera><longitude>140.655942</longitude><latitude>39.016871</latitude><altitude>300</altitude><heading>153.6</heading><tilt>60</tilt><altitudeMode>relativeToGround</altitudeMode></Camera></gx:FlyTo><gx:FlyTo><gx:duration>5.6</gx:duration><gx:flyToMode>smooth</gx:flyToMode><Camera><longitude>140.661006</longitude><latitude>39.008932</latitude><altitude>300</altitude><heading>136.4</heading><tilt>60</tilt><altitudeMode>relativeToGround</altitudeMode></Camera></gx:FlyTo><gx:FlyTo><gx:duration>5.6</gx:duration><gx:flyToMode>smooth</gx:flyToMode><Camera><longitude>140.668430</longitude><latitude>39.002881</latitude><altitude>300</altitude><heading>143.1</heading><tilt>60</tilt><altitudeMode>relativeToGround</altitudeMode></Camera></gx:FlyTo><gx:FlyTo><gx:duration>5.6</gx:duration><gx:flyToMode>smooth</gx:flyToMode><Camera><longitude>140.675426</longitude><latitude>38.995628</latitude><altitude>300</altitude><heading>116.3</heading><tilt>60</tilt><altitudeMode>relativeToGround</altitudeMode></Camera></gx:FlyTo><gx:FlyTo><gx:duration>5.6</gx:duration><gx:flyToMode>smooth</gx:flyToMode><Camera><longitude>140.685596</longitude><latitude>38.991723</latitude><altitude>300</altitude><heading>149.4</heading><tilt>60</tilt><altitudeMode>relativeToGround</altitudeMode></Camera></gx:FlyTo><gx:FlyTo><gx:duration>5.6</gx:duration><gx:flyToMode>smooth</gx:flyToMode><Camera><longitude>140.692420</longitude><latitude>38.982754</latitude><altitude>300</altitude><heading>23.2</heading><tilt>60</tilt><altitudeMode>relativeToGround</altitudeMode></Camera></gx:FlyTo><gx:FlyTo><gx:duration>5.6</gx:duration><gx:flyToMode>smooth</gx:flyToMode><Camera><longitude>140.694952</longitude><latitude>38.987346</latitude><altitude>300</altitude><heading>117.1</heading><tilt>60</tilt><altitudeMode>relativeToGround</altitudeMode></Camera></gx:FlyTo><gx:FlyTo><gx:duration>5.6</gx:duration><gx:flyToMode>smooth</gx:flyToMode><Camera><longitude>140.704136</longitude><latitude>38.983698</latitude><altitude>300</altitude><heading>70.2</heading><tilt>60</tilt><altitudeMode>relativeToGround</altitudeMode></Camera></gx:FlyTo><gx:FlyTo><gx:duration>5.6</gx:duration><gx:flyToMode>smooth</gx:flyToMode><Camera><longitude>140.711174</longitude><latitude>38.985672</latitude><altitude>300</altitude><heading>178.5</heading><tilt>60</tilt><altitudeMode>relativeToGround</altitudeMode></Camera></gx:FlyTo><gx:FlyTo><gx:duration>5.6</gx:duration><gx:flyToMode>smooth</gx:flyToMode><Camera><longitude>140.711260</longitude><latitude>38.983054</latitude><altitude>300</altitude><heading>166.2</heading><tilt>60</tilt><altitudeMode>relativeToGround</altitudeMode></Camera></gx:FlyTo><gx:FlyTo><gx:duration>5.6</gx:duration><gx:flyToMode>smooth</gx:flyToMode><Camera><longitude>140.712805</longitude><latitude>38.978162</latitude><altitude>300</altitude><heading>188.4</heading><tilt>60</tilt><altitudeMode>relativeToGround</altitudeMode></Camera></gx:FlyTo><gx:FlyTo><gx:duration>5.6</gx:duration><gx:flyToMode>smooth</gx:flyToMode><Camera><longitude>140.711560</longitude><latitude>38.971639</latitude><altitude>300</altitude><heading>161.7</heading><tilt>60</tilt><altitudeMode>relativeToGround</altitudeMode></Camera></gx:FlyTo><gx:FlyTo><gx:duration>5.6</gx:duration><gx:flyToMode>smooth</gx:flyToMode><Camera><longitude>140.714221</longitude><latitude>38.965373</latitude><altitude>300</altitude><heading>182.1</heading><tilt>60</tilt><altitudeMode>relativeToGround</altitudeMode></Camera></gx:FlyTo><gx:FlyTo><gx:duration>5.6</gx:duration><gx:flyToMode>smooth</gx:flyToMode><Camera><longitude>140.713792</longitude><latitude>38.956318</latitude><altitude>300</altitude><heading>153.6</heading><tilt>60</tilt><altitudeMode>relativeToGround</altitudeMode></Camera></gx:FlyTo><gx:FlyTo><gx:duration>5.6</gx:duration><gx:flyToMode>smooth</gx:flyToMode><Camera><longitude>140.718341</longitude><latitude>38.949194</latitude><altitude>300</altitude><heading>179.0</heading><tilt>60</tilt><altitudeMode>relativeToGround</altitudeMode></Camera></gx:FlyTo><gx:FlyTo><gx:duration>5.6</gx:duration><gx:flyToMode>smooth</gx:flyToMode><Camera><longitude>140.718513</longitude><latitude>38.941255</latitude><altitude>300</altitude><heading>147.7</heading><tilt>60</tilt><altitudeMode>relativeToGround</altitudeMode></Camera></gx:FlyTo><gx:FlyTo><gx:duration>5.6</gx:duration><gx:flyToMode>smooth</gx:flyToMode><Camera><longitude>140.724649</longitude><latitude>38.933702</latitude><altitude>300</altitude><heading>150.9</heading><tilt>60</tilt><altitudeMode>relativeToGround</altitudeMode></Camera></gx:FlyTo><gx:FlyTo><gx:duration>5.6</gx:duration><gx:flyToMode>smooth</gx:flyToMode><Camera><longitude>140.730186</longitude><latitude>38.925977</latitude><altitude>300</altitude><heading>177.7</heading><tilt>60</tilt><altitudeMode>relativeToGround</altitudeMode></Camera></gx:FlyTo><gx:FlyTo><gx:duration>5.6</gx:duration><gx:flyToMode>smooth</gx:flyToMode><Camera><longitude>140.730615</longitude><latitude>38.917737</latitude><altitude>300</altitude><heading>183.1</heading><tilt>60</tilt><altitudeMode>relativeToGround</altitudeMode></Camera></gx:FlyTo><gx:FlyTo><gx:duration>5.6</gx:duration><gx:flyToMode>smooth</gx:flyToMode><Camera><longitude>140.730228</longitude><latitude>38.912158</latitude><altitude>300</altitude><heading>142.5</heading><tilt>60</tilt><altitudeMode>relativeToGround</altitudeMode></Camera></gx:FlyTo><gx:FlyTo><gx:duration>5.6</gx:duration><gx:flyToMode>smooth</gx:flyToMode><Camera><longitude>140.736065</longitude><latitude>38.906236</latitude><altitude>300</altitude><heading>217.9</heading><tilt>60</tilt><altitudeMode>relativeToGround</altitudeMode></Camera></gx:FlyTo><gx:FlyTo><gx:duration>5.6</gx:duration><gx:flyToMode>smooth</gx:flyToMode><Camera><longitude>140.732546</longitude><latitude>38.902717</latitude><altitude>300</altitude><heading>155.9</heading><tilt>60</tilt><altitudeMode>relativeToGround</altitudeMode></Camera></gx:FlyTo><gx:FlyTo><gx:duration>5.6</gx:duration><gx:flyToMode>smooth</gx:flyToMode><Camera><longitude>140.737267</longitude><latitude>38.894520</latitude><altitude>300</altitude><heading>147.6</heading><tilt>60</tilt><altitudeMode>relativeToGround</altitudeMode></Camera></gx:FlyTo><gx:FlyTo><gx:duration>5.6</gx:duration><gx:flyToMode>smooth</gx:flyToMode><Camera><longitude>140.740657</longitude><latitude>38.890357</latitude><altitude>300</altitude><heading>145.2</heading><tilt>60</tilt><altitudeMode>relativeToGround</altitudeMode></Camera></gx:FlyTo><gx:FlyTo><gx:duration>5.6</gx:duration><gx:flyToMode>smooth</gx:flyToMode><Camera><longitude>140.746751</longitude><latitude>38.883533</latitude><altitude>300</altitude><heading>151.2</heading><tilt>60</tilt><altitudeMode>relativeToGround</altitudeMode></Camera></gx:FlyTo><gx:FlyTo><gx:duration>5.6</gx:duration><gx:flyToMode>smooth</gx:flyToMode><Camera><longitude>140.751987</longitude><latitude>38.876109</latitude><altitude>300</altitude><heading>150.3</heading><tilt>60</tilt><altitudeMode>relativeToGround</altitudeMode></Camera></gx:FlyTo><gx:FlyTo><gx:duration>5.6</gx:duration><gx:flyToMode>smooth</gx:flyToMode><Camera><longitude>140.757523</longitude><latitude>38.868556</latitude><altitude>300</altitude><heading>117.4</heading><tilt>60</tilt><altitudeMode>relativeToGround</altitudeMode></Camera></gx:FlyTo><gx:FlyTo><gx:duration>5.6</gx:duration><gx:flyToMode>smooth</gx:flyToMode><Camera><longitude>140.763702</longitude><latitude>38.866067</latitude><altitude>300</altitude><heading>98.5</heading><tilt>60</tilt><altitudeMode>relativeToGround</altitudeMode></Camera></gx:FlyTo><gx:FlyTo><gx:duration>5.6</gx:duration><gx:flyToMode>smooth</gx:flyToMode><Camera><longitude>140.771470</longitude><latitude>38.865166</latitude><altitude>300</altitude><heading>130.9</heading><tilt>60</tilt><altitudeMode>relativeToGround</altitudeMode></Camera></gx:FlyTo><gx:FlyTo><gx:duration>5.6</gx:duration><gx:flyToMode>smooth</gx:flyToMode><Camera><longitude>140.775290</longitude><latitude>38.862591</latitude><altitude>300</altitude><heading>152.6</heading><tilt>60</tilt><altitudeMode>relativeToGround</altitudeMode></Camera></gx:FlyTo><gx:FlyTo><gx:duration>5.6</gx:duration><gx:flyToMode>smooth</gx:flyToMode><Camera><longitude>140.778637</longitude><latitude>38.857570</latitude><altitude>300</altitude><heading>182.5</heading><tilt>60</tilt><altitudeMode>relativeToGround</altitudeMode></Camera></gx:FlyTo><gx:FlyTo><gx:duration>5.6</gx:duration><gx:flyToMode>smooth</gx:flyToMode><Camera><longitude>140.778251</longitude><latitude>38.850574</latitude><altitude>300</altitude><heading>178.0</heading><tilt>60</tilt><altitudeMode>relativeToGround</altitudeMode></Camera></gx:FlyTo><gx:FlyTo><gx:duration>5.6</gx:duration><gx:flyToMode>smooth</gx:flyToMode><Camera><longitude>140.778637</longitude><latitude>38.841863</latitude><altitude>300</altitude><heading>139.9</heading><tilt>60</tilt><altitudeMode>relativeToGround</altitudeMode></Camera></gx:FlyTo><gx:FlyTo><gx:duration>5.6</gx:duration><gx:flyToMode>smooth</gx:flyToMode><Camera><longitude>140.786705</longitude><latitude>38.834395</latitude><altitude>300</altitude><heading>143.0</heading><tilt>60</tilt><altitudeMode>relativeToGround</altitudeMode></Camera></gx:FlyTo><gx:FlyTo><gx:duration>5.6</gx:duration><gx:flyToMode>smooth</gx:flyToMode><Camera><longitude>140.793915</longitude><latitude>38.826928</latitude><altitude>300</altitude><heading>132.5</heading><tilt>60</tilt><altitudeMode>relativeToGround</altitudeMode></Camera></gx:FlyTo><gx:FlyTo><gx:duration>5.6</gx:duration><gx:flyToMode>smooth</gx:flyToMode><Camera><longitude>140.802155</longitude><latitude>38.821049</latitude><altitude>300</altitude><heading>122.9</heading><tilt>60</tilt><altitudeMode>relativeToGround</altitudeMode></Camera></gx:FlyTo><gx:FlyTo><gx:duration>5.6</gx:duration><gx:flyToMode>smooth</gx:flyToMode><Camera><longitude>140.811510</longitude><latitude>38.816328</latitude><altitude>300</altitude><heading>142.7</heading><tilt>60</tilt><altitudeMode>relativeToGround</altitudeMode></Camera></gx:FlyTo><gx:FlyTo><gx:duration>5.6</gx:duration><gx:flyToMode>smooth</gx:flyToMode><Camera><longitude>140.818977</longitude><latitude>38.808689</latitude><altitude>300</altitude><heading>141.7</heading><tilt>60</tilt><altitudeMode>relativeToGround</altitudeMode></Camera></gx:FlyTo><gx:FlyTo><gx:duration>5.6</gx:duration><gx:flyToMode>smooth</gx:flyToMode><Camera><longitude>140.826144</longitude><latitude>38.801608</latitude><altitude>300</altitude><heading>113.0</heading><tilt>60</tilt><altitudeMode>relativeToGround</altitudeMode></Camera></gx:FlyTo><gx:FlyTo><gx:duration>5.6</gx:duration><gx:flyToMode>smooth</gx:flyToMode><Camera><longitude>140.836272</longitude><latitude>38.798261</latitude><altitude>300</altitude><heading>124.2</heading><tilt>60</tilt><altitudeMode>relativeToGround</altitudeMode></Camera></gx:FlyTo><gx:FlyTo><gx:duration>5.6</gx:duration><gx:flyToMode>smooth</gx:flyToMode><Camera><longitude>140.845413</longitude><latitude>38.793411</latitude><altitude>300</altitude><heading>169.5</heading><tilt>60</tilt><altitudeMode>relativeToGround</altitudeMode></Camera></gx:FlyTo><gx:FlyTo><gx:duration>5.6</gx:duration><gx:flyToMode>smooth</gx:flyToMode><Camera><longitude>140.847473</longitude><latitude>38.784742</latitude><altitude>300</altitude><heading>146.2</heading><tilt>60</tilt><altitudeMode>relativeToGround</altitudeMode></Camera></gx:FlyTo><gx:FlyTo><gx:duration>5.6</gx:duration><gx:flyToMode>smooth</gx:flyToMode><Camera><longitude>140.853653</longitude><latitude>38.777533</latitude><altitude>300</altitude><heading>120.9</heading><tilt>60</tilt><altitudeMode>relativeToGround</altitudeMode></Camera></gx:FlyTo><gx:FlyTo><gx:duration>5.6</gx:duration><gx:flyToMode>smooth</gx:flyToMode><Camera><longitude>140.862837</longitude><latitude>38.773241</latitude><altitude>300</altitude><heading>196.0</heading><tilt>60</tilt><altitudeMode>relativeToGround</altitudeMode></Camera></gx:FlyTo><gx:FlyTo><gx:duration>5.6</gx:duration><gx:flyToMode>smooth</gx:flyToMode><Camera><longitude>140.860219</longitude><latitude>38.766117</latitude><altitude>300</altitude><heading>270.8</heading><tilt>60</tilt><altitudeMode>relativeToGround</altitudeMode></Camera></gx:FlyTo><gx:FlyTo><gx:duration>5.6</gx:duration><gx:flyToMode>smooth</gx:flyToMode><Camera><longitude>140.848761</longitude><latitude>38.766246</latitude><altitude>300</altitude><heading>288.9</heading><tilt>60</tilt><altitudeMode>relativeToGround</altitudeMode></Camera></gx:FlyTo><gx:FlyTo><gx:duration>5.6</gx:duration><gx:flyToMode>smooth</gx:flyToMode><Camera><longitude>140.837216</longitude><latitude>38.769336</latitude><altitude>300</altitude><heading>265.9</heading><tilt>60</tilt><altitudeMode>relativeToGround</altitudeMode></Camera></gx:FlyTo><gx:FlyTo><gx:duration>5.6</gx:duration><gx:flyToMode>smooth</gx:flyToMode><Camera><longitude>140.826573</longitude><latitude>38.768735</latitude><altitude>300</altitude><heading>219.6</heading><tilt>60</tilt><altitudeMode>relativeToGround</altitudeMode></Camera></gx:FlyTo><gx:FlyTo><gx:duration>5.6</gx:duration><gx:flyToMode>smooth</gx:flyToMode><Camera><longitude>140.819750</longitude><latitude>38.762298</latitude><altitude>300</altitude><heading>245.3</heading><tilt>60</tilt><altitudeMode>relativeToGround</altitudeMode></Camera></gx:FlyTo><gx:FlyTo><gx:duration>5.6</gx:duration><gx:flyToMode>smooth</gx:flyToMode><Camera><longitude>140.810308</longitude><latitude>38.758907</latitude><altitude>300</altitude><heading>224.8</heading><tilt>60</tilt><altitudeMode>relativeToGround</altitudeMode></Camera></gx:FlyTo><gx:FlyTo><gx:duration>5.6</gx:duration><gx:flyToMode>smooth</gx:flyToMode><Camera><longitude>140.802670</longitude><latitude>38.752899</latitude><altitude>300</altitude><heading>211.5</heading><tilt>60</tilt><altitudeMode>relativeToGround</altitudeMode></Camera></gx:FlyTo><gx:FlyTo><gx:duration>5.6</gx:duration><gx:flyToMode>smooth</gx:flyToMode><Camera><longitude>140.796747</longitude><latitude>38.745346</latitude><altitude>300</altitude><heading>210.3</heading><tilt>60</tilt><altitudeMode>relativeToGround</altitudeMode></Camera></gx:FlyTo><gx:FlyTo><gx:duration>5.6</gx:duration><gx:flyToMode>smooth</gx:flyToMode><Camera><longitude>140.793400</longitude><latitude>38.740883</latitude><altitude>300</altitude><heading>270.6</heading><tilt>60</tilt><altitudeMode>relativeToGround</altitudeMode></Camera></gx:FlyTo><gx:FlyTo><gx:duration>5.6</gx:duration><gx:flyToMode>smooth</gx:flyToMode><Camera><longitude>140.782328</longitude><latitude>38.740969</latitude><altitude>300</altitude><heading>230.3</heading><tilt>60</tilt><altitudeMode>relativeToGround</altitudeMode></Camera></gx:FlyTo><gx:FlyTo><gx:duration>5.6</gx:duration><gx:flyToMode>smooth</gx:flyToMode><Camera><longitude>140.774174</longitude><latitude>38.735690</latitude><altitude>300</altitude><heading>271.9</heading><tilt>60</tilt><altitudeMode>relativeToGround</altitudeMode></Camera></gx:FlyTo><gx:FlyTo><gx:duration>5.6</gx:duration><gx:flyToMode>smooth</gx:flyToMode><Camera><longitude>140.764260</longitude><latitude>38.735948</latitude><altitude>300</altitude><heading>256.9</heading><tilt>60</tilt><altitudeMode>relativeToGround</altitudeMode></Camera></gx:FlyTo><gx:FlyTo><gx:duration>5.6</gx:duration><gx:flyToMode>smooth</gx:flyToMode><Camera><longitude>140.753403</longitude><latitude>38.733974</latitude><altitude>300</altitude><heading>300.0</heading><tilt>60</tilt><altitudeMode>relativeToGround</altitudeMode></Camera></gx:FlyTo><gx:FlyTo><gx:duration>5.6</gx:duration><gx:flyToMode>smooth</gx:flyToMode><Camera><longitude>140.743189</longitude><latitude>38.738565</latitude><altitude>300</altitude><heading>329.6</heading><tilt>60</tilt><altitudeMode>relativeToGround</altitudeMode></Camera></gx:FlyTo><gx:FlyTo><gx:duration>5.6</gx:duration><gx:flyToMode>smooth</gx:flyToMode><Camera><longitude>140.737309</longitude><latitude>38.746376</latitude><altitude>300</altitude><heading>286.0</heading><tilt>60</tilt><altitudeMode>relativeToGround</altitudeMode></Camera></gx:FlyTo><gx:FlyTo><gx:duration>5.6</gx:duration><gx:flyToMode>smooth</gx:flyToMode><Camera><longitude>140.726151</longitude><latitude>38.748865</latitude><altitude>300</altitude><heading>236.2</heading><tilt>60</tilt><altitudeMode>relativeToGround</altitudeMode></Camera></gx:FlyTo><gx:FlyTo><gx:duration>5.6</gx:duration><gx:flyToMode>smooth</gx:flyToMode><Camera><longitude>140.717525</longitude><latitude>38.744359</latitude><altitude>300</altitude><heading>196.3</heading><tilt>60</tilt><altitudeMode>relativeToGround</altitudeMode></Camera></gx:FlyTo><gx:FlyTo><gx:duration>5.6</gx:duration><gx:flyToMode>smooth</gx:flyToMode><Camera><longitude>140.716320</longitude><latitude>38.741144</latitude><altitude>300</altitude><heading>196.3</heading><tilt>60</tilt><altitudeMode>relativeToGround</altitudeMode></Camera></gx:FlyTo></gx:Playlist></gx:Tour>
<Placemark><name>Route line — 10/11 Sun</name><visibility>0</visibility><styleUrl>#rt</styleUrl><LineString><altitudeMode>relativeToGround</altitudeMode><coordinates>140.934976,39.640035,120 140.934968,39.640077,120 140.935063,39.640088,120 140.935106,39.640388,120 140.934591,39.641290,120 140.935664,39.641461,120 140.936394,39.641676,120 140.937638,39.642277,120 140.938282,39.642577,120 140.940599,39.643736,120 140.941243,39.644036,120 140.943732,39.645281,120 140.944934,39.645882,120 140.945492,39.646182,120 140.946350,39.646568,120 140.947852,39.646997,120 140.949740,39.644852,120 140.949225,39.644380,120 140.948710,39.643307,120 140.947895,39.641504,120 140.947423,39.640474,120 140.947251,39.639487,120 140.947208,39.639316,120 140.946994,39.637556,120 140.946951,39.637084,120 140.946565,39.635668,120 140.946522,39.635539,120 140.946565,39.635153,120 140.946951,39.634166,120 140.946994,39.633694,120 140.946951,39.633436,120 140.946779,39.632792,120 140.946736,39.632664,120 140.946651,39.632320,120 140.946436,39.632020,120 140.946178,39.631677,120 140.945706,39.631119,120 140.945578,39.630775,120 140.945706,39.630046,120 140.945921,39.629102,120 140.946136,39.628415,120 140.946221,39.628329,120 140.947337,39.626741,120 140.947380,39.626613,120 140.947895,39.625883,120 140.947981,39.624939,120 140.948067,39.624166,120 140.947809,39.623008,120 140.947766,39.622836,120 140.947852,39.621849,120 140.947123,39.620991,120 140.946393,39.620132,120 140.944719,39.616356,120 140.944376,39.615068,120 140.944118,39.614038,120 140.944033,39.613352,120 140.944033,39.612708,120 140.943947,39.612322,120 140.943561,39.611893,120 140.943260,39.611721,120 140.942016,39.611249,120 140.936136,39.608588,120 140.935235,39.608202,120 140.934677,39.608030,120 140.933347,39.607944,120 140.932617,39.607773,120 140.932059,39.607515,120 140.931544,39.606872,120 140.931373,39.606442,120 140.931373,39.605927,120 140.931373,39.605026,120 140.930943,39.604297,120 140.929055,39.602408,120 140.927167,39.600992,120 140.925407,39.599447,120 140.924635,39.598761,120 140.923820,39.597473,120 140.923605,39.597301,120 140.922961,39.596958,120 140.922360,39.596658,120 140.920601,39.595370,120 140.920000,39.594855,120 140.919914,39.594812,120 140.919099,39.593740,120 140.917253,39.592667,120 140.916095,39.592023,120 140.915194,39.591122,120 140.914507,39.590392,120 140.914421,39.590306,120 140.913477,39.589233,120 140.913348,39.589062,120 140.912919,39.588332,120 140.912747,39.588032,120 140.912619,39.587817,120 140.911717,39.586143,120 140.911374,39.585328,120 140.911245,39.584470,120 140.911288,39.583697,120 140.911632,39.582496,120 140.911717,39.581938,120 140.911674,39.581466,120 140.911546,39.581079,120 140.910258,39.579191,120 140.909185,39.577346,120 140.908842,39.576960,120 140.908370,39.576745,120 140.907855,39.576573,120 140.905409,39.576573,120 140.903263,39.576359,120 140.902576,39.576187,120 140.900774,39.575415,120 140.899358,39.574342,120 140.898328,39.573827,120 140.898113,39.573741,120 140.896225,39.573483,120 140.893908,39.573612,120 140.893521,39.573698,120 140.892963,39.573913,120 140.892277,39.574428,120 140.891762,39.574685,120 140.889788,39.575071,120 140.887985,39.575286,120 140.887299,39.575372,120 140.886912,39.575458,120 140.886655,39.575586,120 140.885539,39.576273,120 140.884767,39.576530,120 140.884423,39.576573,120 140.882106,39.576488,120 140.880132,39.576702,120 140.879359,39.576659,120 140.875669,39.575415,120 140.874896,39.575243,120 140.873523,39.574986,120 140.871506,39.574642,120 140.871377,39.574642,120 140.869360,39.574728,120 140.868244,39.574513,120 140.867987,39.574428,120 140.866871,39.573956,120 140.865798,39.573355,120 140.865026,39.572625,120 140.863481,39.570565,120 140.863008,39.570007,120 140.862150,39.569192,120 140.858459,39.566445,120 140.853224,39.562626,120 140.852151,39.561768,120 140.850992,39.560609,120 140.850778,39.560394,120 140.847602,39.557219,120 140.846400,39.555502,120 140.845156,39.553614,120 140.844641,39.552541,120 140.843782,39.550524,120 140.843182,39.548979,120 140.843053,39.548550,120 140.842452,39.547005,120 140.842109,39.546447,120 140.839276,39.543529,120 140.837946,39.541726,120 140.837774,39.541554,120 140.834899,39.537606,120 140.834684,39.537306,120 140.833654,39.536018,120 140.833483,39.535761,120 140.833654,39.534345,120 140.833697,39.533701,120 140.833225,39.532285,120 140.832710,39.529839,120 140.832281,39.529238,120 140.828676,39.525247,120 140.828032,39.524517,120 140.827646,39.524045,120 140.827560,39.523830,120 140.827518,39.523530,120 140.827689,39.522157,120 140.827990,39.521255,120 140.828462,39.520140,120 140.829320,39.517951,120 140.829449,39.517264,120 140.829620,39.516363,120 140.829620,39.515805,120 140.829492,39.515333,120 140.829148,39.514260,120 140.828934,39.513702,120 140.828848,39.513531,120 140.827904,39.512243,120 140.827861,39.512115,120 140.827818,39.511256,120 140.827818,39.510183,120 140.827861,39.509668,120 140.827861,39.508982,120 140.827003,39.507909,120 140.826230,39.507136,120 140.824986,39.506278,120 140.824471,39.505935,120 140.823913,39.505591,120 140.822668,39.504604,120 140.821981,39.504261,120 140.821466,39.504004,120 140.820951,39.503746,120 140.819879,39.502845,120 140.819020,39.502072,120 140.817690,39.500613,120 140.816703,39.499111,120 140.816231,39.498382,120 140.816016,39.497824,120 140.815673,39.496965,120 140.815330,39.496408,120 140.814900,39.495893,120 140.814042,39.495249,120 140.813742,39.494948,120 140.813484,39.494605,120 140.813313,39.494348,120 140.812926,39.493704,120 140.812883,39.493618,120 140.812497,39.493060,120 140.811682,39.491773,120 140.811381,39.491301,120 140.811253,39.491129,120 140.810823,39.490743,120 140.810480,39.490442,120 140.809622,39.489756,120 140.809321,39.489498,120 140.808764,39.489069,120 140.808721,39.489026,120 140.807648,39.488425,120 140.807176,39.488125,120 140.806746,39.487653,120 140.806231,39.486794,120 140.806189,39.486666,120 140.805717,39.485765,120 140.805116,39.484777,120 140.804687,39.484091,120 140.804515,39.483790,120 140.803914,39.482889,120 140.803485,39.482245,120 140.803270,39.482031,120 140.803528,39.481902,120 140.805373,39.482117,120 140.805845,39.482160,120 140.806146,39.482117,120 140.807261,39.481301,120 140.807476,39.481301,120 140.808935,39.482288,120 140.810051,39.483361,120 140.810394,39.483747,120 140.810952,39.484820,120 140.811210,39.484906,120 140.811547,39.484948,120 140.811549,39.484942,120 140.811547,39.484948,120 140.811210,39.484906,120 140.810952,39.484820,120 140.810394,39.483747,120 140.810051,39.483361,120 140.808935,39.482288,120 140.807476,39.481301,120 140.807261,39.481301,120 140.806146,39.482117,120 140.805845,39.482160,120 140.805373,39.482117,120 140.803528,39.481902,120 140.803270,39.482031,120 140.803185,39.481945,120 140.802841,39.481816,120 140.802112,39.481730,120 140.800824,39.481602,120 140.800610,39.481602,120 140.799537,39.481430,120 140.797305,39.480529,120 140.795460,39.479756,120 140.794344,39.479284,120 140.793700,39.479027,120 140.793142,39.478726,120 140.793014,39.478641,120 140.792198,39.478168,120 140.791984,39.478040,120 140.791554,39.477739,120 140.790396,39.476624,120 140.790095,39.476452,120 140.789495,39.476280,120 140.788765,39.476194,120 140.786748,39.475894,120 140.786233,39.475722,120 140.785246,39.475121,120 140.783701,39.473920,120 140.783529,39.473791,120 140.782757,39.473147,120 140.782027,39.472589,120 140.781770,39.472160,120 140.781641,39.469886,120 140.781169,39.469070,120 140.780568,39.468298,120 140.780182,39.467783,120 140.780010,39.467525,120 140.779710,39.467096,120 140.779538,39.466882,120 140.778465,39.465380,120 140.777521,39.464049,120 140.776105,39.462075,120 140.775933,39.461818,120 140.775719,39.461474,120 140.775032,39.460530,120 140.774817,39.460316,120 140.774431,39.460058,120 140.773230,39.459286,120 140.773058,39.459157,120 140.772758,39.458899,120 140.771513,39.457011,120 140.770268,39.455895,120 140.768380,39.454136,120 140.766664,39.452720,120 140.766578,39.452634,120 140.765977,39.452033,120 140.765376,39.451132,120 140.765033,39.450788,120 140.764818,39.450574,120 140.764432,39.450231,120 140.763960,39.449801,120 140.763144,39.449072,120 140.763059,39.448986,120 140.761728,39.447784,120 140.759754,39.446368,120 140.757866,39.445081,120 140.757222,39.444652,120 140.757051,39.444523,120 140.756536,39.444180,120 140.756106,39.443836,120 140.755634,39.443450,120 140.754561,39.442377,120 140.753360,39.441004,120 140.752373,39.439845,120 140.752158,39.439201,120 140.751815,39.437742,120 140.751686,39.437270,120 140.751514,39.436626,120 140.751214,39.434652,120 140.751085,39.433794,120 140.750957,39.432936,120 140.750914,39.432678,120 140.750828,39.432120,120 140.750785,39.431605,120 140.750699,39.430919,120 140.750656,39.430404,120 140.750613,39.430275,120 140.750527,39.429374,120 140.750484,39.429116,120 140.750270,39.428301,120 140.749626,39.427614,120 140.748596,39.426670,120 140.747738,39.425898,120 140.747094,39.425168,120 140.746579,39.424567,120 140.746536,39.424524,120 140.746279,39.424267,120 140.745807,39.423709,120 140.745335,39.423151,120 140.745120,39.422765,120 140.745077,39.422464,120 140.745163,39.421735,120 140.745292,39.421391,120 140.745463,39.420962,120 140.745592,39.420662,120 140.746150,39.419503,120 140.746450,39.418902,120 140.746536,39.418731,120 140.746579,39.418559,120 140.747137,39.417443,120 140.747223,39.417315,120 140.747695,39.416113,120 140.747824,39.415727,120 140.748038,39.415083,120 140.748081,39.414868,120 140.748210,39.414611,120 140.748682,39.413109,120 140.748768,39.412851,120 140.748940,39.412379,120 140.749154,39.411650,120 140.749369,39.410877,120 140.749798,39.410276,120 140.750184,39.409804,120 140.750527,39.409375,120 140.750871,39.408903,120 140.751643,39.407616,120 140.752072,39.407015,120 140.752416,39.406457,120 140.753531,39.404655,120 140.754561,39.402981,120 140.754561,39.402938,120 140.754991,39.402208,120 140.755076,39.402080,120 140.755548,39.401135,120 140.755677,39.400921,120 140.755978,39.400363,120 140.756063,39.400234,120 140.756106,39.400105,120 140.756321,39.399419,120 140.756536,39.398603,120 140.756707,39.398174,120 140.756750,39.398003,120 140.756922,39.397402,120 140.757136,39.396715,120 140.757351,39.395943,120 140.757608,39.395127,120 140.757952,39.394097,120 140.757995,39.393883,120 140.758166,39.393368,120 140.758681,39.391608,120 140.758681,39.391308,120 140.758381,39.390750,120 140.758338,39.390621,120 140.758123,39.390192,120 140.758080,39.389548,120 140.758123,39.388819,120 140.758123,39.388776,120 140.758166,39.387746,120 140.758166,39.387360,120 140.758166,39.387145,120 140.758166,39.386930,120 140.758209,39.385643,120 140.758252,39.385085,120 140.758295,39.384441,120 140.758295,39.384356,120 140.758510,39.383111,120 140.758595,39.382811,120 140.758896,39.382038,120 140.758982,39.381781,120 140.759325,39.380922,120 140.759497,39.380193,120 140.759711,39.378991,120 140.759926,39.377789,120 140.759926,39.377661,120 140.760140,39.376330,120 140.760312,39.374957,120 140.760441,39.374013,120 140.760612,39.372511,120 140.760612,39.372468,120 140.760741,39.371395,120 140.760913,39.370193,120 140.760913,39.370108,120 140.761170,39.368005,120 140.761213,39.367833,120 140.761471,39.365902,120 140.761943,39.364014,120 140.762329,39.362597,120 140.762458,39.361997,120 140.762672,39.361053,120 140.762587,39.360623,120 140.761857,39.359593,120 140.761514,39.358821,120 140.761428,39.358177,120 140.761514,39.357705,120 140.761642,39.357362,120 140.763488,39.352512,120 140.763531,39.352341,120 140.763745,39.351869,120 140.764003,39.351439,120 140.764303,39.351010,120 140.764904,39.350152,120 140.765548,39.348993,120 140.766234,39.347620,120 140.766363,39.346848,120 140.766320,39.346118,120 140.765634,39.345903,120 140.764389,39.345603,120 140.762844,39.344959,120 140.762587,39.344745,120 140.761685,39.343500,120 140.761085,39.342556,120 140.760484,39.341998,120 140.760098,39.341655,120 140.758295,39.339981,120 140.756750,39.338264,120 140.755334,39.336548,120 140.755033,39.336162,120 140.754046,39.334788,120 140.753832,39.334102,120 140.753961,39.333415,120 140.754561,39.331784,120 140.754604,39.331183,120 140.753703,39.329295,120 140.751171,39.324918,120 140.750957,39.324274,120 140.750957,39.323416,120 140.751128,39.322600,120 140.751600,39.321785,120 140.752029,39.321270,120 140.754261,39.319339,120 140.754862,39.318523,120 140.755291,39.317880,120 140.755634,39.317193,120 140.755892,39.316764,120 140.756021,39.316549,120 140.756278,39.315991,120 140.756321,39.315519,120 140.755935,39.314618,120 140.756450,39.314361,120 140.757093,39.313931,120 140.757230,39.313794,120 140.757250,39.313806,120 140.757230,39.313794,120 140.757093,39.313931,120 140.756450,39.314361,120 140.755935,39.314618,120 140.755677,39.314661,120 140.755033,39.314833,120 140.754218,39.314876,120 140.753188,39.314833,120 140.751815,39.314661,120 140.751214,39.314404,120 140.750828,39.314017,120 140.750613,39.313631,120 140.750356,39.312773,120 140.750141,39.312301,120 140.749798,39.311872,120 140.749540,39.311657,120 140.748725,39.311142,120 140.748253,39.310842,120 140.747910,39.311185,120 140.747781,39.311571,120 140.747781,39.311743,120 140.747867,39.312215,120 140.747781,39.312687,120 140.747566,39.312859,120 140.747352,39.312901,120 140.747008,39.312816,120 140.746536,39.312429,120 140.744777,39.310970,120 140.743661,39.310112,120 140.742459,39.309382,120 140.741258,39.308782,120 140.740614,39.308524,120 140.739756,39.308224,120 140.738468,39.307880,120 140.737352,39.307666,120 140.735078,39.307451,120 140.733662,39.307323,120 140.731645,39.307108,120 140.730228,39.306765,120 140.729327,39.306421,120 140.728297,39.305992,120 140.727439,39.305477,120 140.726624,39.304833,120 140.725808,39.304018,120 140.725121,39.303074,120 140.724735,39.302258,120 140.724392,39.301229,120 140.724177,39.299555,120 140.724134,39.299040,120 140.723920,39.298139,120 140.723448,39.296894,120 140.722761,39.295950,120 140.721903,39.295177,120 140.720830,39.294491,120 140.719929,39.294062,120 140.717053,39.293246,120 140.715766,39.292645,120 140.714779,39.291959,120 140.714264,39.291487,120 140.713835,39.290972,120 140.713491,39.290457,120 140.712976,39.289470,120 140.711775,39.286380,120 140.711432,39.285650,120 140.710959,39.284835,120 140.710444,39.284062,120 140.709629,39.283161,120 140.708513,39.282088,120 140.707655,39.281445,120 140.706153,39.280500,120 140.704651,39.279728,120 140.703707,39.279342,120 140.702419,39.278913,120 140.701046,39.278569,120 140.700660,39.278483,120 140.700016,39.278355,120 140.699501,39.278269,120 140.698042,39.278011,120 140.691690,39.277368,120 140.687313,39.276896,120 140.674438,39.275565,120 140.671263,39.275050,120 140.668259,39.274449,120 140.664954,39.273548,120 140.663109,39.272947,120 140.659761,39.271746,120 140.658603,39.271317,120 140.657916,39.271102,120 140.655427,39.270372,120 140.654225,39.270072,120 140.652637,39.269772,120 140.651479,39.269600,120 140.646243,39.269042,120 140.643024,39.268527,120 140.642338,39.268484,120 140.640965,39.268441,120 140.639806,39.268484,120 140.638261,39.268699,120 140.637016,39.268999,120 140.636201,39.269257,120 140.635557,39.269514,120 140.633841,39.270115,120 140.632253,39.270587,120 140.622511,39.273376,120 140.621524,39.273677,120 140.618391,39.274707,120 140.617275,39.275136,120 140.615344,39.275994,120 140.613842,39.276767,120 140.612168,39.277711,120 140.610881,39.278569,120 140.609336,39.279728,120 140.608735,39.280286,120 140.606203,39.282732,120 140.604315,39.284191,120 140.603242,39.284878,120 140.602427,39.285264,120 140.601740,39.285607,120 140.600538,39.286079,120 140.598607,39.286637,120 140.596247,39.287066,120 140.593243,39.287324,120 140.590110,39.287367,120 140.587363,39.287238,120 140.585132,39.286981,120 140.583415,39.286680,120 140.580368,39.285951,120 140.578523,39.285393,120 140.576205,39.284663,120 140.568910,39.282432,120 140.566506,39.281831,120 140.564876,39.281530,120 140.564404,39.281445,120 140.560112,39.280672,120 140.558224,39.280372,120 140.554490,39.279814,120 140.550284,39.279342,120 140.548911,39.279213,120 140.548396,39.279041,120 140.548096,39.278827,120 140.547709,39.278269,120 140.547323,39.278054,120 140.546980,39.278054,120 140.546551,39.278226,120 140.546379,39.278355,120 140.546293,39.278827,120 140.546379,39.279599,120 140.546722,39.280372,120 140.547323,39.281015,120 140.547924,39.281487,120 140.548224,39.281874,120 140.548267,39.282131,120 140.548182,39.282389,120 140.547881,39.282560,120 140.547624,39.282603,120 140.547323,39.282560,120 140.546594,39.282002,120 140.545177,39.280372,120 140.544705,39.279728,120 140.544019,39.278398,120 140.543633,39.277582,120 140.542259,39.273033,120 140.541744,39.271960,120 140.541487,39.271445,120 140.535779,39.262390,120 140.535479,39.261832,120 140.535350,39.261661,120 140.531917,39.256210,120 140.531144,39.254622,120 140.530500,39.252863,120 140.530457,39.252734,120 140.530329,39.252348,120 140.528784,39.248528,120 140.528226,39.247241,120 140.527067,39.245138,120 140.525351,39.242392,120 140.525093,39.241877,120 140.522561,39.237671,120 140.521960,39.236469,120 140.521746,39.235868,120 140.521746,39.235654,120 140.521832,39.235482,120 140.522003,39.235353,120 140.523076,39.234796,120 140.523548,39.234667,120 140.525179,39.234023,120 140.526123,39.233508,120 140.525436,39.232821,120 140.524793,39.232006,120 140.524492,39.231577,120 140.524278,39.231234,120 140.523849,39.230504,120 140.523591,39.230118,120 140.523462,39.229903,120 140.523248,39.229560,120 140.522561,39.228745,120 140.521874,39.227972,120 140.521145,39.227200,120 140.520072,39.226041,120 140.519300,39.225225,120 140.518827,39.224753,120 140.518527,39.224367,120 140.517926,39.223723,120 140.517540,39.223080,120 140.517325,39.222693,120 140.516853,39.221320,120 140.516596,39.220462,120 140.515952,39.218574,120 140.516553,39.218359,120 140.517111,39.218230,120 140.518613,39.217758,120 140.519686,39.217286,120 140.524278,39.215441,120 140.525651,39.214797,120 140.526338,39.214411,120 140.526595,39.214239,120 140.526767,39.214110,120 140.527067,39.213896,120 140.528140,39.213037,120 140.528955,39.212265,120 140.529213,39.212008,120 140.529642,39.211493,120 140.530114,39.210849,120 140.530286,39.210591,120 140.531058,39.209347,120 140.531316,39.208918,120 140.532389,39.207115,120 140.533419,39.205399,120 140.533504,39.205313,120 140.533547,39.205227,120 140.533719,39.204969,120 140.534492,39.203682,120 140.535522,39.201965,120 140.536122,39.201107,120 140.536551,39.200764,120 140.537024,39.200549,120 140.537539,39.200377,120 140.538268,39.200335,120 140.539856,39.200463,120 140.541015,39.200592,120 140.541444,39.199648,120 140.541744,39.199219,120 140.542088,39.198833,120 140.542774,39.198318,120 140.544791,39.196944,120 140.545435,39.196558,120 140.546465,39.195828,120 140.546980,39.195442,120 140.547237,39.195013,120 140.547452,39.194670,120 140.547667,39.194369,120 140.549254,39.192181,120 140.549555,39.191794,120 140.549855,39.191451,120 140.550971,39.189949,120 140.551357,39.189091,120 140.551572,39.188318,120 140.551658,39.187846,120 140.551701,39.187632,120 140.552173,39.186687,120 140.552516,39.186172,120 140.552816,39.185700,120 140.553160,39.184799,120 140.553460,39.183984,120 140.553675,39.183383,120 140.553932,39.182739,120 140.554061,39.182482,120 140.554190,39.182224,120 140.554276,39.181967,120 140.554490,39.180422,120 140.554533,39.180379,120 140.554576,39.179649,120 140.554619,39.179435,120 140.555048,39.177504,120 140.555091,39.176946,120 140.555220,39.176602,120 140.555606,39.175959,120 140.555649,39.175830,120 140.555863,39.175487,120 140.556035,39.174886,120 140.556250,39.174113,120 140.556507,39.173470,120 140.556679,39.173126,120 140.557194,39.172010,120 140.557280,39.171753,120 140.557880,39.170551,120 140.558352,39.169822,120 140.558653,39.169521,120 140.558867,39.169264,120 140.559640,39.168105,120 140.560327,39.166946,120 140.560713,39.166045,120 140.561013,39.165530,120 140.561099,39.165444,120 140.561442,39.165015,120 140.562000,39.164114,120 140.562644,39.162827,120 140.563674,39.161711,120 140.563760,39.161496,120 140.563803,39.160895,120 140.561914,39.160466,120 140.559554,39.159908,120 140.559468,39.159865,120 140.557494,39.159393,120 140.557151,39.159307,120 140.554447,39.158707,120 140.554318,39.158707,120 140.554533,39.158192,120 140.555091,39.158106,120 140.555434,39.157805,120 140.556164,39.155703,120 140.556550,39.155231,120 140.557365,39.154286,120 140.558481,39.152527,120 140.559297,39.151111,120 140.559468,39.150810,120 140.559897,39.149737,120 140.560026,39.149094,120 140.560026,39.148407,120 140.560241,39.146862,120 140.560327,39.144931,120 140.560842,39.143772,120 140.561399,39.142613,120 140.562043,39.141455,120 140.563502,39.138794,120 140.563931,39.137936,120 140.564232,39.137378,120 140.564833,39.135103,120 140.565090,39.134331,120 140.565476,39.133601,120 140.566163,39.131970,120 140.566635,39.130640,120 140.566978,39.128752,120 140.567322,39.127164,120 140.567579,39.126177,120 140.568223,39.124160,120 140.568738,39.122400,120 140.569038,39.121585,120 140.569081,39.121370,120 140.569124,39.121199,120 140.569167,39.121070,120 140.569468,39.120212,120 140.569725,39.119654,120 140.570669,39.118195,120 140.570927,39.117808,120 140.571227,39.117293,120 140.571785,39.116693,120 140.573287,39.115491,120 140.574532,39.114590,120 140.574832,39.114461,120 140.575690,39.113817,120 140.576291,39.113216,120 140.576334,39.113131,120 140.576763,39.112530,120 140.577321,39.111414,120 140.577536,39.110599,120 140.577579,39.109783,120 140.577364,39.109011,120 140.577149,39.108582,120 140.576205,39.107294,120 140.575991,39.106736,120 140.575862,39.106736,120 140.574317,39.106994,120 140.573545,39.105706,120 140.573072,39.105020,120 140.571914,39.103432,120 140.571184,39.102616,120 140.570927,39.102101,120 140.570583,39.100857,120 140.570626,39.100513,120 140.571184,39.099097,120 140.572300,39.096050,120 140.573373,39.093304,120 140.573630,39.092574,120 140.575562,39.093003,120 140.575991,39.092875,120 140.576205,39.092703,120 140.576377,39.092317,120 140.576720,39.091587,120 140.577021,39.091372,120 140.577450,39.091244,120 140.577321,39.090643,120 140.577321,39.090214,120 140.577579,39.089570,120 140.577965,39.089098,120 140.578094,39.089012,120 140.578222,39.088840,120 140.579295,39.088240,120 140.579853,39.087811,120 140.580153,39.087338,120 140.580454,39.086394,120 140.580540,39.086180,120 140.580668,39.085836,120 140.581012,39.085407,120 140.581870,39.084892,120 140.582428,39.084377,120 140.582600,39.083948,120 140.582685,39.083133,120 140.582857,39.082274,120 140.583243,39.081759,120 140.583286,39.081717,120 140.585217,39.079528,120 140.586033,39.078584,120 140.586462,39.078069,120 140.586591,39.077682,120 140.586720,39.077039,120 140.586934,39.076095,120 140.587063,39.075108,120 140.587192,39.073949,120 140.587106,39.073606,120 140.586419,39.072790,120 140.586376,39.072618,120 140.585990,39.070559,120 140.585904,39.069700,120 140.585861,39.068713,120 140.586076,39.068456,120 140.586591,39.068155,120 140.586848,39.068027,120 140.587277,39.067683,120 140.587921,39.066739,120 140.588179,39.066396,120 140.589037,39.065881,120 140.589380,39.065709,120 140.589938,39.065537,120 140.590582,39.065366,120 140.591955,39.064422,120 140.592127,39.064207,120 140.592599,39.063349,120 140.592728,39.063134,120 140.592899,39.062877,120 140.593286,39.062319,120 140.593328,39.062233,120 140.594015,39.061632,120 140.594273,39.061503,120 140.595174,39.061074,120 140.595260,39.061031,120 140.595560,39.060946,120 140.596633,39.060774,120 140.597448,39.060860,120 140.598092,39.060903,120 140.598993,39.060731,120 140.599122,39.060731,120 140.599852,39.060516,120 140.600023,39.060473,120 140.601525,39.059916,120 140.602255,39.059744,120 140.602384,39.059701,120 140.603414,39.059529,120 140.604014,39.059572,120 140.604572,39.059830,120 140.605388,39.059916,120 140.605817,39.059873,120 140.605989,39.059787,120 140.606289,39.059572,120 140.607061,39.058886,120 140.607705,39.058328,120 140.608134,39.057555,120 140.608392,39.057040,120 140.608778,39.056826,120 140.609636,39.056525,120 140.610452,39.056311,120 140.610709,39.056268,120 140.611053,39.056182,120 140.611653,39.056053,120 140.612125,39.055882,120 140.613370,39.055409,120 140.613885,39.055324,120 140.614786,39.055409,120 140.615215,39.055538,120 140.616117,39.055667,120 140.618606,39.055495,120 140.620279,39.055109,120 140.621567,39.055066,120 140.621696,39.055066,120 140.622339,39.055023,120 140.623198,39.054680,120 140.623412,39.054594,120 140.623970,39.054379,120 140.624571,39.054036,120 140.625730,39.052663,120 140.626202,39.052062,120 140.626202,39.051547,120 140.626159,39.051118,120 140.626159,39.050732,120 140.626159,39.050646,120 140.626373,39.050217,120 140.626760,39.049659,120 140.627189,39.049273,120 140.628090,39.048672,120 140.628605,39.048285,120 140.629034,39.047899,120 140.629077,39.047513,120 140.628991,39.047256,120 140.628433,39.046655,120 140.628262,39.045711,120 140.628219,39.045024,120 140.628219,39.044294,120 140.628476,39.043822,120 140.628948,39.043007,120 140.628948,39.042535,120 140.628519,39.041677,120 140.628519,39.041462,120 140.628562,39.041333,120 140.629506,39.040475,120 140.629764,39.040217,120 140.630150,39.039874,120 140.630407,39.039531,120 140.630965,39.038630,120 140.631824,39.037685,120 140.633025,39.036484,120 140.634012,39.035282,120 140.634313,39.035068,120 140.637918,39.033093,120 140.638046,39.033008,120 140.638304,39.032879,120 140.639462,39.032278,120 140.639977,39.031978,120 140.640278,39.031849,120 140.640836,39.031506,120 140.641308,39.030991,120 140.642424,39.028845,120 140.642638,39.028416,120 140.642638,39.028373,120 140.642896,39.027858,120 140.643539,39.026613,120 140.644398,39.025626,120 140.644569,39.025455,120 140.645299,39.024897,120 140.647488,39.023137,120 140.647831,39.022923,120 140.648475,39.022622,120 140.649376,39.022193,120 140.649934,39.021807,120 140.650921,39.020905,120 140.651822,39.020176,120 140.651951,39.020047,120 140.652294,39.019790,120 140.653281,39.019060,120 140.655041,39.017687,120 140.655942,39.016871,120 140.657229,39.015627,120 140.657401,39.015455,120 140.658216,39.014812,120 140.659032,39.014382,120 140.659289,39.014082,120 140.659719,39.013181,120 140.659719,39.012666,120 140.659719,39.012280,120 140.659976,39.011807,120 140.660491,39.010906,120 140.660534,39.010434,120 140.660362,39.009919,120 140.660534,39.009533,120 140.661006,39.008932,120 140.661178,39.008632,120 140.661306,39.007902,120 140.661521,39.007173,120 140.662165,39.006572,120 140.662637,39.006314,120 140.662851,39.006271,120 140.663495,39.006228,120 140.663924,39.006143,120 140.664525,39.005756,120 140.664825,39.005628,120 140.665555,39.005413,120 140.665941,39.005241,120 140.666454,39.004612,120 140.666494,39.004632,120 140.666454,39.004612,120 140.667272,39.003611,120 140.668430,39.002881,120 140.668988,39.002495,120 140.670362,39.000907,120 140.670877,39.000306,120 140.671477,38.999705,120 140.672121,38.999319,120 140.673494,38.998590,120 140.673752,38.998246,120 140.674181,38.997388,120 140.674567,38.996658,120 140.674825,38.996272,120 140.675426,38.995628,120 140.675855,38.995328,120 140.676370,38.995285,120 140.676842,38.995199,120 140.677915,38.994212,120 140.678945,38.993783,120 140.679288,38.993783,120 140.680146,38.994040,120 140.681262,38.994126,120 140.681477,38.994169,120 140.682249,38.993955,120 140.682421,38.993912,120 140.683322,38.993611,120 140.684094,38.993354,120 140.684910,38.993096,120 140.685167,38.992968,120 140.685296,38.992753,120 140.685596,38.991723,120 140.687442,38.990307,120 140.687785,38.989749,120 140.688000,38.989191,120 140.688343,38.988290,120 140.688643,38.987560,120 140.689030,38.987045,120 140.689073,38.986959,120 140.689974,38.985715,120 140.691261,38.984041,120 140.692420,38.982754,120 140.693450,38.981595,120 140.693793,38.981380,120 140.694094,38.981380,120 140.694351,38.981423,120 140.694566,38.981552,120 140.694695,38.981724,120 140.694737,38.982024,120 140.694437,38.982925,120 140.694137,38.983827,120 140.693879,38.984642,120 140.692892,38.986917,120 140.692978,38.987303,120 140.693150,38.987432,120 140.693536,38.987517,120 140.694952,38.987346,120 140.695338,38.987217,120 140.695810,38.986917,120 140.696754,38.985887,120 140.697055,38.985672,120 140.698643,38.984985,120 140.699244,38.984857,120 140.699587,38.984900,120 140.700016,38.985028,120 140.700359,38.985157,120 140.700703,38.985200,120 140.701046,38.985157,120 140.701346,38.985028,120 140.701604,38.984857,120 140.702291,38.984127,120 140.702934,38.983440,120 140.703063,38.983355,120 140.703449,38.983269,120 140.703621,38.983269,120 140.703921,38.983397,120 140.704136,38.983698,120 140.704136,38.983912,120 140.703964,38.984170,120 140.703449,38.984642,120 140.703406,38.984942,120 140.703578,38.985243,120 140.703750,38.985329,120 140.704007,38.985415,120 140.704393,38.985329,120 140.707483,38.983483,120 140.708084,38.983226,120 140.708470,38.983226,120 140.708814,38.983269,120 140.709329,38.983440,120 140.709929,38.984041,120 140.711174,38.985672,120 140.712461,38.987904,120 140.712676,38.988032,120 140.712934,38.988161,120 140.713277,38.988161,120 140.713620,38.988032,120 140.713921,38.987818,120 140.714006,38.987646,120 140.714006,38.987389,120 140.713792,38.986874,120 140.713706,38.986745,120 140.713148,38.985715,120 140.713105,38.985672,120 140.712247,38.984213,120 140.712118,38.984041,120 140.711818,38.983698,120 140.711260,38.983054,120 140.711174,38.982840,120 140.711174,38.982625,120 140.711260,38.982410,120 140.711517,38.982239,120 140.711861,38.982153,120 140.712204,38.982196,120 140.714521,38.982797,120 140.714865,38.982797,120 140.715036,38.982754,120 140.715423,38.982625,120 140.715551,38.982539,120 140.715723,38.982196,120 140.715723,38.981895,120 140.715680,38.981681,120 140.715466,38.981080,120 140.715122,38.980436,120 140.714779,38.980007,120 140.714092,38.979363,120 140.714006,38.979278,120 140.712805,38.978162,120 140.712633,38.978033,120 140.712333,38.977818,120 140.712075,38.977776,120 140.711346,38.978033,120 140.711088,38.978033,120 140.708556,38.977132,120 140.708427,38.977003,120 140.708385,38.976789,120 140.708427,38.976617,120 140.708556,38.976488,120 140.708771,38.976359,120 140.709887,38.976016,120 140.710187,38.975673,120 140.710187,38.975244,120 140.710101,38.974771,120 140.710015,38.973956,120 140.710101,38.973570,120 140.710273,38.973184,120 140.711560,38.971639,120 140.712976,38.970952,120 140.713105,38.970823,120 140.713105,38.970652,120 140.712805,38.970308,120 140.712762,38.970180,120 140.712805,38.970051,120 140.713105,38.969665,120 140.713148,38.969364,120 140.713062,38.969193,120 140.712333,38.968120,120 140.712290,38.967819,120 140.712419,38.967605,120 140.712633,38.967476,120 140.712848,38.967476,120 140.714779,38.967562,120 140.715036,38.967390,120 140.715165,38.967175,120 140.714993,38.966489,120 140.714436,38.965802,120 140.714221,38.965373,120 140.713792,38.963528,120 140.713792,38.963227,120 140.713878,38.962283,120 140.713363,38.961167,120 140.713277,38.960652,120 140.713620,38.959064,120 140.713577,38.958850,120 140.713406,38.958678,120 140.712590,38.958163,120 140.712118,38.957562,120 140.712075,38.957262,120 140.712204,38.957090,120 140.713792,38.956318,120 140.715079,38.956232,120 140.715466,38.956017,120 140.715723,38.955760,120 140.715809,38.955245,120 140.715594,38.954687,120 140.715637,38.954301,120 140.716023,38.953614,120 140.716925,38.952971,120 140.717053,38.952713,120 140.717182,38.952069,120 140.717268,38.951898,120 140.717955,38.951340,120 140.718212,38.951039,120 140.718298,38.950653,120 140.718169,38.949838,120 140.718341,38.949194,120 140.718555,38.948679,120 140.718555,38.948293,120 140.717568,38.946748,120 140.717440,38.946576,120 140.716710,38.946061,120 140.716453,38.945761,120 140.716410,38.945417,120 140.716581,38.944731,120 140.717053,38.942885,120 140.716882,38.941770,120 140.717010,38.941469,120 140.717225,38.941340,120 140.717525,38.941212,120 140.718513,38.941255,120 140.718856,38.941083,120 140.718985,38.940740,120 140.718555,38.940096,120 140.718555,38.939967,120 140.719113,38.939409,120 140.719156,38.939238,120 140.719285,38.937564,120 140.719585,38.937306,120 140.720229,38.937135,120 140.720401,38.937049,120 140.720572,38.936834,120 140.721002,38.936105,120 140.722032,38.935032,120 140.722761,38.934603,120 140.723233,38.934345,120 140.724649,38.933702,120 140.725894,38.933101,120 140.726237,38.932843,120 140.728254,38.930097,120 140.728426,38.929753,120 140.728040,38.929067,120 140.728083,38.928723,120 140.728812,38.927951,120 140.729198,38.926792,120 140.729456,38.926492,120 140.730186,38.925977,120 140.730271,38.925805,120 140.730271,38.925591,120 140.730186,38.925419,120 140.729370,38.924346,120 140.729370,38.924003,120 140.729585,38.923745,120 140.731215,38.922973,120 140.731430,38.922758,120 140.731430,38.922544,120 140.731044,38.921471,120 140.730915,38.920569,120 140.730143,38.920012,120 140.730057,38.919797,120 140.730100,38.919539,120 140.730100,38.919497,120 140.730357,38.918982,120 140.730443,38.918552,120 140.730615,38.917737,120 140.731173,38.917136,120 140.731258,38.916965,120 140.731258,38.916450,120 140.731516,38.915849,120 140.731473,38.915548,120 140.731215,38.915377,120 140.730958,38.915291,120 140.729842,38.915291,120 140.729499,38.915334,120 140.728941,38.915677,120 140.728683,38.915677,120 140.728340,38.915634,120 140.728083,38.915377,120 140.727997,38.915076,120 140.728083,38.914862,120 140.728383,38.914475,120 140.728726,38.914132,120 140.729756,38.913703,120 140.729971,38.913488,120 140.730100,38.913274,120 140.729971,38.912501,120 140.730228,38.912158,120 140.730486,38.912029,120 140.730700,38.911986,120 140.731044,38.912029,120 140.731859,38.912330,120 140.732245,38.912330,120 140.732503,38.912244,120 140.733747,38.911300,120 140.733833,38.911171,120 140.733790,38.910656,120 140.733833,38.910398,120 140.734177,38.909883,120 140.734692,38.909240,120 140.735593,38.908381,120 140.735893,38.908167,120 140.736151,38.907781,120 140.736322,38.906450,120 140.736194,38.906279,120 140.736065,38.906236,120 140.735250,38.906407,120 140.734949,38.906579,120 140.734477,38.906922,120 140.734177,38.906965,120 140.733705,38.906794,120 140.733147,38.906794,120 140.732889,38.906708,120 140.732074,38.906236,120 140.730572,38.906279,120 140.730443,38.906236,120 140.730357,38.906021,120 140.730615,38.905463,120 140.731001,38.905077,120 140.732675,38.903961,120 140.732760,38.903704,120 140.732546,38.902717,120 140.732632,38.902373,120 140.732846,38.902030,120 140.734262,38.901172,120 140.735593,38.900785,120 140.736494,38.900228,120 140.737352,38.899841,120 140.737567,38.899627,120 140.737610,38.899498,120 140.737524,38.899283,120 140.736837,38.898811,120 140.736752,38.898554,120 140.736752,38.898382,120 140.737052,38.897910,120 140.737181,38.897610,120 140.737095,38.897266,120 140.736837,38.896837,120 140.736752,38.896537,120 140.737267,38.894520,120 140.737138,38.894262,120 140.736666,38.893962,120 140.736537,38.893747,120 140.736494,38.893404,120 140.736666,38.893147,120 140.738082,38.891902,120 140.738339,38.891730,120 140.738468,38.891687,120 140.738683,38.891773,120 140.738726,38.891945,120 140.738211,38.892932,120 140.738211,38.893061,120 140.738425,38.893232,120 140.738640,38.893232,120 140.738769,38.893147,120 140.740271,38.891902,120 140.740399,38.891687,120 140.740442,38.890786,120 140.740657,38.890357,120 140.740957,38.890142,120 140.742416,38.889413,120 140.743232,38.888168,120 140.744863,38.886881,120 140.746322,38.886452,120 140.746536,38.886323,120 140.746794,38.885851,120 140.746665,38.885164,120 140.746751,38.883533,120 140.746536,38.882933,120 140.746150,38.882289,120 140.746107,38.881989,120 140.746236,38.881602,120 140.746536,38.881216,120 140.747223,38.880486,120 140.748467,38.879242,120 140.749240,38.878813,120 140.750656,38.878126,120 140.750999,38.877740,120 140.751514,38.876839,120 140.751987,38.876109,120 140.753660,38.875294,120 140.753961,38.875036,120 140.754175,38.874650,120 140.754261,38.873792,120 140.754347,38.873577,120 140.754776,38.873148,120 140.755720,38.871989,120 140.756450,38.871174,120 140.756621,38.870616,120 140.756707,38.869414,120 140.756922,38.869114,120 140.757308,38.868856,120 140.757523,38.868556,120 140.757523,38.868256,120 140.756879,38.867226,120 140.756922,38.867097,120 140.757008,38.867011,120 140.757222,38.867011,120 140.758553,38.867269,120 140.759668,38.867269,120 140.761299,38.866882,120 140.761600,38.866882,120 140.762029,38.867140,120 140.762372,38.867483,120 140.762973,38.867526,120 140.763659,38.867784,120 140.763788,38.867698,120 140.763617,38.866496,120 140.763617,38.866196,120 140.763702,38.866067,120 140.763960,38.865938,120 140.764561,38.865938,120 140.764990,38.865509,120 140.765848,38.865509,120 140.765977,38.865638,120 140.766020,38.865767,120 140.765977,38.866496,120 140.765676,38.867183,120 140.765719,38.867655,120 140.765891,38.867826,120 140.766406,38.868127,120 140.766706,38.868170,120 140.767007,38.868513,120 140.767264,38.868556,120 140.767694,38.868384,120 140.768723,38.867612,120 140.769496,38.866453,120 140.771470,38.865166,120 140.772371,38.864522,120 140.772371,38.864393,120 140.772114,38.864007,120 140.772114,38.863878,120 140.772371,38.863878,120 140.772715,38.864350,120 140.772886,38.864436,120 140.773058,38.864436,120 140.773058,38.864264,120 140.772758,38.864007,120 140.772586,38.863750,120 140.772629,38.863621,120 140.772800,38.863578,120 140.773315,38.864136,120 140.773573,38.864264,120 140.773745,38.864264,120 140.773745,38.864093,120 140.773401,38.863835,120 140.773144,38.863492,120 140.773144,38.863363,120 140.773315,38.863235,120 140.773444,38.863320,120 140.773787,38.863878,120 140.774174,38.864093,120 140.774517,38.864093,120 140.774732,38.863921,120 140.775204,38.863063,120 140.775290,38.862591,120 140.775461,38.862462,120 140.775633,38.862505,120 140.775762,38.862762,120 140.775847,38.863449,120 140.776019,38.863492,120 140.776191,38.863320,120 140.776062,38.862848,120 140.775890,38.862419,120 140.775976,38.862290,120 140.776105,38.862290,120 140.776405,38.862762,120 140.776663,38.862934,120 140.776877,38.862934,120 140.776963,38.862848,120 140.777349,38.862290,120 140.777607,38.861818,120 140.777822,38.860874,120 140.777693,38.860016,120 140.777736,38.859673,120 140.778337,38.858042,120 140.778637,38.857570,120 140.779195,38.857012,120 140.779881,38.856626,120 140.780182,38.856497,120 140.781169,38.855982,120 140.781555,38.855767,120 140.781770,38.855553,120 140.781941,38.855124,120 140.781898,38.854823,120 140.781727,38.854094,120 140.781341,38.853321,120 140.780654,38.852420,120 140.779881,38.851562,120 140.778508,38.850832,120 140.778251,38.850574,120 140.778079,38.850274,120 140.777693,38.848686,120 140.777822,38.847356,120 140.777435,38.846240,120 140.777349,38.844523,120 140.777435,38.844051,120 140.778251,38.842120,120 140.778637,38.841863,120 140.779495,38.841691,120 140.779881,38.841562,120 140.780268,38.841305,120 140.783143,38.838816,120 140.785718,38.836241,120 140.786104,38.835812,120 140.786705,38.834395,120 140.787907,38.833709,120 140.788164,38.833365,120 140.788207,38.833237,120 140.788379,38.832679,120 140.788679,38.832507,120 140.789666,38.832207,120 140.791168,38.831348,120 140.791597,38.830962,120 140.792112,38.830318,120 140.793185,38.828301,120 140.793443,38.828001,120 140.793915,38.826928,120 140.794473,38.826413,120 140.795288,38.825984,120 140.795975,38.825555,120 140.796618,38.824911,120 140.797348,38.823924,120 140.797863,38.823237,120 140.798635,38.822207,120 140.799065,38.821778,120 140.799966,38.821349,120 140.800781,38.821220,120 140.801554,38.821135,120 140.802155,38.821049,120 140.802884,38.820877,120 140.803313,38.820834,120 140.804214,38.820791,120 140.805244,38.820662,120 140.805674,38.820620,120 140.806618,38.820491,120 140.806704,38.820491,120 140.808163,38.820233,120 140.809193,38.819761,120 140.809922,38.819246,120 140.810695,38.818603,120 140.811253,38.817959,120 140.811424,38.817616,120 140.811510,38.817229,120 140.811510,38.816328,120 140.811596,38.815942,120 140.811982,38.815384,120 140.812497,38.814998,120 140.813227,38.814740,120 140.815072,38.814268,120 140.815673,38.813925,120 140.816145,38.813581,120 140.816402,38.813281,120 140.816703,38.812809,120 140.817218,38.811221,120 140.817561,38.810534,120 140.817947,38.809891,120 140.818977,38.808689,120 140.819407,38.808045,120 140.820050,38.806543,120 140.820651,38.805771,120 140.824041,38.802552,120 140.824685,38.802123,120 140.826144,38.801608,120 140.826573,38.801308,120 140.827003,38.800879,120 140.827775,38.799891,120 140.828462,38.799334,120 140.829062,38.798990,120 140.829792,38.798733,120 140.833955,38.797917,120 140.834641,38.797832,120 140.835028,38.797874,120 140.836272,38.798261,120 140.836358,38.798261,120 140.837216,38.798304,120 140.837903,38.798089,120 140.838504,38.797789,120 140.840607,38.796244,120 140.841894,38.795471,120 140.842752,38.794956,120 140.842967,38.794827,120 140.844215,38.794099,120 140.843924,38.793797,120 140.844215,38.794099,120 140.844512,38.793926,120 140.845413,38.793411,120 140.845757,38.793025,120 140.845928,38.792725,120 140.845971,38.792295,120 140.845885,38.791866,120 140.845542,38.791223,120 140.844641,38.789549,120 140.844598,38.789291,120 140.844598,38.789120,120 140.844641,38.788733,120 140.844855,38.788390,120 140.845156,38.787875,120 140.845799,38.787231,120 140.846100,38.786931,120 140.846314,38.786716,120 140.846529,38.786373,120 140.846658,38.785729,120 140.846701,38.785601,120 140.846829,38.785300,120 140.847473,38.784742,120 140.847645,38.784442,120 140.848031,38.784227,120 140.848331,38.783927,120 140.848546,38.783841,120 140.849276,38.783669,120 140.849619,38.783498,120 140.851378,38.781266,120 140.851464,38.780880,120 140.851207,38.778992,120 140.851507,38.778605,120 140.852108,38.778133,120 140.852323,38.778048,120 140.853653,38.777533,120 140.853910,38.777318,120 140.854511,38.776760,120 140.855241,38.776331,120 140.855799,38.776073,120 140.856786,38.775644,120 140.857258,38.775473,120 140.858030,38.775387,120 140.858631,38.775473,120 140.859361,38.775644,120 140.860219,38.775687,120 140.860863,38.775516,120 140.861335,38.775301,120 140.861549,38.775129,120 140.861979,38.774657,120 140.862322,38.773799,120 140.862837,38.773241,120 140.863266,38.772855,120 140.863566,38.772554,120 140.863824,38.772168,120 140.863910,38.771739,120 140.863910,38.771267,120 140.863738,38.770709,120 140.863180,38.769422,120 140.862880,38.768220,120 140.862794,38.767877,120 140.862794,38.767405,120 140.863051,38.766761,120 140.862107,38.766332,120 140.861464,38.766203,120 140.860219,38.766117,120 140.859404,38.765945,120 140.857902,38.765559,120 140.857215,38.765430,120 140.856571,38.765430,120 140.856442,38.765430,120 140.855756,38.765473,120 140.854640,38.765559,120 140.852709,38.765774,120 140.852537,38.765774,120 140.852194,38.765860,120 140.851765,38.765945,120 140.851293,38.766074,120 140.850477,38.766289,120 140.849919,38.766375,120 140.849190,38.766332,120 140.848761,38.766246,120 140.848289,38.766289,120 140.847430,38.766503,120 140.845757,38.767018,120 140.844469,38.767705,120 140.843654,38.768134,120 140.842752,38.768349,120 140.842066,38.768477,120 140.840950,38.768735,120 140.840306,38.768864,120 140.838504,38.769250,120 140.837216,38.769336,120 140.833912,38.770065,120 140.832710,38.770452,120 140.832152,38.770537,120 140.830607,38.770494,120 140.828419,38.769336,120 140.827904,38.769336,120 140.827003,38.769507,120 140.826573,38.768735,120 140.826917,38.768005,120 140.826874,38.767791,120 140.826659,38.767576,120 140.825758,38.766932,120 140.825372,38.766160,120 140.825157,38.766031,120 140.824685,38.765860,120 140.824127,38.765259,120 140.823741,38.764658,120 140.823612,38.764358,120 140.823312,38.764014,120 140.823140,38.763885,120 140.822840,38.763757,120 140.821810,38.763199,120 140.820179,38.762341,120 140.820007,38.762298,120 140.819750,38.762298,120 140.819321,38.762469,120 140.818591,38.762298,120 140.817947,38.762383,120 140.817862,38.762341,120 140.817904,38.762126,120 140.817690,38.761997,120 140.817261,38.761997,120 140.816746,38.761826,120 140.816274,38.761868,120 140.815759,38.761826,120 140.814600,38.761311,120 140.813441,38.761225,120 140.813355,38.761053,120 140.813699,38.760452,120 140.813613,38.760281,120 140.812368,38.759680,120 140.811167,38.759508,120 140.810308,38.758907,120 140.809364,38.758650,120 140.808935,38.758264,120 140.808592,38.757620,120 140.808506,38.757577,120 140.808077,38.757577,120 140.806231,38.757577,120 140.805931,38.757491,120 140.805759,38.757362,120 140.805373,38.756804,120 140.804858,38.756332,120 140.804000,38.755646,120 140.803957,38.755474,120 140.804043,38.755088,120 140.803957,38.754873,120 140.803571,38.754230,120 140.802670,38.752899,120 140.802455,38.752599,120 140.801983,38.751912,120 140.801425,38.751097,120 140.800567,38.750024,120 140.800352,38.749595,120 140.800052,38.748994,120 140.799923,38.748565,120 140.799837,38.748479,120 140.799751,38.748307,120 140.799580,38.747835,120 140.799537,38.747449,120 140.799537,38.746848,120 140.799065,38.746419,120 140.798335,38.746161,120 140.797262,38.745518,120 140.796747,38.745346,120 140.796447,38.745346,120 140.795975,38.745561,120 140.795503,38.746204,120 140.794687,38.746676,120 140.794301,38.747320,120 140.794086,38.747363,120 140.793829,38.747277,120 140.793743,38.747063,120 140.794258,38.746419,120 140.794773,38.745432,120 140.794859,38.744617,120 140.794730,38.744316,120 140.794086,38.743544,120 140.793829,38.743114,120 140.793486,38.742085,120 140.793400,38.740883,120 140.793185,38.740625,120 140.792284,38.740153,120 140.791898,38.740110,120 140.789752,38.740153,120 140.788379,38.740497,120 140.786834,38.740368,120 140.786362,38.740368,120 140.784001,38.740840,120 140.782714,38.740969,120 140.782328,38.740969,120 140.780697,38.740926,120 140.780354,38.740926,120 140.779409,38.740883,120 140.778337,38.740668,120 140.777435,38.740196,120 140.776963,38.739810,120 140.775890,38.738308,120 140.774903,38.736806,120 140.774646,38.736463,120 140.774174,38.735690,120 140.774131,38.735604,120 140.774045,38.735518,120 140.773959,38.735347,120 140.773830,38.735175,120 140.773273,38.734274,120 140.773187,38.734188,120 140.772972,38.733845,120 140.772886,38.733716,120 140.772371,38.733845,120 140.769196,38.734531,120 140.767694,38.734961,120 140.765505,38.735690,120 140.764260,38.735948,120 140.763316,38.735905,120 140.762286,38.735690,120 140.761428,38.735261,120 140.760012,38.734274,120 140.759196,38.733759,120 140.758681,38.733501,120 140.758038,38.733330,120 140.756879,38.733158,120 140.755892,38.733158,120 140.754733,38.733416,120 140.753403,38.733974,120 140.753274,38.734059,120 140.753102,38.734145,120 140.751042,38.735046,120 140.750055,38.735476,120 140.749669,38.735647,120 140.748768,38.735991,120 140.747995,38.736377,120 140.747352,38.736677,120 140.746536,38.737063,120 140.745292,38.737664,120 140.744777,38.737879,120 140.743532,38.738394,120 140.743189,38.738565,120 140.742717,38.738823,120 140.742030,38.739338,120 140.741301,38.739896,120 140.740099,38.741055,120 140.739498,38.741870,120 140.739155,38.742514,120 140.738940,38.742986,120 140.738597,38.744102,120 140.738554,38.744187,120 140.738339,38.744960,120 140.737782,38.745818,120 140.737567,38.746119,120 140.737309,38.746376,120 140.736709,38.746891,120 140.736279,38.747234,120 140.736108,38.747363,120 140.735550,38.747706,120 140.735292,38.747835,120 140.734777,38.748093,120 140.733232,38.748522,120 140.731730,38.748865,120 140.730829,38.748951,120 140.728126,38.748908,120 140.726151,38.748865,120 140.723534,38.748779,120 140.722675,38.748651,120 140.721602,38.748393,120 140.721173,38.748221,120 140.721388,38.747878,120 140.720658,38.747706,120 140.720186,38.747406,120 140.719628,38.746891,120 140.719371,38.746505,120 140.719028,38.746247,120 140.718770,38.745904,120 140.718899,38.745732,120 140.718942,38.745604,120 140.718727,38.745260,120 140.718212,38.744874,120 140.718212,38.744831,120 140.717525,38.744359,120 140.717225,38.744144,120 140.716753,38.743758,120 140.716667,38.743200,120 140.716367,38.742599,120 140.716238,38.742428,120 140.716023,38.742127,120 140.715680,38.741956,120 140.714822,38.741570,120 140.714693,38.741269,120 140.714607,38.740754,120 140.714779,38.740454,120 140.715036,38.740411,120 140.715981,38.740668,120 140.716238,38.740883,120 140.716238,38.741144,120 140.716320,38.741144,120</coordinates></LineString></Placemark>
</Document></kml>
