<?xml version="1.0" encoding="UTF-8"?>
<kml xmlns="http://www.opengis.net/kml/2.2" xmlns:gx="http://www.google.com/kml/ext/2.2">
<Document><name>10/5 Mon · Tokyo → Shima Onsen</name><description>Route 4 out of Tokyo, then prefectural 28 over Mount Haruna past Lake Haruna, down to Nakanojo and up the Shima valley. Flyover runs 16 min at 300 m (984 ft) above ground, tilt 60°. Double-click the tour below to play it.</description>
<Style id="rt"><LineStyle><color>b32fd5ff</color><width>3</width></LineStyle></Style>
<gx:Tour><name>▶ 10/5 Mon · Tokyo → Shima Onsen — 179 km (111 mi)</name><description>Route 4 out of Tokyo, then prefectural 28 over Mount Haruna past Lake Haruna, down to Nakanojo and up the Shima valley.</description><gx:Playlist><gx:FlyTo><gx:duration>4</gx:duration><gx:flyToMode>bounce</gx:flyToMode><Camera><longitude>139.780697</longitude><latitude>35.735943</latitude><altitude>300</altitude><heading>122.5</heading><tilt>60</tilt><altitudeMode>relativeToGround</altitudeMode></Camera></gx:FlyTo><gx:FlyTo><gx:duration>5.72</gx:duration><gx:flyToMode>smooth</gx:flyToMode><Camera><longitude>139.789824</longitude><latitude>35.731230</latitude><altitude>300</altitude><heading>44.5</heading><tilt>60</tilt><altitudeMode>relativeToGround</altitudeMode></Camera></gx:FlyTo><gx:FlyTo><gx:duration>5.72</gx:duration><gx:flyToMode>smooth</gx:flyToMode><Camera><longitude>139.796476</longitude><latitude>35.736723</latitude><altitude>300</altitude><heading>8.6</heading><tilt>60</tilt><altitudeMode>relativeToGround</altitudeMode></Camera></gx:FlyTo><gx:FlyTo><gx:duration>5.72</gx:duration><gx:flyToMode>smooth</gx:flyToMode><Camera><longitude>139.798150</longitude><latitude>35.745692</latitude><altitude>300</altitude><heading>15.3</heading><tilt>60</tilt><altitudeMode>relativeToGround</altitudeMode></Camera></gx:FlyTo><gx:FlyTo><gx:duration>5.72</gx:duration><gx:flyToMode>smooth</gx:flyToMode><Camera><longitude>139.801240</longitude><latitude>35.754833</latitude><altitude>300</altitude><heading>349.1</heading><tilt>60</tilt><altitudeMode>relativeToGround</altitudeMode></Camera></gx:FlyTo><gx:FlyTo><gx:duration>5.72</gx:duration><gx:flyToMode>smooth</gx:flyToMode><Camera><longitude>139.799523</longitude><latitude>35.762043</latitude><altitude>300</altitude><heading>262.1</heading><tilt>60</tilt><altitudeMode>relativeToGround</altitudeMode></Camera></gx:FlyTo><gx:FlyTo><gx:duration>5.72</gx:duration><gx:flyToMode>smooth</gx:flyToMode><Camera><longitude>139.788151</longitude><latitude>35.760756</latitude><altitude>300</altitude><heading>261.9</heading><tilt>60</tilt><altitudeMode>relativeToGround</altitudeMode></Camera></gx:FlyTo><gx:FlyTo><gx:duration>5.72</gx:duration><gx:flyToMode>smooth</gx:flyToMode><Camera><longitude>139.776220</longitude><latitude>35.759382</latitude><altitude>300</altitude><heading>288.4</heading><tilt>60</tilt><altitudeMode>relativeToGround</altitudeMode></Camera></gx:FlyTo><gx:FlyTo><gx:duration>5.72</gx:duration><gx:flyToMode>smooth</gx:flyToMode><Camera><longitude>139.765577</longitude><latitude>35.762258</latitude><altitude>300</altitude><heading>333.1</heading><tilt>60</tilt><altitudeMode>relativeToGround</altitudeMode></Camera></gx:FlyTo><gx:FlyTo><gx:duration>5.72</gx:duration><gx:flyToMode>smooth</gx:flyToMode><Camera><longitude>139.760427</longitude><latitude>35.770497</latitude><altitude>300</altitude><heading>303.2</heading><tilt>60</tilt><altitudeMode>relativeToGround</altitudeMode></Camera></gx:FlyTo><gx:FlyTo><gx:duration>5.72</gx:duration><gx:flyToMode>smooth</gx:flyToMode><Camera><longitude>139.749527</longitude><latitude>35.776291</latitude><altitude>300</altitude><heading>251.5</heading><tilt>60</tilt><altitudeMode>relativeToGround</altitudeMode></Camera></gx:FlyTo><gx:FlyTo><gx:duration>5.72</gx:duration><gx:flyToMode>smooth</gx:flyToMode><Camera><longitude>139.740815</longitude><latitude>35.773931</latitude><altitude>300</altitude><heading>235.1</heading><tilt>60</tilt><altitudeMode>relativeToGround</altitudeMode></Camera></gx:FlyTo><gx:FlyTo><gx:duration>5.72</gx:duration><gx:flyToMode>smooth</gx:flyToMode><Camera><longitude>139.731803</longitude><latitude>35.768824</latitude><altitude>300</altitude><heading>252.8</heading><tilt>60</tilt><altitudeMode>relativeToGround</altitudeMode></Camera></gx:FlyTo><gx:FlyTo><gx:duration>5.72</gx:duration><gx:flyToMode>smooth</gx:flyToMode><Camera><longitude>139.720731</longitude><latitude>35.766034</latitude><altitude>300</altitude><heading>247.9</heading><tilt>60</tilt><altitudeMode>relativeToGround</altitudeMode></Camera></gx:FlyTo><gx:FlyTo><gx:duration>5.72</gx:duration><gx:flyToMode>smooth</gx:flyToMode><Camera><longitude>139.710431</longitude><latitude>35.762644</latitude><altitude>300</altitude><heading>252.0</heading><tilt>60</tilt><altitudeMode>relativeToGround</altitudeMode></Camera></gx:FlyTo><gx:FlyTo><gx:duration>5.72</gx:duration><gx:flyToMode>smooth</gx:flyToMode><Camera><longitude>139.699831</longitude><latitude>35.759854</latitude><altitude>300</altitude><heading>246.0</heading><tilt>60</tilt><altitudeMode>relativeToGround</altitudeMode></Camera></gx:FlyTo><gx:FlyTo><gx:duration>5.72</gx:duration><gx:flyToMode>smooth</gx:flyToMode><Camera><longitude>139.689832</longitude><latitude>35.756249</latitude><altitude>300</altitude><heading>292.1</heading><tilt>60</tilt><altitudeMode>relativeToGround</altitudeMode></Camera></gx:FlyTo><gx:FlyTo><gx:duration>5.72</gx:duration><gx:flyToMode>smooth</gx:flyToMode><Camera><longitude>139.680562</longitude><latitude>35.759296</latitude><altitude>300</altitude><heading>289.9</heading><tilt>60</tilt><altitudeMode>relativeToGround</altitudeMode></Camera></gx:FlyTo><gx:FlyTo><gx:duration>5.72</gx:duration><gx:flyToMode>smooth</gx:flyToMode><Camera><longitude>139.670048</longitude><latitude>35.762386</latitude><altitude>300</altitude><heading>264.1</heading><tilt>60</tilt><altitudeMode>relativeToGround</altitudeMode></Camera></gx:FlyTo><gx:FlyTo><gx:duration>5.72</gx:duration><gx:flyToMode>smooth</gx:flyToMode><Camera><longitude>139.659748</longitude><latitude>35.761528</latitude><altitude>300</altitude><heading>238.1</heading><tilt>60</tilt><altitudeMode>relativeToGround</altitudeMode></Camera></gx:FlyTo><gx:FlyTo><gx:duration>5.72</gx:duration><gx:flyToMode>smooth</gx:flyToMode><Camera><longitude>139.649963</longitude><latitude>35.756593</latitude><altitude>300</altitude><heading>236.5</heading><tilt>60</tilt><altitudeMode>relativeToGround</altitudeMode></Camera></gx:FlyTo><gx:FlyTo><gx:duration>5.72</gx:duration><gx:flyToMode>smooth</gx:flyToMode><Camera><longitude>139.640608</longitude><latitude>35.751572</latitude><altitude>300</altitude><heading>234.7</heading><tilt>60</tilt><altitudeMode>relativeToGround</altitudeMode></Camera></gx:FlyTo><gx:FlyTo><gx:duration>5.72</gx:duration><gx:flyToMode>smooth</gx:flyToMode><Camera><longitude>139.631424</longitude><latitude>35.746293</latitude><altitude>300</altitude><heading>285.3</heading><tilt>60</tilt><altitudeMode>relativeToGround</altitudeMode></Camera></gx:FlyTo><gx:FlyTo><gx:duration>5.72</gx:duration><gx:flyToMode>smooth</gx:flyToMode><Camera><longitude>139.621768</longitude><latitude>35.748439</latitude><altitude>300</altitude><heading>286.9</heading><tilt>60</tilt><altitudeMode>relativeToGround</altitudeMode></Camera></gx:FlyTo><gx:FlyTo><gx:duration>5.72</gx:duration><gx:flyToMode>smooth</gx:flyToMode><Camera><longitude>139.611511</longitude><latitude>35.750971</latitude><altitude>300</altitude><heading>304.8</heading><tilt>60</tilt><altitudeMode>relativeToGround</altitudeMode></Camera></gx:FlyTo><gx:FlyTo><gx:duration>5.72</gx:duration><gx:flyToMode>smooth</gx:flyToMode><Camera><longitude>139.602156</longitude><latitude>35.756249</latitude><altitude>300</altitude><heading>309.0</heading><tilt>60</tilt><altitudeMode>relativeToGround</altitudeMode></Camera></gx:FlyTo><gx:FlyTo><gx:duration>5.72</gx:duration><gx:flyToMode>smooth</gx:flyToMode><Camera><longitude>139.592671</longitude><latitude>35.762472</latitude><altitude>300</altitude><heading>281.5</heading><tilt>60</tilt><altitudeMode>relativeToGround</altitudeMode></Camera></gx:FlyTo><gx:FlyTo><gx:duration>5.72</gx:duration><gx:flyToMode>smooth</gx:flyToMode><Camera><longitude>139.579711</longitude><latitude>35.764618</latitude><altitude>300</altitude><heading>309.5</heading><tilt>60</tilt><altitudeMode>relativeToGround</altitudeMode></Camera></gx:FlyTo><gx:FlyTo><gx:duration>5.72</gx:duration><gx:flyToMode>smooth</gx:flyToMode><Camera><longitude>139.570527</longitude><latitude>35.770755</latitude><altitude>300</altitude><heading>329.1</heading><tilt>60</tilt><altitudeMode>relativeToGround</altitudeMode></Camera></gx:FlyTo><gx:FlyTo><gx:duration>5.72</gx:duration><gx:flyToMode>smooth</gx:flyToMode><Camera><longitude>139.564347</longitude><latitude>35.779123</latitude><altitude>300</altitude><heading>309.0</heading><tilt>60</tilt><altitudeMode>relativeToGround</altitudeMode></Camera></gx:FlyTo><gx:FlyTo><gx:duration>5.72</gx:duration><gx:flyToMode>smooth</gx:flyToMode><Camera><longitude>139.550571</longitude><latitude>35.788178</latitude><altitude>300</altitude><heading>319.4</heading><tilt>60</tilt><altitudeMode>relativeToGround</altitudeMode></Camera></gx:FlyTo><gx:FlyTo><gx:duration>5.72</gx:duration><gx:flyToMode>smooth</gx:flyToMode><Camera><longitude>139.542589</longitude><latitude>35.795732</latitude><altitude>300</altitude><heading>323.5</heading><tilt>60</tilt><altitudeMode>relativeToGround</altitudeMode></Camera></gx:FlyTo><gx:FlyTo><gx:duration>5.72</gx:duration><gx:flyToMode>smooth</gx:flyToMode><Camera><longitude>139.535937</longitude><latitude>35.803027</latitude><altitude>300</altitude><heading>325.1</heading><tilt>60</tilt><altitudeMode>relativeToGround</altitudeMode></Camera></gx:FlyTo><gx:FlyTo><gx:duration>5.72</gx:duration><gx:flyToMode>smooth</gx:flyToMode><Camera><longitude>139.525852</longitude><latitude>35.814743</latitude><altitude>300</altitude><heading>321.6</heading><tilt>60</tilt><altitudeMode>relativeToGround</altitudeMode></Camera></gx:FlyTo><gx:FlyTo><gx:duration>5.72</gx:duration><gx:flyToMode>smooth</gx:flyToMode><Camera><longitude>139.518256</longitude><latitude>35.822511</latitude><altitude>300</altitude><heading>315.4</heading><tilt>60</tilt><altitudeMode>relativeToGround</altitudeMode></Camera></gx:FlyTo><gx:FlyTo><gx:duration>5.72</gx:duration><gx:flyToMode>smooth</gx:flyToMode><Camera><longitude>139.509029</longitude><latitude>35.830107</latitude><altitude>300</altitude><heading>336.9</heading><tilt>60</tilt><altitudeMode>relativeToGround</altitudeMode></Camera></gx:FlyTo><gx:FlyTo><gx:duration>5.72</gx:duration><gx:flyToMode>smooth</gx:flyToMode><Camera><longitude>139.503407</longitude><latitude>35.840793</latitude><altitude>300</altitude><heading>348.3</heading><tilt>60</tilt><altitudeMode>relativeToGround</altitudeMode></Camera></gx:FlyTo><gx:FlyTo><gx:duration>5.72</gx:duration><gx:flyToMode>smooth</gx:flyToMode><Camera><longitude>139.500704</longitude><latitude>35.851393</latitude><altitude>300</altitude><heading>323.6</heading><tilt>60</tilt><altitudeMode>relativeToGround</altitudeMode></Camera></gx:FlyTo><gx:FlyTo><gx:duration>5.72</gx:duration><gx:flyToMode>smooth</gx:flyToMode><Camera><longitude>139.493794</longitude><latitude>35.858989</latitude><altitude>300</altitude><heading>315.8</heading><tilt>60</tilt><altitudeMode>relativeToGround</altitudeMode></Camera></gx:FlyTo><gx:FlyTo><gx:duration>5.72</gx:duration><gx:flyToMode>smooth</gx:flyToMode><Camera><longitude>139.484310</longitude><latitude>35.866885</latitude><altitude>300</altitude><heading>339.0</heading><tilt>60</tilt><altitudeMode>relativeToGround</altitudeMode></Camera></gx:FlyTo><gx:FlyTo><gx:duration>5.72</gx:duration><gx:flyToMode>smooth</gx:flyToMode><Camera><longitude>139.479976</longitude><latitude>35.876026</latitude><altitude>300</altitude><heading>320.0</heading><tilt>60</tilt><altitudeMode>relativeToGround</altitudeMode></Camera></gx:FlyTo><gx:FlyTo><gx:duration>5.72</gx:duration><gx:flyToMode>smooth</gx:flyToMode><Camera><longitude>139.472594</longitude><latitude>35.883150</latitude><altitude>300</altitude><heading>307.5</heading><tilt>60</tilt><altitudeMode>relativeToGround</altitudeMode></Camera></gx:FlyTo><gx:FlyTo><gx:duration>5.72</gx:duration><gx:flyToMode>smooth</gx:flyToMode><Camera><longitude>139.463067</longitude><latitude>35.889072</latitude><altitude>300</altitude><heading>329.1</heading><tilt>60</tilt><altitudeMode>relativeToGround</altitudeMode></Camera></gx:FlyTo><gx:FlyTo><gx:duration>5.72</gx:duration><gx:flyToMode>smooth</gx:flyToMode><Camera><longitude>139.451823</longitude><latitude>35.904307</latitude><altitude>300</altitude><heading>312.0</heading><tilt>60</tilt><altitudeMode>relativeToGround</altitudeMode></Camera></gx:FlyTo><gx:FlyTo><gx:duration>5.72</gx:duration><gx:flyToMode>smooth</gx:flyToMode><Camera><longitude>139.442596</longitude><latitude>35.911045</latitude><altitude>300</altitude><heading>285.0</heading><tilt>60</tilt><altitudeMode>relativeToGround</altitudeMode></Camera></gx:FlyTo><gx:FlyTo><gx:duration>5.72</gx:duration><gx:flyToMode>smooth</gx:flyToMode><Camera><longitude>139.429507</longitude><latitude>35.913877</latitude><altitude>300</altitude><heading>296.6</heading><tilt>60</tilt><altitudeMode>relativeToGround</altitudeMode></Camera></gx:FlyTo><gx:FlyTo><gx:duration>5.72</gx:duration><gx:flyToMode>smooth</gx:flyToMode><Camera><longitude>139.418821</longitude><latitude>35.918212</latitude><altitude>300</altitude><heading>318.9</heading><tilt>60</tilt><altitudeMode>relativeToGround</altitudeMode></Camera></gx:FlyTo><gx:FlyTo><gx:duration>5.72</gx:duration><gx:flyToMode>smooth</gx:flyToMode><Camera><longitude>139.411097</longitude><latitude>35.925379</latitude><altitude>300</altitude><heading>336.8</heading><tilt>60</tilt><altitudeMode>relativeToGround</altitudeMode></Camera></gx:FlyTo><gx:FlyTo><gx:duration>5.72</gx:duration><gx:flyToMode>smooth</gx:flyToMode><Camera><longitude>139.404831</longitude><latitude>35.937223</latitude><altitude>300</altitude><heading>329.5</heading><tilt>60</tilt><altitudeMode>relativeToGround</altitudeMode></Camera></gx:FlyTo><gx:FlyTo><gx:duration>5.72</gx:duration><gx:flyToMode>smooth</gx:flyToMode><Camera><longitude>139.398179</longitude><latitude>35.946364</latitude><altitude>300</altitude><heading>306.7</heading><tilt>60</tilt><altitudeMode>relativeToGround</altitudeMode></Camera></gx:FlyTo><gx:FlyTo><gx:duration>5.72</gx:duration><gx:flyToMode>smooth</gx:flyToMode><Camera><longitude>139.388437</longitude><latitude>35.952244</latitude><altitude>300</altitude><heading>321.2</heading><tilt>60</tilt><altitudeMode>relativeToGround</altitudeMode></Camera></gx:FlyTo><gx:FlyTo><gx:duration>5.72</gx:duration><gx:flyToMode>smooth</gx:flyToMode><Camera><longitude>139.381571</longitude><latitude>35.959153</latitude><altitude>300</altitude><heading>353.3</heading><tilt>60</tilt><altitudeMode>relativeToGround</altitudeMode></Camera></gx:FlyTo><gx:FlyTo><gx:duration>5.72</gx:duration><gx:flyToMode>smooth</gx:flyToMode><Camera><longitude>139.380155</longitude><latitude>35.968981</latitude><altitude>300</altitude><heading>359.3</heading><tilt>60</tilt><altitudeMode>relativeToGround</altitudeMode></Camera></gx:FlyTo><gx:FlyTo><gx:duration>5.72</gx:duration><gx:flyToMode>smooth</gx:flyToMode><Camera><longitude>139.379983</longitude><latitude>35.979753</latitude><altitude>300</altitude><heading>21.9</heading><tilt>60</tilt><altitudeMode>relativeToGround</altitudeMode></Camera></gx:FlyTo><gx:FlyTo><gx:duration>5.72</gx:duration><gx:flyToMode>smooth</gx:flyToMode><Camera><longitude>139.383931</longitude><latitude>35.987692</latitude><altitude>300</altitude><heading>16.2</heading><tilt>60</tilt><altitudeMode>relativeToGround</altitudeMode></Camera></gx:FlyTo><gx:FlyTo><gx:duration>5.72</gx:duration><gx:flyToMode>smooth</gx:flyToMode><Camera><longitude>139.387579</longitude><latitude>35.997820</latitude><altitude>300</altitude><heading>357.4</heading><tilt>60</tilt><altitudeMode>relativeToGround</altitudeMode></Camera></gx:FlyTo><gx:FlyTo><gx:duration>5.72</gx:duration><gx:flyToMode>smooth</gx:flyToMode><Camera><longitude>139.387064</longitude><latitude>36.007090</latitude><altitude>300</altitude><heading>341.7</heading><tilt>60</tilt><altitudeMode>relativeToGround</altitudeMode></Camera></gx:FlyTo><gx:FlyTo><gx:duration>5.72</gx:duration><gx:flyToMode>smooth</gx:flyToMode><Camera><longitude>139.383159</longitude><latitude>36.016617</latitude><altitude>300</altitude><heading>352.5</heading><tilt>60</tilt><altitudeMode>relativeToGround</altitudeMode></Camera></gx:FlyTo><gx:FlyTo><gx:duration>5.72</gx:duration><gx:flyToMode>smooth</gx:flyToMode><Camera><longitude>139.381485</longitude><latitude>36.026874</latitude><altitude>300</altitude><heading>338.8</heading><tilt>60</tilt><altitudeMode>relativeToGround</altitudeMode></Camera></gx:FlyTo><gx:FlyTo><gx:duration>5.72</gx:duration><gx:flyToMode>smooth</gx:flyToMode><Camera><longitude>139.377279</longitude><latitude>36.035628</latitude><altitude>300</altitude><heading>308.6</heading><tilt>60</tilt><altitudeMode>relativeToGround</altitudeMode></Camera></gx:FlyTo><gx:FlyTo><gx:duration>5.72</gx:duration><gx:flyToMode>smooth</gx:flyToMode><Camera><longitude>139.366894</longitude><latitude>36.042323</latitude><altitude>300</altitude><heading>281.7</heading><tilt>60</tilt><altitudeMode>relativeToGround</altitudeMode></Camera></gx:FlyTo><gx:FlyTo><gx:duration>5.72</gx:duration><gx:flyToMode>smooth</gx:flyToMode><Camera><longitude>139.354877</longitude><latitude>36.044340</latitude><altitude>300</altitude><heading>299.0</heading><tilt>60</tilt><altitudeMode>relativeToGround</altitudeMode></Camera></gx:FlyTo><gx:FlyTo><gx:duration>5.72</gx:duration><gx:flyToMode>smooth</gx:flyToMode><Camera><longitude>139.344149</longitude><latitude>36.049147</latitude><altitude>300</altitude><heading>311.6</heading><tilt>60</tilt><altitudeMode>relativeToGround</altitudeMode></Camera></gx:FlyTo><gx:FlyTo><gx:duration>5.72</gx:duration><gx:flyToMode>smooth</gx:flyToMode><Camera><longitude>139.334579</longitude><latitude>36.056013</latitude><altitude>300</altitude><heading>313.2</heading><tilt>60</tilt><altitudeMode>relativeToGround</altitudeMode></Camera></gx:FlyTo><gx:FlyTo><gx:duration>5.72</gx:duration><gx:flyToMode>smooth</gx:flyToMode><Camera><longitude>139.325266</longitude><latitude>36.063094</latitude><altitude>300</altitude><heading>297.8</heading><tilt>60</tilt><altitudeMode>relativeToGround</altitudeMode></Camera></gx:FlyTo><gx:FlyTo><gx:duration>5.72</gx:duration><gx:flyToMode>smooth</gx:flyToMode><Camera><longitude>139.315481</longitude><latitude>36.067257</latitude><altitude>300</altitude><heading>300.2</heading><tilt>60</tilt><altitudeMode>relativeToGround</altitudeMode></Camera></gx:FlyTo><gx:FlyTo><gx:duration>5.72</gx:duration><gx:flyToMode>smooth</gx:flyToMode><Camera><longitude>139.303894</longitude><latitude>36.072707</latitude><altitude>300</altitude><heading>331.4</heading><tilt>60</tilt><altitudeMode>relativeToGround</altitudeMode></Camera></gx:FlyTo><gx:FlyTo><gx:duration>5.72</gx:duration><gx:flyToMode>smooth</gx:flyToMode><Camera><longitude>139.298315</longitude><latitude>36.080990</latitude><altitude>300</altitude><heading>313.6</heading><tilt>60</tilt><altitudeMode>relativeToGround</altitudeMode></Camera></gx:FlyTo><gx:FlyTo><gx:duration>5.72</gx:duration><gx:flyToMode>smooth</gx:flyToMode><Camera><longitude>139.289775</longitude><latitude>36.087556</latitude><altitude>300</altitude><heading>331.7</heading><tilt>60</tilt><altitudeMode>relativeToGround</altitudeMode></Camera></gx:FlyTo><gx:FlyTo><gx:duration>5.72</gx:duration><gx:flyToMode>smooth</gx:flyToMode><Camera><longitude>139.283381</longitude><latitude>36.097169</latitude><altitude>300</altitude><heading>328.9</heading><tilt>60</tilt><altitudeMode>relativeToGround</altitudeMode></Camera></gx:FlyTo><gx:FlyTo><gx:duration>5.72</gx:duration><gx:flyToMode>smooth</gx:flyToMode><Camera><longitude>139.277287</longitude><latitude>36.105323</latitude><altitude>300</altitude><heading>315.5</heading><tilt>60</tilt><altitudeMode>relativeToGround</altitudeMode></Camera></gx:FlyTo><gx:FlyTo><gx:duration>5.72</gx:duration><gx:flyToMode>smooth</gx:flyToMode><Camera><longitude>139.267588</longitude><latitude>36.113305</latitude><altitude>300</altitude><heading>305.3</heading><tilt>60</tilt><altitudeMode>relativeToGround</altitudeMode></Camera></gx:FlyTo><gx:FlyTo><gx:duration>5.72</gx:duration><gx:flyToMode>smooth</gx:flyToMode><Camera><longitude>139.256773</longitude><latitude>36.119485</latitude><altitude>300</altitude><heading>305.4</heading><tilt>60</tilt><altitudeMode>relativeToGround</altitudeMode></Camera></gx:FlyTo><gx:FlyTo><gx:duration>5.72</gx:duration><gx:flyToMode>smooth</gx:flyToMode><Camera><longitude>139.247589</longitude><latitude>36.124763</latitude><altitude>300</altitude><heading>305.1</heading><tilt>60</tilt><altitudeMode>relativeToGround</altitudeMode></Camera></gx:FlyTo><gx:FlyTo><gx:duration>5.72</gx:duration><gx:flyToMode>smooth</gx:flyToMode><Camera><longitude>139.235187</longitude><latitude>36.131802</latitude><altitude>300</altitude><heading>315.7</heading><tilt>60</tilt><altitudeMode>relativeToGround</altitudeMode></Camera></gx:FlyTo><gx:FlyTo><gx:duration>5.72</gx:duration><gx:flyToMode>smooth</gx:flyToMode><Camera><longitude>139.227033</longitude><latitude>36.138539</latitude><altitude>300</altitude><heading>334.5</heading><tilt>60</tilt><altitudeMode>relativeToGround</altitudeMode></Camera></gx:FlyTo><gx:FlyTo><gx:duration>5.72</gx:duration><gx:flyToMode>smooth</gx:flyToMode><Camera><longitude>139.221196</longitude><latitude>36.148410</latitude><altitude>300</altitude><heading>327.2</heading><tilt>60</tilt><altitudeMode>relativeToGround</altitudeMode></Camera></gx:FlyTo><gx:FlyTo><gx:duration>5.72</gx:duration><gx:flyToMode>smooth</gx:flyToMode><Camera><longitude>139.214544</longitude><latitude>36.156735</latitude><altitude>300</altitude><heading>310.4</heading><tilt>60</tilt><altitudeMode>relativeToGround</altitudeMode></Camera></gx:FlyTo><gx:FlyTo><gx:duration>5.72</gx:duration><gx:flyToMode>smooth</gx:flyToMode><Camera><longitude>139.204245</longitude><latitude>36.163816</latitude><altitude>300</altitude><heading>311.9</heading><tilt>60</tilt><altitudeMode>relativeToGround</altitudeMode></Camera></gx:FlyTo><gx:FlyTo><gx:duration>5.72</gx:duration><gx:flyToMode>smooth</gx:flyToMode><Camera><longitude>139.195962</longitude><latitude>36.169825</latitude><altitude>300</altitude><heading>336.4</heading><tilt>60</tilt><altitudeMode>relativeToGround</altitudeMode></Camera></gx:FlyTo><gx:FlyTo><gx:duration>5.72</gx:duration><gx:flyToMode>smooth</gx:flyToMode><Camera><longitude>139.191070</longitude><latitude>36.178880</latitude><altitude>300</altitude><heading>355.8</heading><tilt>60</tilt><altitudeMode>relativeToGround</altitudeMode></Camera></gx:FlyTo><gx:FlyTo><gx:duration>5.72</gx:duration><gx:flyToMode>smooth</gx:flyToMode><Camera><longitude>139.190254</longitude><latitude>36.187849</latitude><altitude>300</altitude><heading>337.3</heading><tilt>60</tilt><altitudeMode>relativeToGround</altitudeMode></Camera></gx:FlyTo><gx:FlyTo><gx:duration>5.72</gx:duration><gx:flyToMode>smooth</gx:flyToMode><Camera><longitude>139.185405</longitude><latitude>36.197205</latitude><altitude>300</altitude><heading>312.8</heading><tilt>60</tilt><altitudeMode>relativeToGround</altitudeMode></Camera></gx:FlyTo><gx:FlyTo><gx:duration>5.72</gx:duration><gx:flyToMode>smooth</gx:flyToMode><Camera><longitude>139.176049</longitude><latitude>36.204200</latitude><altitude>300</altitude><heading>322.8</heading><tilt>60</tilt><altitudeMode>relativeToGround</altitudeMode></Camera></gx:FlyTo><gx:FlyTo><gx:duration>5.72</gx:duration><gx:flyToMode>smooth</gx:flyToMode><Camera><longitude>139.168324</longitude><latitude>36.212397</latitude><altitude>300</altitude><heading>330.9</heading><tilt>60</tilt><altitudeMode>relativeToGround</altitudeMode></Camera></gx:FlyTo><gx:FlyTo><gx:duration>5.72</gx:duration><gx:flyToMode>smooth</gx:flyToMode><Camera><longitude>139.162488</longitude><latitude>36.220851</latitude><altitude>300</altitude><heading>317.6</heading><tilt>60</tilt><altitudeMode>relativeToGround</altitudeMode></Camera></gx:FlyTo><gx:FlyTo><gx:duration>5.72</gx:duration><gx:flyToMode>smooth</gx:flyToMode><Camera><longitude>139.154377</longitude><latitude>36.228018</latitude><altitude>300</altitude><heading>324.9</heading><tilt>60</tilt><altitudeMode>relativeToGround</altitudeMode></Camera></gx:FlyTo><gx:FlyTo><gx:duration>5.72</gx:duration><gx:flyToMode>smooth</gx:flyToMode><Camera><longitude>139.147682</longitude><latitude>36.235700</latitude><altitude>300</altitude><heading>333.5</heading><tilt>60</tilt><altitudeMode>relativeToGround</altitudeMode></Camera></gx:FlyTo><gx:FlyTo><gx:duration>5.72</gx:duration><gx:flyToMode>smooth</gx:flyToMode><Camera><longitude>139.141717</longitude><latitude>36.245356</latitude><altitude>300</altitude><heading>305.6</heading><tilt>60</tilt><altitudeMode>relativeToGround</altitudeMode></Camera></gx:FlyTo><gx:FlyTo><gx:duration>5.72</gx:duration><gx:flyToMode>smooth</gx:flyToMode><Camera><longitude>139.131975</longitude><latitude>36.250978</latitude><altitude>300</altitude><heading>292.0</heading><tilt>60</tilt><altitudeMode>relativeToGround</altitudeMode></Camera></gx:FlyTo><gx:FlyTo><gx:duration>5.72</gx:duration><gx:flyToMode>smooth</gx:flyToMode><Camera><longitude>139.121418</longitude><latitude>36.254411</latitude><altitude>300</altitude><heading>293.6</heading><tilt>60</tilt><altitudeMode>relativeToGround</altitudeMode></Camera></gx:FlyTo><gx:FlyTo><gx:duration>5.72</gx:duration><gx:flyToMode>smooth</gx:flyToMode><Camera><longitude>139.106827</longitude><latitude>36.259561</latitude><altitude>300</altitude><heading>313.7</heading><tilt>60</tilt><altitudeMode>relativeToGround</altitudeMode></Camera></gx:FlyTo><gx:FlyTo><gx:duration>5.72</gx:duration><gx:flyToMode>smooth</gx:flyToMode><Camera><longitude>139.097986</longitude><latitude>36.266384</latitude><altitude>300</altitude><heading>347.6</heading><tilt>60</tilt><altitudeMode>relativeToGround</altitudeMode></Camera></gx:FlyTo><gx:FlyTo><gx:duration>5.72</gx:duration><gx:flyToMode>smooth</gx:flyToMode><Camera><longitude>139.095411</longitude><latitude>36.275826</latitude><altitude>300</altitude><heading>9.8</heading><tilt>60</tilt><altitudeMode>relativeToGround</altitudeMode></Camera></gx:FlyTo><gx:FlyTo><gx:duration>5.72</gx:duration><gx:flyToMode>smooth</gx:flyToMode><Camera><longitude>139.097686</longitude><latitude>36.286426</latitude><altitude>300</altitude><heading>354.8</heading><tilt>60</tilt><altitudeMode>relativeToGround</altitudeMode></Camera></gx:FlyTo><gx:FlyTo><gx:duration>5.72</gx:duration><gx:flyToMode>smooth</gx:flyToMode><Camera><longitude>139.096484</longitude><latitude>36.297112</latitude><altitude>300</altitude><heading>338.3</heading><tilt>60</tilt><altitudeMode>relativeToGround</altitudeMode></Camera></gx:FlyTo><gx:FlyTo><gx:duration>5.72</gx:duration><gx:flyToMode>smooth</gx:flyToMode><Camera><longitude>139.092064</longitude><latitude>36.306081</latitude><altitude>300</altitude><heading>326.0</heading><tilt>60</tilt><altitudeMode>relativeToGround</altitudeMode></Camera></gx:FlyTo><gx:FlyTo><gx:duration>5.72</gx:duration><gx:flyToMode>smooth</gx:flyToMode><Camera><longitude>139.085712</longitude><latitude>36.313677</latitude><altitude>300</altitude><heading>310.9</heading><tilt>60</tilt><altitudeMode>relativeToGround</altitudeMode></Camera></gx:FlyTo><gx:FlyTo><gx:duration>5.72</gx:duration><gx:flyToMode>smooth</gx:flyToMode><Camera><longitude>139.075885</longitude><latitude>36.320543</latitude><altitude>300</altitude><heading>313.4</heading><tilt>60</tilt><altitudeMode>relativeToGround</altitudeMode></Camera></gx:FlyTo><gx:FlyTo><gx:duration>5.72</gx:duration><gx:flyToMode>smooth</gx:flyToMode><Camera><longitude>139.065199</longitude><latitude>36.328697</latitude><altitude>300</altitude><heading>329.2</heading><tilt>60</tilt><altitudeMode>relativeToGround</altitudeMode></Camera></gx:FlyTo><gx:FlyTo><gx:duration>5.72</gx:duration><gx:flyToMode>smooth</gx:flyToMode><Camera><longitude>139.059448</longitude><latitude>36.336465</latitude><altitude>300</altitude><heading>328.0</heading><tilt>60</tilt><altitudeMode>relativeToGround</altitudeMode></Camera></gx:FlyTo><gx:FlyTo><gx:duration>5.72</gx:duration><gx:flyToMode>smooth</gx:flyToMode><Camera><longitude>139.051852</longitude><latitude>36.346250</latitude><altitude>300</altitude><heading>315.7</heading><tilt>60</tilt><altitudeMode>relativeToGround</altitudeMode></Camera></gx:FlyTo><gx:FlyTo><gx:duration>5.72</gx:duration><gx:flyToMode>smooth</gx:flyToMode><Camera><longitude>139.040480</longitude><latitude>36.355648</latitude><altitude>300</altitude><heading>322.1</heading><tilt>60</tilt><altitudeMode>relativeToGround</altitudeMode></Camera></gx:FlyTo><gx:FlyTo><gx:duration>5.72</gx:duration><gx:flyToMode>smooth</gx:flyToMode><Camera><longitude>139.033141</longitude><latitude>36.363244</latitude><altitude>300</altitude><heading>337.5</heading><tilt>60</tilt><altitudeMode>relativeToGround</altitudeMode></Camera></gx:FlyTo><gx:FlyTo><gx:duration>5.72</gx:duration><gx:flyToMode>smooth</gx:flyToMode><Camera><longitude>139.028077</longitude><latitude>36.373072</latitude><altitude>300</altitude><heading>39.9</heading><tilt>60</tilt><altitudeMode>relativeToGround</altitudeMode></Camera></gx:FlyTo><gx:FlyTo><gx:duration>5.72</gx:duration><gx:flyToMode>smooth</gx:flyToMode><Camera><longitude>139.029193</longitude><latitude>36.374145</latitude><altitude>300</altitude><heading>220.7</heading><tilt>60</tilt><altitudeMode>relativeToGround</altitudeMode></Camera></gx:FlyTo><gx:FlyTo><gx:duration>5.72</gx:duration><gx:flyToMode>smooth</gx:flyToMode><Camera><longitude>139.021168</longitude><latitude>36.366634</latitude><altitude>300</altitude><heading>208.9</heading><tilt>60</tilt><altitudeMode>relativeToGround</altitudeMode></Camera></gx:FlyTo><gx:FlyTo><gx:duration>5.72</gx:duration><gx:flyToMode>smooth</gx:flyToMode><Camera><longitude>139.015760</longitude><latitude>36.358738</latitude><altitude>300</altitude><heading>224.5</heading><tilt>60</tilt><altitudeMode>relativeToGround</altitudeMode></Camera></gx:FlyTo><gx:FlyTo><gx:duration>5.72</gx:duration><gx:flyToMode>smooth</gx:flyToMode><Camera><longitude>139.007006</longitude><latitude>36.351571</latitude><altitude>300</altitude><heading>286.0</heading><tilt>60</tilt><altitudeMode>relativeToGround</altitudeMode></Camera></gx:FlyTo><gx:FlyTo><gx:duration>5.72</gx:duration><gx:flyToMode>smooth</gx:flyToMode><Camera><longitude>138.996191</longitude><latitude>36.354060</latitude><altitude>300</altitude><heading>307.0</heading><tilt>60</tilt><altitudeMode>relativeToGround</altitudeMode></Camera></gx:FlyTo><gx:FlyTo><gx:duration>5.72</gx:duration><gx:flyToMode>smooth</gx:flyToMode><Camera><longitude>138.987222</longitude><latitude>36.359510</latitude><altitude>300</altitude><heading>303.3</heading><tilt>60</tilt><altitudeMode>relativeToGround</altitudeMode></Camera></gx:FlyTo><gx:FlyTo><gx:duration>5.72</gx:duration><gx:flyToMode>smooth</gx:flyToMode><Camera><longitude>138.976579</longitude><latitude>36.365132</latitude><altitude>300</altitude><heading>337.1</heading><tilt>60</tilt><altitudeMode>relativeToGround</altitudeMode></Camera></gx:FlyTo><gx:FlyTo><gx:duration>5.72</gx:duration><gx:flyToMode>smooth</gx:flyToMode><Camera><longitude>138.972073</longitude><latitude>36.373715</latitude><altitude>300</altitude><heading>330.3</heading><tilt>60</tilt><altitudeMode>relativeToGround</altitudeMode></Camera></gx:FlyTo><gx:FlyTo><gx:duration>5.72</gx:duration><gx:flyToMode>smooth</gx:flyToMode><Camera><longitude>138.966150</longitude><latitude>36.382084</latitude><altitude>300</altitude><heading>336.7</heading><tilt>60</tilt><altitudeMode>relativeToGround</altitudeMode></Camera></gx:FlyTo><gx:FlyTo><gx:duration>5.72</gx:duration><gx:flyToMode>smooth</gx:flyToMode><Camera><longitude>138.961301</longitude><latitude>36.391139</latitude><altitude>300</altitude><heading>318.5</heading><tilt>60</tilt><altitudeMode>relativeToGround</altitudeMode></Camera></gx:FlyTo><gx:FlyTo><gx:duration>5.72</gx:duration><gx:flyToMode>smooth</gx:flyToMode><Camera><longitude>138.955164</longitude><latitude>36.396718</latitude><altitude>300</altitude><heading>302.2</heading><tilt>60</tilt><altitudeMode>relativeToGround</altitudeMode></Camera></gx:FlyTo><gx:FlyTo><gx:duration>5.72</gx:duration><gx:flyToMode>smooth</gx:flyToMode><Camera><longitude>138.946881</longitude><latitude>36.400924</latitude><altitude>300</altitude><heading>309.4</heading><tilt>60</tilt><altitudeMode>relativeToGround</altitudeMode></Camera></gx:FlyTo><gx:FlyTo><gx:duration>5.72</gx:duration><gx:flyToMode>smooth</gx:flyToMode><Camera><longitude>138.938298</longitude><latitude>36.406589</latitude><altitude>300</altitude><heading>300.4</heading><tilt>60</tilt><altitudeMode>relativeToGround</altitudeMode></Camera></gx:FlyTo><gx:FlyTo><gx:duration>5.72</gx:duration><gx:flyToMode>smooth</gx:flyToMode><Camera><longitude>138.929114</longitude><latitude>36.410923</latitude><altitude>300</altitude><heading>302.6</heading><tilt>60</tilt><altitudeMode>relativeToGround</altitudeMode></Camera></gx:FlyTo><gx:FlyTo><gx:duration>5.72</gx:duration><gx:flyToMode>smooth</gx:flyToMode><Camera><longitude>138.919759</longitude><latitude>36.415730</latitude><altitude>300</altitude><heading>304.6</heading><tilt>60</tilt><altitudeMode>relativeToGround</altitudeMode></Camera></gx:FlyTo><gx:FlyTo><gx:duration>5.72</gx:duration><gx:flyToMode>smooth</gx:flyToMode><Camera><longitude>138.909802</longitude><latitude>36.421266</latitude><altitude>300</altitude><heading>302.5</heading><tilt>60</tilt><altitudeMode>relativeToGround</altitudeMode></Camera></gx:FlyTo><gx:FlyTo><gx:duration>5.72</gx:duration><gx:flyToMode>smooth</gx:flyToMode><Camera><longitude>138.900661</longitude><latitude>36.425943</latitude><altitude>300</altitude><heading>312.8</heading><tilt>60</tilt><altitudeMode>relativeToGround</altitudeMode></Camera></gx:FlyTo><gx:FlyTo><gx:duration>5.72</gx:duration><gx:flyToMode>smooth</gx:flyToMode><Camera><longitude>138.892550</longitude><latitude>36.431994</latitude><altitude>300</altitude><heading>296.9</heading><tilt>60</tilt><altitudeMode>relativeToGround</altitudeMode></Camera></gx:FlyTo><gx:FlyTo><gx:duration>5.72</gx:duration><gx:flyToMode>smooth</gx:flyToMode><Camera><longitude>138.884225</longitude><latitude>36.435385</latitude><altitude>300</altitude><heading>347.8</heading><tilt>60</tilt><altitudeMode>relativeToGround</altitudeMode></Camera></gx:FlyTo><gx:FlyTo><gx:duration>5.72</gx:duration><gx:flyToMode>smooth</gx:flyToMode><Camera><longitude>138.881865</longitude><latitude>36.444182</latitude><altitude>300</altitude><heading>315.3</heading><tilt>60</tilt><altitudeMode>relativeToGround</altitudeMode></Camera></gx:FlyTo><gx:FlyTo><gx:duration>5.72</gx:duration><gx:flyToMode>smooth</gx:flyToMode><Camera><longitude>138.875170</longitude><latitude>36.449633</latitude><altitude>300</altitude><heading>333.9</heading><tilt>60</tilt><altitudeMode>relativeToGround</altitudeMode></Camera></gx:FlyTo><gx:FlyTo><gx:duration>5.72</gx:duration><gx:flyToMode>smooth</gx:flyToMode><Camera><longitude>138.870406</longitude><latitude>36.457443</latitude><altitude>300</altitude><heading>18.7</heading><tilt>60</tilt><altitudeMode>relativeToGround</altitudeMode></Camera></gx:FlyTo><gx:FlyTo><gx:duration>5.72</gx:duration><gx:flyToMode>smooth</gx:flyToMode><Camera><longitude>138.872681</longitude><latitude>36.462851</latitude><altitude>300</altitude><heading>41.7</heading><tilt>60</tilt><altitudeMode>relativeToGround</altitudeMode></Camera></gx:FlyTo><gx:FlyTo><gx:duration>5.72</gx:duration><gx:flyToMode>smooth</gx:flyToMode><Camera><longitude>138.877101</longitude><latitude>36.466842</latitude><altitude>300</altitude><heading>292.5</heading><tilt>60</tilt><altitudeMode>relativeToGround</altitudeMode></Camera></gx:FlyTo><gx:FlyTo><gx:duration>5.72</gx:duration><gx:flyToMode>smooth</gx:flyToMode><Camera><longitude>138.873496</longitude><latitude>36.468043</latitude><altitude>300</altitude><heading>0.0</heading><tilt>60</tilt><altitudeMode>relativeToGround</altitudeMode></Camera></gx:FlyTo><gx:FlyTo><gx:duration>5.72</gx:duration><gx:flyToMode>smooth</gx:flyToMode><Camera><longitude>138.873496</longitude><latitude>36.468043</latitude><altitude>300</altitude><heading>284.4</heading><tilt>60</tilt><altitudeMode>relativeToGround</altitudeMode></Camera></gx:FlyTo><gx:FlyTo><gx:duration>5.72</gx:duration><gx:flyToMode>smooth</gx:flyToMode><Camera><longitude>138.862896</longitude><latitude>36.470232</latitude><altitude>300</altitude><heading>345.3</heading><tilt>60</tilt><altitudeMode>relativeToGround</altitudeMode></Camera></gx:FlyTo><gx:FlyTo><gx:duration>5.72</gx:duration><gx:flyToMode>smooth</gx:flyToMode><Camera><longitude>138.860364</longitude><latitude>36.478000</latitude><altitude>300</altitude><heading>333.8</heading><tilt>60</tilt><altitudeMode>relativeToGround</altitudeMode></Camera></gx:FlyTo><gx:FlyTo><gx:duration>5.72</gx:duration><gx:flyToMode>smooth</gx:flyToMode><Camera><longitude>138.856974</longitude><latitude>36.483536</latitude><altitude>300</altitude><heading>324.7</heading><tilt>60</tilt><altitudeMode>relativeToGround</altitudeMode></Camera></gx:FlyTo><gx:FlyTo><gx:duration>5.72</gx:duration><gx:flyToMode>smooth</gx:flyToMode><Camera><longitude>138.852553</longitude><latitude>36.488557</latitude><altitude>300</altitude><heading>330.0</heading><tilt>60</tilt><altitudeMode>relativeToGround</altitudeMode></Camera></gx:FlyTo><gx:FlyTo><gx:duration>5.72</gx:duration><gx:flyToMode>smooth</gx:flyToMode><Camera><longitude>138.847318</longitude><latitude>36.495852</latitude><altitude>300</altitude><heading>1.2</heading><tilt>60</tilt><altitudeMode>relativeToGround</altitudeMode></Camera></gx:FlyTo><gx:FlyTo><gx:duration>5.72</gx:duration><gx:flyToMode>smooth</gx:flyToMode><Camera><longitude>138.847532</longitude><latitude>36.503963</latitude><altitude>300</altitude><heading>345.3</heading><tilt>60</tilt><altitudeMode>relativeToGround</altitudeMode></Camera></gx:FlyTo><gx:FlyTo><gx:duration>5.72</gx:duration><gx:flyToMode>smooth</gx:flyToMode><Camera><longitude>138.844829</longitude><latitude>36.512246</latitude><altitude>300</altitude><heading>300.9</heading><tilt>60</tilt><altitudeMode>relativeToGround</altitudeMode></Camera></gx:FlyTo><gx:FlyTo><gx:duration>5.72</gx:duration><gx:flyToMode>smooth</gx:flyToMode><Camera><longitude>138.836074</longitude><latitude>36.516452</latitude><altitude>300</altitude><heading>326.0</heading><tilt>60</tilt><altitudeMode>relativeToGround</altitudeMode></Camera></gx:FlyTo><gx:FlyTo><gx:duration>5.72</gx:duration><gx:flyToMode>smooth</gx:flyToMode><Camera><longitude>138.830194</longitude><latitude>36.523447</latitude><altitude>300</altitude><heading>330.8</heading><tilt>60</tilt><altitudeMode>relativeToGround</altitudeMode></Camera></gx:FlyTo><gx:FlyTo><gx:duration>5.72</gx:duration><gx:flyToMode>smooth</gx:flyToMode><Camera><longitude>138.825259</longitude><latitude>36.530528</latitude><altitude>300</altitude><heading>351.9</heading><tilt>60</tilt><altitudeMode>relativeToGround</altitudeMode></Camera></gx:FlyTo><gx:FlyTo><gx:duration>5.72</gx:duration><gx:flyToMode>smooth</gx:flyToMode><Camera><longitude>138.823714</longitude><latitude>36.539283</latitude><altitude>300</altitude><heading>5.3</heading><tilt>60</tilt><altitudeMode>relativeToGround</altitudeMode></Camera></gx:FlyTo><gx:FlyTo><gx:duration>5.72</gx:duration><gx:flyToMode>smooth</gx:flyToMode><Camera><longitude>138.824873</longitude><latitude>36.549282</latitude><altitude>300</altitude><heading>334.8</heading><tilt>60</tilt><altitudeMode>relativeToGround</altitudeMode></Camera></gx:FlyTo><gx:FlyTo><gx:duration>5.72</gx:duration><gx:flyToMode>smooth</gx:flyToMode><Camera><longitude>138.820324</longitude><latitude>36.557050</latitude><altitude>300</altitude><heading>8.0</heading><tilt>60</tilt><altitudeMode>relativeToGround</altitudeMode></Camera></gx:FlyTo><gx:FlyTo><gx:duration>5.72</gx:duration><gx:flyToMode>smooth</gx:flyToMode><Camera><longitude>138.821783</longitude><latitude>36.565375</latitude><altitude>300</altitude><heading>16.1</heading><tilt>60</tilt><altitudeMode>relativeToGround</altitudeMode></Camera></gx:FlyTo><gx:FlyTo><gx:duration>5.72</gx:duration><gx:flyToMode>smooth</gx:flyToMode><Camera><longitude>138.824229</longitude><latitude>36.572199</latitude><altitude>300</altitude><heading>36.0</heading><tilt>60</tilt><altitudeMode>relativeToGround</altitudeMode></Camera></gx:FlyTo><gx:FlyTo><gx:duration>5.72</gx:duration><gx:flyToMode>smooth</gx:flyToMode><Camera><longitude>138.830795</longitude><latitude>36.579452</latitude><altitude>300</altitude><heading>354.1</heading><tilt>60</tilt><altitudeMode>relativeToGround</altitudeMode></Camera></gx:FlyTo><gx:FlyTo><gx:duration>5.72</gx:duration><gx:flyToMode>smooth</gx:flyToMode><Camera><longitude>138.830109</longitude><latitude>36.584773</latitude><altitude>300</altitude><heading>298.0</heading><tilt>60</tilt><altitudeMode>relativeToGround</altitudeMode></Camera></gx:FlyTo><gx:FlyTo><gx:duration>5.72</gx:duration><gx:flyToMode>smooth</gx:flyToMode><Camera><longitude>138.819938</longitude><latitude>36.589108</latitude><altitude>300</altitude><heading>318.4</heading><tilt>60</tilt><altitudeMode>relativeToGround</altitudeMode></Camera></gx:FlyTo><gx:FlyTo><gx:duration>5.72</gx:duration><gx:flyToMode>smooth</gx:flyToMode><Camera><longitude>138.812642</longitude><latitude>36.595716</latitude><altitude>300</altitude><heading>300.9</heading><tilt>60</tilt><altitudeMode>relativeToGround</altitudeMode></Camera></gx:FlyTo><gx:FlyTo><gx:duration>5.72</gx:duration><gx:flyToMode>smooth</gx:flyToMode><Camera><longitude>138.803244</longitude><latitude>36.600223</latitude><altitude>300</altitude><heading>313.9</heading><tilt>60</tilt><altitudeMode>relativeToGround</altitudeMode></Camera></gx:FlyTo><gx:FlyTo><gx:duration>5.72</gx:duration><gx:flyToMode>smooth</gx:flyToMode><Camera><longitude>138.795691</longitude><latitude>36.606059</latitude><altitude>300</altitude><heading>5.8</heading><tilt>60</tilt><altitudeMode>relativeToGround</altitudeMode></Camera></gx:FlyTo><gx:FlyTo><gx:duration>5.72</gx:duration><gx:flyToMode>smooth</gx:flyToMode><Camera><longitude>138.796763</longitude><latitude>36.614599</latitude><altitude>300</altitude><heading>0.7</heading><tilt>60</tilt><altitudeMode>relativeToGround</altitudeMode></Camera></gx:FlyTo><gx:FlyTo><gx:duration>5.72</gx:duration><gx:flyToMode>smooth</gx:flyToMode><Camera><longitude>138.796892</longitude><latitude>36.623225</latitude><altitude>300</altitude><heading>345.3</heading><tilt>60</tilt><altitudeMode>relativeToGround</altitudeMode></Camera></gx:FlyTo><gx:FlyTo><gx:duration>5.72</gx:duration><gx:flyToMode>smooth</gx:flyToMode><Camera><longitude>138.794103</longitude><latitude>36.631765</latitude><altitude>300</altitude><heading>353.5</heading><tilt>60</tilt><altitudeMode>relativeToGround</altitudeMode></Camera></gx:FlyTo><gx:FlyTo><gx:duration>5.72</gx:duration><gx:flyToMode>smooth</gx:flyToMode><Camera><longitude>138.792901</longitude><latitude>36.640220</latitude><altitude>300</altitude><heading>24.7</heading><tilt>60</tilt><altitudeMode>relativeToGround</altitudeMode></Camera></gx:FlyTo><gx:FlyTo><gx:duration>5.72</gx:duration><gx:flyToMode>smooth</gx:flyToMode><Camera><longitude>138.797407</longitude><latitude>36.648073</latitude><altitude>300</altitude><heading>2.3</heading><tilt>60</tilt><altitudeMode>relativeToGround</altitudeMode></Camera></gx:FlyTo><gx:FlyTo><gx:duration>5.72</gx:duration><gx:flyToMode>smooth</gx:flyToMode><Camera><longitude>138.797879</longitude><latitude>36.657472</latitude><altitude>300</altitude><heading>334.2</heading><tilt>60</tilt><altitudeMode>relativeToGround</altitudeMode></Camera></gx:FlyTo><gx:FlyTo><gx:duration>5.72</gx:duration><gx:flyToMode>smooth</gx:flyToMode><Camera><longitude>138.793373</longitude><latitude>36.664939</latitude><altitude>300</altitude><heading>321.1</heading><tilt>60</tilt><altitudeMode>relativeToGround</altitudeMode></Camera></gx:FlyTo><gx:FlyTo><gx:duration>5.72</gx:duration><gx:flyToMode>smooth</gx:flyToMode><Camera><longitude>138.785820</longitude><latitude>36.672449</latitude><altitude>300</altitude><heading>341.4</heading><tilt>60</tilt><altitudeMode>relativeToGround</altitudeMode></Camera></gx:FlyTo><gx:FlyTo><gx:duration>5.72</gx:duration><gx:flyToMode>smooth</gx:flyToMode><Camera><longitude>138.782558</longitude><latitude>36.680217</latitude><altitude>300</altitude><heading>319.6</heading><tilt>60</tilt><altitudeMode>relativeToGround</altitudeMode></Camera></gx:FlyTo><gx:FlyTo><gx:duration>5.72</gx:duration><gx:flyToMode>smooth</gx:flyToMode><Camera><longitude>138.776035</longitude><latitude>36.686354</latitude><altitude>300</altitude><heading>1.5</heading><tilt>60</tilt><altitudeMode>relativeToGround</altitudeMode></Camera></gx:FlyTo><gx:FlyTo><gx:duration>5.72</gx:duration><gx:flyToMode>smooth</gx:flyToMode><Camera><longitude>138.776293</longitude><latitude>36.694036</latitude><altitude>300</altitude><heading>327.7</heading><tilt>60</tilt><altitudeMode>relativeToGround</altitudeMode></Camera></gx:FlyTo><gx:FlyTo><gx:duration>5.72</gx:duration><gx:flyToMode>smooth</gx:flyToMode><Camera><longitude>138.774017</longitude><latitude>36.696923</latitude><altitude>300</altitude><heading>327.7</heading><tilt>60</tilt><altitudeMode>relativeToGround</altitudeMode></Camera></gx:FlyTo></gx:Playlist></gx:Tour>
<Placemark><name>Route line — 10/5 Mon</name><visibility>0</visibility><styleUrl>#rt</styleUrl><LineString><altitudeMode>relativeToGround</altitudeMode><coordinates>139.780697,35.735943,120 139.780668,35.735884,120 139.780855,35.735822,120 139.781113,35.735779,120 139.781928,35.735521,120 139.782400,35.735393,120 139.783173,35.735135,120 139.783387,35.735092,120 139.783688,35.735006,120 139.784460,35.734749,120 139.784932,35.734663,120 139.785790,35.734406,120 139.786348,35.734277,120 139.786520,35.734148,120 139.786692,35.733976,120 139.787378,35.732989,120 139.787593,35.732689,120 139.787765,35.732431,120 139.788151,35.732174,120 139.788365,35.732045,120 139.788709,35.731831,120 139.788752,35.731788,120 139.788880,35.731745,120 139.789310,35.731487,120 139.789824,35.731230,120 139.789953,35.731144,120 139.790297,35.730929,120 139.790640,35.730715,120 139.791026,35.730500,120 139.791284,35.730329,120 139.791412,35.730286,120 139.791799,35.730028,120 139.792013,35.730543,120 139.792185,35.731015,120 139.792228,35.731187,120 139.792356,35.731530,120 139.792614,35.732217,120 139.792914,35.732732,120 139.793086,35.732903,120 139.793129,35.732989,120 139.793344,35.733290,120 139.793515,35.733461,120 139.794245,35.734363,120 139.794416,35.734534,120 139.794674,35.734792,120 139.794803,35.734921,120 139.795189,35.735307,120 139.795532,35.735736,120 139.796476,35.736723,120 139.796605,35.736852,120 139.796777,35.737667,120 139.796820,35.737796,120 139.796820,35.738053,120 139.796863,35.738268,120 139.796991,35.738482,120 139.797120,35.738783,120 139.797206,35.738955,120 139.797592,35.739813,120 139.797721,35.740027,120 139.797764,35.740242,120 139.797893,35.740414,120 139.797978,35.740757,120 139.798021,35.741014,120 139.798021,35.741143,120 139.797978,35.741401,120 139.797850,35.741959,120 139.797850,35.742044,120 139.797721,35.742388,120 139.797592,35.742688,120 139.797463,35.743375,120 139.797549,35.743890,120 139.797721,35.744405,120 139.797850,35.744877,120 139.797978,35.745263,120 139.798150,35.745692,120 139.798322,35.746207,120 139.798450,35.746551,120 139.798493,35.746679,120 139.798751,35.747581,120 139.798965,35.748181,120 139.799094,35.748439,120 139.799223,35.748825,120 139.799309,35.749125,120 139.799738,35.750499,120 139.799781,35.750585,120 139.799867,35.750885,120 139.799995,35.751271,120 139.800210,35.751829,120 139.800339,35.752215,120 139.800553,35.752816,120 139.800639,35.753160,120 139.800682,35.753245,120 139.800725,35.753417,120 139.800982,35.754147,120 139.801025,35.754318,120 139.801240,35.754833,120 139.801369,35.755177,120 139.801927,35.756807,120 139.802055,35.757236,120 139.803085,35.760627,120 139.803300,35.761271,120 139.803012,35.761353,120 139.803012,35.761352,120 139.803012,35.761353,120 139.802999,35.761356,120 139.802227,35.761571,120 139.801798,35.761700,120 139.801369,35.761871,120 139.800725,35.761957,120 139.799523,35.762043,120 139.798365,35.762086,120 139.796948,35.762000,120 139.796090,35.761914,120 139.792957,35.761614,120 139.788151,35.760756,120 139.780469,35.759640,120 139.777980,35.759468,120 139.776220,35.759382,120 139.773946,35.759511,120 139.771371,35.759854,120 139.769568,35.760326,120 139.768581,35.760670,120 139.766865,35.761485,120 139.765577,35.762258,120 139.764590,35.763073,120 139.764462,35.763245,120 139.764333,35.763416,120 139.763818,35.764017,120 139.763346,35.764832,120 139.762831,35.766120,120 139.761801,35.768523,120 139.761629,35.768909,120 139.761243,35.769553,120 139.760427,35.770497,120 139.759483,35.771270,120 139.757853,35.772257,120 139.756522,35.772901,120 139.753990,35.773759,120 139.753003,35.774188,120 139.749527,35.776291,120 139.748926,35.776463,120 139.748282,35.776892,120 139.747853,35.777063,120 139.747767,35.777106,120 139.746780,35.777750,120 139.746780,35.777793,120 139.746737,35.777836,120 139.746609,35.777879,120 139.742961,35.775390,120 139.742703,35.775218,120 139.740815,35.773931,120 139.740644,35.773802,120 139.740086,35.773416,120 139.739528,35.773029,120 139.738712,35.772514,120 139.738111,35.772085,120 139.737897,35.771956,120 139.737382,35.771613,120 139.737167,35.771441,120 139.735708,35.770454,120 139.734635,35.769725,120 139.734163,35.769510,120 139.731932,35.768867,120 139.731803,35.768824,120 139.731588,35.768781,120 139.731417,35.768738,120 139.731245,35.768695,120 139.730945,35.768609,120 139.730515,35.768480,120 139.730172,35.768394,120 139.730043,35.768352,120 139.729829,35.768266,120 139.729657,35.768223,120 139.729400,35.768180,120 139.728928,35.768051,120 139.728456,35.767879,120 139.728284,35.767837,120 139.727554,35.767665,120 139.725666,35.767107,120 139.724507,35.766764,120 139.723864,35.766592,120 139.723692,35.766549,120 139.723392,35.766549,120 139.723091,35.766549,120 139.722962,35.766549,120 139.721847,35.766463,120 139.721289,35.766292,120 139.720731,35.766034,120 139.720173,35.765734,120 139.719272,35.765262,120 139.719014,35.765133,120 139.718285,35.764875,120 139.717984,35.764790,120 139.717641,35.764661,120 139.717212,35.764532,120 139.716868,35.764446,120 139.716697,35.764403,120 139.716353,35.764318,120 139.716182,35.764275,120 139.715838,35.764189,120 139.715796,35.764146,120 139.713306,35.763502,120 139.710689,35.762687,120 139.710431,35.762644,120 139.709830,35.762429,120 139.709358,35.762300,120 139.709101,35.762215,120 139.708586,35.762086,120 139.708028,35.761871,120 139.706869,35.761528,120 139.705453,35.761271,120 139.703865,35.760884,120 139.703650,35.760841,120 139.703307,35.760756,120 139.703135,35.760713,120 139.703007,35.760670,120 139.702535,35.760584,120 139.701805,35.760369,120 139.701548,35.760326,120 139.700818,35.760112,120 139.700689,35.760069,120 139.700389,35.759983,120 139.699831,35.759854,120 139.699616,35.759811,120 139.699144,35.759683,120 139.698887,35.759640,120 139.698029,35.759425,120 139.697127,35.759168,120 139.696012,35.758910,120 139.695497,35.758781,120 139.694896,35.758610,120 139.694467,35.758524,120 139.694338,35.758481,120 139.693608,35.758266,120 139.693265,35.758181,120 139.693093,35.758138,120 139.692879,35.758095,120 139.692707,35.758052,120 139.691935,35.757623,120 139.690561,35.756764,120 139.690518,35.756721,120 139.690304,35.756593,120 139.689832,35.756249,120 139.689746,35.756121,120 139.689016,35.755649,120 139.688201,35.755134,120 139.687943,35.755177,120 139.687471,35.755477,120 139.686742,35.755906,120 139.686441,35.756078,120 139.685025,35.756850,120 139.684596,35.757151,120 139.684253,35.757365,120 139.683309,35.757880,120 139.683223,35.757923,120 139.681635,35.758781,120 139.680562,35.759296,120 139.680090,35.759511,120 139.679618,35.759683,120 139.678974,35.759854,120 139.678845,35.759897,120 139.677815,35.760198,120 139.676356,35.760584,120 139.675498,35.760841,120 139.674854,35.761013,120 139.674425,35.761142,120 139.673696,35.761356,120 139.672837,35.761571,120 139.671893,35.761828,120 139.670777,35.762172,120 139.670477,35.762258,120 139.670048,35.762386,120 139.669404,35.762558,120 139.668632,35.762773,120 139.667430,35.763116,120 139.666915,35.763245,120 139.665542,35.763631,120 139.664726,35.763845,120 139.664125,35.763545,120 139.663911,35.763416,120 139.663739,35.763330,120 139.663310,35.763159,120 139.662495,35.762773,120 139.662108,35.762687,120 139.661508,35.762386,120 139.661207,35.762258,120 139.660907,35.762086,120 139.660606,35.761957,120 139.660349,35.761828,120 139.659748,35.761528,120 139.659061,35.761185,120 139.658375,35.760841,120 139.657516,35.760455,120 139.656830,35.760112,120 139.656186,35.759811,120 139.655843,35.759640,120 139.655242,35.759339,120 139.654770,35.759082,120 139.654083,35.758739,120 139.653482,35.758395,120 139.653225,35.758266,120 139.653139,35.758224,120 139.652367,35.757837,120 139.651594,35.757451,120 139.651337,35.757322,120 139.651208,35.757279,120 139.650908,35.757108,120 139.650607,35.756936,120 139.649963,35.756593,120 139.649277,35.756207,120 139.648890,35.755992,120 139.648547,35.755820,120 139.648290,35.755692,120 139.647946,35.755520,120 139.647603,35.755305,120 139.646959,35.754962,120 139.645028,35.753932,120 139.644084,35.753417,120 139.643741,35.753202,120 139.640608,35.751572,120 139.640436,35.751443,120 139.640307,35.751400,120 139.639449,35.750928,120 139.637389,35.749812,120 139.636960,35.749598,120 139.636660,35.749426,120 139.636359,35.749297,120 139.636145,35.749168,120 139.635844,35.748997,120 139.635587,35.748825,120 139.635243,35.748653,120 139.634814,35.748439,120 139.633613,35.747752,120 139.633269,35.747581,120 139.633226,35.747581,120 139.633012,35.747323,120 139.632411,35.746937,120 139.631424,35.746293,120 139.631166,35.746121,120 139.631038,35.746036,120 139.629965,35.745349,120 139.629836,35.745263,120 139.629793,35.745220,120 139.629407,35.744963,120 139.629192,35.744877,120 139.628935,35.744705,120 139.628720,35.744791,120 139.628420,35.744963,120 139.628334,35.745006,120 139.628248,35.745049,120 139.628119,35.745134,120 139.627519,35.745435,120 139.626660,35.745907,120 139.626532,35.745993,120 139.625716,35.746379,120 139.624300,35.747151,120 139.623656,35.747452,120 139.621768,35.748439,120 139.621639,35.748482,120 139.620867,35.748911,120 139.620094,35.749083,120 139.619107,35.749125,120 139.618764,35.749168,120 139.618506,35.749168,120 139.618163,35.749168,120 139.617391,35.749211,120 139.617004,35.749254,120 139.616489,35.749297,120 139.614301,35.749469,120 139.613614,35.749598,120 139.613056,35.749769,120 139.612198,35.750327,120 139.611511,35.750971,120 139.611211,35.751185,120 139.610782,35.751572,120 139.610567,35.751829,120 139.610267,35.752087,120 139.609451,35.752859,120 139.609022,35.753202,120 139.608507,35.753717,120 139.607649,35.754361,120 139.607520,35.754447,120 139.606791,35.754704,120 139.604731,35.755305,120 139.603057,35.755863,120 139.602156,35.756249,120 139.601469,35.756636,120 139.600267,35.757451,120 139.598551,35.758824,120 139.598336,35.758996,120 139.597006,35.760112,120 139.596276,35.760627,120 139.595032,35.761356,120 139.594002,35.761871,120 139.592671,35.762472,120 139.590998,35.762987,120 139.589925,35.763245,120 139.587393,35.763631,120 139.584947,35.763888,120 139.582672,35.764103,120 139.579711,35.764618,120 139.578509,35.765004,120 139.576664,35.765691,120 139.574862,35.766635,120 139.573359,35.767708,120 139.572759,35.768223,120 139.571257,35.769811,120 139.570527,35.770755,120 139.568210,35.774403,120 139.567266,35.775776,120 139.566965,35.776162,120 139.565463,35.777965,120 139.564347,35.779123,120 139.562759,35.780582,120 139.561257,35.781784,120 139.559197,35.783243,120 139.556880,35.784616,120 139.550571,35.788178,120 139.548125,35.789809,120 139.546366,35.791225,120 139.544950,35.792642,120 139.544477,35.793200,120 139.543877,35.793929,120 139.542589,35.795732,120 139.541559,35.797148,120 139.540358,35.798779,120 139.539628,35.799680,120 139.538684,35.800710,120 139.536967,35.802169,120 139.535937,35.803027,120 139.533019,35.805516,120 139.532332,35.806160,120 139.531989,35.806503,120 139.531474,35.806975,120 139.530058,35.808692,120 139.529843,35.808992,120 139.525852,35.814743,120 139.524179,35.816846,120 139.522548,35.818648,120 139.520788,35.820408,120 139.518256,35.822511,120 139.512677,35.826802,120 139.511175,35.828047,120 139.509029,35.830107,120 139.507012,35.832553,120 139.505510,35.834956,120 139.504738,35.836544,120 139.504180,35.837874,120 139.503407,35.840793,120 139.502892,35.843840,120 139.502764,35.844827,120 139.502635,35.845299,120 139.502206,35.847402,120 139.501691,35.849161,120 139.500704,35.851393,120 139.499116,35.853882,120 139.498215,35.854998,120 139.496841,35.856457,120 139.496799,35.856500,120 139.496241,35.857015,120 139.494739,35.858259,120 139.493794,35.858989,120 139.489117,35.862079,120 139.487658,35.863194,120 139.485855,35.864954,120 139.484310,35.866885,120 139.483194,35.868731,120 139.482594,35.869975,120 139.481091,35.873752,120 139.479976,35.876026,120 139.478774,35.877829,120 139.477186,35.879631,120 139.475298,35.881305,120 139.473839,35.882378,120 139.472594,35.883150,120 139.465470,35.887313,120 139.463067,35.889072,120 139.462724,35.889373,120 139.461608,35.890403,120 139.461308,35.890703,120 139.460578,35.891433,120 139.459162,35.893235,120 139.458904,35.893579,120 139.458561,35.894094,120 139.458389,35.894394,120 139.458218,35.894608,120 139.458003,35.894909,120 139.457831,35.895166,120 139.457703,35.895381,120 139.451823,35.904307,120 139.450750,35.905638,120 139.449592,35.906839,120 139.448047,35.908127,120 139.446845,35.908985,120 139.444957,35.910015,120 139.442596,35.911045,120 139.439807,35.911860,120 139.435902,35.912633,120 139.432898,35.913148,120 139.429507,35.913877,120 139.428992,35.913963,120 139.427662,35.914307,120 139.426847,35.914564,120 139.423971,35.915594,120 139.422770,35.916109,120 139.421482,35.916710,120 139.420881,35.917010,120 139.419765,35.917654,120 139.418821,35.918212,120 139.416461,35.919886,120 139.415088,35.920959,120 139.413285,35.922718,120 139.411783,35.924478,120 139.411097,35.925379,120 139.409637,35.927610,120 139.408307,35.929971,120 139.407277,35.932031,120 139.404831,35.937223,120 139.403844,35.939198,120 139.402900,35.940785,120 139.401741,35.942545,120 139.401569,35.942760,120 139.401054,35.943360,120 139.399896,35.944734,120 139.399638,35.944948,120 139.398179,35.946364,120 139.398007,35.946493,120 139.397449,35.946922,120 139.395862,35.948124,120 139.395390,35.948381,120 139.394188,35.949197,120 139.393930,35.949368,120 139.392815,35.949926,120 139.392385,35.950184,120 139.388437,35.952244,120 139.385905,35.953918,120 139.384360,35.955248,120 139.383974,35.955634,120 139.383073,35.956664,120 139.382129,35.958123,120 139.381571,35.959153,120 139.381185,35.960183,120 139.380755,35.961685,120 139.380498,35.963573,120 139.380155,35.968981,120 139.379854,35.975289,120 139.379811,35.977736,120 139.379983,35.979753,120 139.380369,35.981555,120 139.380412,35.981812,120 139.380584,35.982499,120 139.381555,35.984981,120 139.381617,35.984965,120 139.381555,35.984981,120 139.381742,35.985460,120 139.382086,35.986876,120 139.382386,35.987177,120 139.382815,35.987263,120 139.383459,35.987134,120 139.383588,35.987134,120 139.383674,35.987220,120 139.383931,35.987692,120 139.383888,35.987821,120 139.383759,35.987864,120 139.383245,35.988035,120 139.382987,35.988250,120 139.382987,35.988550,120 139.384060,35.989838,120 139.384961,35.991297,120 139.386206,35.993786,120 139.386764,35.995245,120 139.387579,35.997820,120 139.387622,35.998120,120 139.387879,35.999708,120 139.387965,36.000867,120 139.387965,36.002069,120 139.387879,36.003184,120 139.387708,36.004386,120 139.387364,36.006103,120 139.387064,36.007090,120 139.386592,36.008291,120 139.383802,36.014686,120 139.383159,36.016617,120 139.382601,36.018763,120 139.382257,36.021080,120 139.382043,36.022539,120 139.381957,36.023140,120 139.381485,36.026874,120 139.381356,36.027431,120 139.381185,36.027946,120 139.380841,36.029406,120 139.380627,36.030006,120 139.379597,36.032410,120 139.378610,36.033998,120 139.377279,36.035628,120 139.375820,36.037130,120 139.374576,36.038117,120 139.373631,36.038847,120 139.371786,36.040006,120 139.370670,36.040692,120 139.369211,36.041379,120 139.366894,36.042323,120 139.364834,36.043010,120 139.362345,36.043568,120 139.361658,36.043696,120 139.359555,36.043997,120 139.354877,36.044340,120 139.354191,36.044426,120 139.352603,36.044683,120 139.351144,36.045027,120 139.350243,36.045327,120 139.348311,36.046143,120 139.346595,36.047087,120 139.345865,36.047559,120 139.345093,36.048203,120 139.344149,36.049147,120 139.342604,36.050777,120 139.341187,36.052194,120 139.340243,36.052923,120 139.339514,36.053481,120 139.338269,36.054211,120 139.337325,36.054726,120 139.334579,36.056013,120 139.332862,36.056871,120 139.330630,36.058288,120 139.328785,36.059747,120 139.325266,36.063094,120 139.324708,36.063566,120 139.323506,36.064425,120 139.322176,36.065197,120 139.320760,36.065841,120 139.319773,36.066227,120 139.318271,36.066613,120 139.317412,36.066828,120 139.315481,36.067257,120 139.311962,36.068115,120 139.309816,36.068888,120 139.308486,36.069489,120 139.307327,36.070132,120 139.305825,36.071076,120 139.303894,36.072707,120 139.302692,36.073909,120 139.301877,36.074982,120 139.301233,36.075969,120 139.299560,36.079016,120 139.298315,36.080990,120 139.296727,36.082749,120 139.295740,36.083565,120 139.295440,36.083779,120 139.294796,36.084251,120 139.294109,36.084681,120 139.294024,36.084766,120 139.293637,36.084981,120 139.291191,36.086526,120 139.289775,36.087556,120 139.289002,36.088243,120 139.287372,36.090002,120 139.286385,36.091375,120 139.283381,36.097169,120 139.281793,36.099701,120 139.280376,36.101718,120 139.279261,36.103091,120 139.277287,36.105323,120 139.276299,36.106310,120 139.274240,36.108241,120 139.272523,36.109700,120 139.270463,36.111331,120 139.267588,36.113305,120 139.263725,36.115580,120 139.256773,36.119485,120 139.252739,36.121802,120 139.251323,36.122618,120 139.248490,36.124206,120 139.247847,36.124592,120 139.247589,36.124763,120 139.246817,36.125193,120 139.246259,36.125493,120 139.246087,36.125579,120 139.245787,36.125751,120 139.243684,36.126952,120 139.243040,36.127338,120 139.241409,36.128240,120 139.239092,36.129527,120 139.235187,36.131802,120 139.233685,36.132746,120 139.232183,36.133776,120 139.230552,36.135063,120 139.228964,36.136479,120 139.228106,36.137338,120 139.227033,36.138539,120 139.225659,36.140385,120 139.224973,36.141372,120 139.223857,36.143260,120 139.222312,36.146393,120 139.221196,36.148410,120 139.220123,36.150169,120 139.219093,36.151671,120 139.217505,36.153688,120 139.216089,36.155233,120 139.214544,36.156735,120 139.212999,36.158109,120 139.210296,36.160169,120 139.209352,36.160855,120 139.206820,36.162443,120 139.204245,36.163816,120 139.200983,36.165705,120 139.199696,36.166563,120 139.197679,36.168151,120 139.196992,36.168838,120 139.196262,36.169524,120 139.196177,36.169610,120 139.195962,36.169825,120 139.195275,36.170640,120 139.193902,36.172442,120 139.193001,36.173987,120 139.192443,36.175060,120 139.191542,36.177292,120 139.191070,36.178880,120 139.190769,36.181111,120 139.190555,36.184802,120 139.190383,36.186991,120 139.190254,36.187849,120 139.189868,36.189394,120 139.189482,36.190553,120 139.188280,36.193171,120 139.188023,36.193600,120 139.187207,36.194973,120 139.186349,36.196089,120 139.185405,36.197205,120 139.183860,36.198750,120 139.183173,36.199393,120 139.181113,36.200938,120 139.176049,36.204200,120 139.174376,36.205444,120 139.173517,36.206217,120 139.171672,36.208019,120 139.170127,36.209865,120 139.168324,36.212397,120 139.166436,36.215615,120 139.165578,36.216903,120 139.163990,36.219049,120 139.163818,36.219263,120 139.163561,36.219606,120 139.163475,36.219735,120 139.163389,36.219864,120 139.162488,36.220851,120 139.161844,36.221623,120 139.159184,36.224198,120 139.157338,36.225743,120 139.154377,36.228018,120 139.152617,36.229520,120 139.151158,36.230979,120 139.148970,36.233597,120 139.147682,36.235700,120 139.147425,36.236086,120 139.145794,36.239433,120 139.145536,36.239905,120 139.144506,36.241879,120 139.143262,36.243596,120 139.141717,36.245356,120 139.141116,36.245956,120 139.139957,36.246901,120 139.139657,36.247115,120 139.137726,36.248488,120 139.136910,36.248875,120 139.135966,36.249390,120 139.134679,36.249990,120 139.131975,36.250978,120 139.131417,36.251192,120 139.125624,36.253166,120 139.123907,36.253724,120 139.123821,36.253747,120 139.123822,36.253750,120 139.123821,36.253747,120 139.121804,36.254282,120 139.121418,36.254411,120 139.118156,36.255484,120 139.116783,36.256084,120 139.115667,36.256514,120 139.114981,36.256728,120 139.106827,36.259561,120 139.105496,36.260118,120 139.103694,36.261063,120 139.101934,36.262264,120 139.100304,36.263638,120 139.099016,36.265011,120 139.097986,36.266384,120 139.097214,36.267629,120 139.096184,36.270032,120 139.095583,36.272178,120 139.095454,36.273165,120 139.095368,36.273894,120 139.095411,36.275826,120 139.095755,36.278443,120 139.095798,36.278658,120 139.097342,36.284451,120 139.097686,36.286426,120 139.097857,36.288056,120 139.097900,36.290030,120 139.097815,36.291575,120 139.097600,36.293035,120 139.097171,36.295052,120 139.096484,36.297112,120 139.095669,36.299214,120 139.094639,36.301489,120 139.093738,36.303205,120 139.093394,36.303849,120 139.092064,36.306081,120 139.090519,36.308398,120 139.090176,36.308870,120 139.089746,36.309471,120 139.087987,36.311445,120 139.087043,36.312432,120 139.086442,36.313033,120 139.085712,36.313677,120 139.084897,36.314363,120 139.083095,36.315866,120 139.079790,36.318183,120 139.075885,36.320543,120 139.075370,36.320887,120 139.072280,36.322818,120 139.070005,36.324449,120 139.067516,36.326423,120 139.065199,36.328697,120 139.062881,36.331401,120 139.060864,36.334147,120 139.059448,36.336465,120 139.058547,36.338010,120 139.057388,36.339984,120 139.056616,36.341100,120 139.056187,36.341701,120 139.055028,36.343160,120 139.054041,36.344233,120 139.051852,36.346250,120 139.051251,36.346722,120 139.040480,36.355648,120 139.040008,36.356034,120 139.037776,36.358008,120 139.035974,36.359854,120 139.034386,36.361613,120 139.033141,36.363244,120 139.032798,36.363759,120 139.031339,36.366034,120 139.030566,36.367321,120 139.029794,36.368823,120 139.028807,36.371484,120 139.028077,36.373072,120 139.027948,36.373200,120 139.027476,36.373458,120 139.026875,36.373672,120 139.026704,36.373801,120 139.026575,36.374145,120 139.026747,36.374531,120 139.027305,36.374831,120 139.029408,36.375690,120 139.029751,36.375818,120 139.030137,36.375990,120 139.030738,36.376290,120 139.031081,36.376376,120 139.031467,36.376376,120 139.031768,36.376247,120 139.031982,36.376033,120 139.032025,36.375861,120 139.031982,36.375647,120 139.031768,36.375432,120 139.031425,36.375303,120 139.029193,36.374145,120 139.028335,36.373630,120 139.027433,36.373072,120 139.026446,36.372342,120 139.025545,36.371698,120 139.024558,36.370840,120 139.023700,36.369939,120 139.023099,36.369252,120 139.022627,36.368694,120 139.021168,36.366634,120 139.020395,36.365519,120 139.019752,36.364532,120 139.019108,36.363630,120 139.018164,36.362214,120 139.017305,36.360970,120 139.017134,36.360712,120 139.016361,36.359553,120 139.015760,36.358738,120 139.015074,36.357837,120 139.014258,36.356936,120 139.014087,36.356721,120 139.013658,36.356249,120 139.013014,36.355691,120 139.012713,36.355433,120 139.011898,36.354790,120 139.011812,36.354704,120 139.011383,36.354361,120 139.009967,36.353416,120 139.007006,36.351571,120 139.006877,36.351614,120 139.005976,36.351914,120 139.004817,36.352344,120 139.003015,36.352987,120 139.001298,36.353331,120 139.001126,36.353331,120 139.000826,36.353374,120 139.000397,36.353374,120 138.999066,36.353374,120 138.998079,36.353416,120 138.997307,36.353416,120 138.996835,36.353459,120 138.996577,36.353459,120 138.996534,36.353545,120 138.996191,36.354060,120 138.995848,36.354446,120 138.995118,36.354961,120 138.994603,36.355391,120 138.994346,36.355562,120 138.993745,36.356077,120 138.993444,36.356292,120 138.993316,36.356378,120 138.992801,36.356807,120 138.991985,36.357536,120 138.991213,36.358137,120 138.990312,36.358910,120 138.990269,36.358953,120 138.990226,36.358995,120 138.989925,36.359167,120 138.989582,36.359253,120 138.989110,36.359296,120 138.988767,36.359296,120 138.987780,36.359339,120 138.987222,36.359510,120 138.986750,36.359682,120 138.986406,36.359811,120 138.985591,36.360111,120 138.984990,36.360283,120 138.983703,36.360798,120 138.982630,36.361184,120 138.982458,36.361270,120 138.981471,36.361613,120 138.980055,36.362128,120 138.978810,36.362600,120 138.978081,36.362858,120 138.977780,36.362858,120 138.977695,36.363115,120 138.977609,36.363287,120 138.976579,36.365132,120 138.976192,36.365776,120 138.975635,36.366849,120 138.975248,36.367450,120 138.974862,36.368136,120 138.974004,36.369853,120 138.973060,36.371784,120 138.972073,36.373715,120 138.971901,36.374059,120 138.971772,36.374273,120 138.971729,36.374402,120 138.971472,36.374960,120 138.971171,36.375561,120 138.971000,36.375775,120 138.970442,36.376290,120 138.970227,36.376505,120 138.969455,36.377192,120 138.968854,36.377749,120 138.968210,36.378307,120 138.968124,36.378393,120 138.967738,36.378736,120 138.967566,36.378865,120 138.967609,36.378994,120 138.967481,36.379337,120 138.966751,36.380839,120 138.966579,36.381183,120 138.966150,36.382084,120 138.965206,36.384015,120 138.964691,36.385088,120 138.964605,36.385303,120 138.964176,36.386118,120 138.963962,36.386547,120 138.963747,36.386933,120 138.963361,36.387706,120 138.962932,36.388521,120 138.962331,36.389508,120 138.961301,36.391139,120 138.961000,36.391826,120 138.960485,36.392727,120 138.960400,36.393242,120 138.960185,36.394143,120 138.960099,36.394486,120 138.960013,36.394873,120 138.958898,36.394658,120 138.958597,36.394615,120 138.958468,36.394572,120 138.958340,36.394572,120 138.957481,36.394401,120 138.956537,36.394186,120 138.956151,36.394873,120 138.955979,36.395216,120 138.955507,36.396160,120 138.955164,36.396718,120 138.954434,36.398005,120 138.954048,36.398692,120 138.953791,36.399078,120 138.953276,36.398907,120 138.953061,36.398864,120 138.952503,36.398821,120 138.952289,36.398864,120 138.952160,36.398864,120 138.951902,36.398907,120 138.951344,36.399593,120 138.951130,36.399679,120 138.950872,36.399679,120 138.950615,36.399679,120 138.950014,36.399679,120 138.949928,36.399679,120 138.949413,36.399722,120 138.947868,36.400151,120 138.947139,36.400709,120 138.946881,36.400924,120 138.946323,36.401868,120 138.945465,36.403027,120 138.945336,36.403370,120 138.945036,36.403713,120 138.944607,36.404014,120 138.944092,36.404314,120 138.943405,36.404657,120 138.942246,36.405001,120 138.941689,36.405215,120 138.941216,36.405516,120 138.940444,36.405859,120 138.940015,36.405988,120 138.939629,36.406031,120 138.939371,36.406031,120 138.938813,36.406374,120 138.938298,36.406589,120 138.937783,36.406760,120 138.937483,36.407232,120 138.937311,36.407490,120 138.936410,36.408176,120 138.935723,36.408648,120 138.934822,36.409035,120 138.934178,36.409378,120 138.933105,36.409893,120 138.932762,36.409979,120 138.932505,36.409850,120 138.931947,36.409636,120 138.931389,36.409636,120 138.930831,36.409807,120 138.930402,36.409936,120 138.929758,36.410322,120 138.929586,36.410494,120 138.929114,36.410923,120 138.928170,36.411095,120 138.927054,36.411610,120 138.926368,36.411695,120 138.925853,36.411824,120 138.925381,36.412168,120 138.924007,36.412897,120 138.923879,36.412983,120 138.923063,36.413498,120 138.922591,36.413841,120 138.922033,36.414356,120 138.921733,36.414528,120 138.921218,36.414742,120 138.920789,36.415043,120 138.919759,36.415730,120 138.918128,36.416631,120 138.915081,36.417789,120 138.914309,36.418090,120 138.913150,36.418777,120 138.911691,36.419806,120 138.910747,36.420493,120 138.909802,36.421266,120 138.909545,36.421351,120 138.908901,36.421309,120 138.908815,36.421309,120 138.908300,36.421351,120 138.907571,36.421866,120 138.905811,36.423283,120 138.904395,36.424398,120 138.903666,36.424828,120 138.903279,36.425042,120 138.901777,36.425729,120 138.901391,36.425815,120 138.900661,36.425943,120 138.899717,36.426544,120 138.897872,36.427274,120 138.897314,36.427875,120 138.897185,36.428003,120 138.896885,36.428347,120 138.896670,36.428647,120 138.896027,36.429076,120 138.895469,36.429634,120 138.894825,36.430149,120 138.893623,36.430836,120 138.893194,36.431179,120 138.892937,36.431394,120 138.892851,36.431694,120 138.892550,36.431994,120 138.892465,36.432338,120 138.892293,36.432552,120 138.891950,36.432810,120 138.891778,36.432767,120 138.891735,36.432638,120 138.891692,36.432424,120 138.891563,36.432209,120 138.891220,36.432166,120 138.887572,36.432681,120 138.887100,36.432939,120 138.886199,36.433153,120 138.885512,36.433539,120 138.884354,36.434999,120 138.884225,36.435385,120 138.884354,36.435814,120 138.883538,36.437874,120 138.882895,36.439419,120 138.882895,36.440020,120 138.882380,36.441092,120 138.881993,36.441607,120 138.882079,36.441994,120 138.881865,36.442509,120 138.881993,36.443281,120 138.882208,36.443496,120 138.882122,36.443796,120 138.881865,36.444182,120 138.881135,36.444998,120 138.881049,36.445169,120 138.881049,36.445942,120 138.881178,36.446543,120 138.881178,36.446671,120 138.880792,36.447101,120 138.880491,36.447401,120 138.879976,36.447659,120 138.878689,36.447873,120 138.878303,36.447873,120 138.877831,36.447916,120 138.877230,36.448517,120 138.876586,36.448474,120 138.876157,36.448560,120 138.876114,36.448689,120 138.876200,36.449075,120 138.876114,36.449289,120 138.875771,36.449504,120 138.875170,36.449633,120 138.874784,36.449804,120 138.873711,36.450620,120 138.873539,36.450877,120 138.873410,36.451478,120 138.873239,36.451778,120 138.873153,36.451821,120 138.872809,36.451564,120 138.872595,36.451521,120 138.872509,36.451607,120 138.872466,36.451693,120 138.872595,36.452165,120 138.872595,36.452465,120 138.872337,36.452894,120 138.872166,36.453495,120 138.871822,36.453624,120 138.871737,36.453753,120 138.871822,36.453881,120 138.871994,36.453967,120 138.871994,36.454139,120 138.871822,36.454396,120 138.871694,36.454396,120 138.871479,36.454225,120 138.871350,36.454310,120 138.871050,36.455855,120 138.870406,36.457443,120 138.870535,36.458001,120 138.870449,36.458688,120 138.870578,36.458817,120 138.871050,36.458859,120 138.871222,36.458988,120 138.871264,36.459160,120 138.871307,36.459718,120 138.871565,36.460104,120 138.871565,36.460619,120 138.871522,36.461048,120 138.871694,36.461263,120 138.871822,36.461349,120 138.871951,36.461306,120 138.872209,36.460919,120 138.872380,36.460919,120 138.872595,36.461306,120 138.872852,36.461563,120 138.873453,36.461949,120 138.873496,36.462121,120 138.873410,36.462207,120 138.872895,36.462207,120 138.872638,36.462379,120 138.872552,36.462507,120 138.872595,36.462636,120 138.872766,36.462636,120 138.873067,36.462464,120 138.873153,36.462464,120 138.873239,36.462593,120 138.873196,36.462679,120 138.872681,36.462851,120 138.872681,36.463022,120 138.872852,36.463065,120 138.873281,36.462851,120 138.873539,36.462893,120 138.873796,36.463194,120 138.873925,36.464095,120 138.874054,36.464181,120 138.874397,36.464138,120 138.875084,36.464567,120 138.875427,36.464524,120 138.875513,36.464524,120 138.875556,36.464653,120 138.875513,36.464739,120 138.875256,36.464868,120 138.875041,36.464911,120 138.874698,36.464782,120 138.874655,36.464868,120 138.874698,36.464996,120 138.874998,36.465211,120 138.875213,36.465211,120 138.875599,36.464953,120 138.875856,36.464911,120 138.875856,36.465082,120 138.875470,36.465383,120 138.875256,36.465769,120 138.875470,36.465898,120 138.875942,36.465898,120 138.876328,36.466370,120 138.876758,36.466327,120 138.876886,36.466370,120 138.877101,36.466842,120 138.876972,36.467099,120 138.877058,36.467271,120 138.877230,36.467314,120 138.877959,36.467357,120 138.878388,36.467743,120 138.878860,36.467915,120 138.879032,36.467915,120 138.879676,36.467571,120 138.880062,36.467657,120 138.880148,36.467743,120 138.880191,36.467872,120 138.880019,36.467957,120 138.879547,36.467957,120 138.878903,36.468172,120 138.878646,36.468215,120 138.877916,36.468086,120 138.877187,36.468086,120 138.877015,36.468172,120 138.876801,36.468430,120 138.873496,36.468043,120 138.873711,36.470532,120 138.873754,36.470747,120 138.874269,36.471133,120 138.876028,36.471262,120 138.877107,36.471351,120 138.877106,36.471358,120 138.877107,36.471351,120 138.876028,36.471262,120 138.874269,36.471133,120 138.873754,36.470747,120 138.873711,36.470532,120 138.873496,36.468043,120 138.871822,36.467829,120 138.871007,36.467915,120 138.870063,36.468258,120 138.869462,36.468172,120 138.868990,36.468215,120 138.868003,36.468558,120 138.866715,36.468730,120 138.865685,36.469030,120 138.865256,36.469202,120 138.864784,36.469631,120 138.863926,36.470060,120 138.863754,36.470103,120 138.863325,36.470189,120 138.862896,36.470232,120 138.861651,36.470618,120 138.861051,36.470962,120 138.860750,36.471519,120 138.860450,36.472163,120 138.860235,36.472678,120 138.860149,36.473107,120 138.860192,36.473708,120 138.860278,36.474094,120 138.860536,36.474566,120 138.860879,36.475296,120 138.860793,36.476197,120 138.860793,36.477141,120 138.860664,36.477485,120 138.860364,36.478000,120 138.860364,36.478772,120 138.860793,36.479373,120 138.860836,36.479588,120 138.860579,36.480274,120 138.860536,36.480618,120 138.860664,36.480789,120 138.860836,36.480918,120 138.861523,36.481090,120 138.861694,36.481304,120 138.861780,36.481948,120 138.861737,36.482205,120 138.861566,36.482377,120 138.861351,36.482463,120 138.859806,36.482763,120 138.858991,36.482806,120 138.858390,36.482763,120 138.858218,36.482849,120 138.857574,36.483493,120 138.856974,36.483536,120 138.856030,36.484137,120 138.855858,36.484609,120 138.855300,36.485510,120 138.854871,36.485982,120 138.854828,36.486411,120 138.854656,36.486540,120 138.854098,36.486712,120 138.853669,36.486754,120 138.853111,36.486712,120 138.852811,36.486797,120 138.852382,36.487055,120 138.852253,36.487184,120 138.852253,36.487398,120 138.852339,36.487484,120 138.852510,36.487527,120 138.852768,36.487441,120 138.852983,36.487055,120 138.853197,36.486926,120 138.853498,36.486969,120 138.853626,36.487141,120 138.853583,36.487355,120 138.852854,36.488042,120 138.852682,36.488299,120 138.852553,36.488557,120 138.852339,36.488771,120 138.851051,36.489458,120 138.850365,36.490660,120 138.849978,36.490960,120 138.849335,36.491346,120 138.849249,36.491561,120 138.849378,36.492290,120 138.848906,36.493149,120 138.848863,36.493750,120 138.849034,36.493793,120 138.849077,36.493964,120 138.848476,36.494522,120 138.848133,36.495037,120 138.847961,36.495509,120 138.847318,36.495852,120 138.846846,36.496711,120 138.846331,36.497140,120 138.846030,36.497655,120 138.846073,36.497955,120 138.845859,36.498556,120 138.846159,36.499500,120 138.846159,36.499844,120 138.846159,36.500101,120 138.845859,36.500401,120 138.845859,36.500959,120 138.846502,36.501603,120 138.846803,36.502032,120 138.847060,36.502504,120 138.847103,36.502848,120 138.847060,36.503105,120 138.847060,36.503706,120 138.847532,36.503963,120 138.847318,36.504393,120 138.847404,36.505208,120 138.847704,36.505637,120 138.847747,36.506109,120 138.847833,36.506324,120 138.847919,36.506538,120 138.847833,36.506624,120 138.847275,36.506925,120 138.847189,36.507053,120 138.847189,36.507525,120 138.847103,36.507912,120 138.847232,36.508942,120 138.847060,36.509242,120 138.846717,36.509457,120 138.846588,36.509542,120 138.846159,36.510444,120 138.845601,36.510787,120 138.845472,36.511302,120 138.845086,36.511474,120 138.844829,36.512246,120 138.844271,36.512504,120 138.843927,36.513019,120 138.843627,36.513362,120 138.843327,36.513920,120 138.843112,36.514134,120 138.842597,36.514392,120 138.841867,36.514521,120 138.841095,36.515036,120 138.840709,36.515079,120 138.840322,36.514907,120 138.840108,36.514993,120 138.839808,36.515250,120 138.839164,36.515465,120 138.838863,36.515722,120 138.838520,36.515851,120 138.838048,36.516452,120 138.837962,36.516495,120 138.836074,36.516452,120 138.835559,36.516581,120 138.835258,36.517396,120 138.834701,36.517868,120 138.834057,36.518254,120 138.833542,36.518941,120 138.833156,36.520057,120 138.833027,36.520615,120 138.832684,36.520958,120 138.832254,36.521473,120 138.832254,36.521602,120 138.832598,36.521945,120 138.832555,36.522074,120 138.832383,36.522160,120 138.831739,36.522717,120 138.831224,36.522975,120 138.830881,36.523232,120 138.830194,36.523447,120 138.829508,36.523576,120 138.829207,36.524391,120 138.828993,36.524563,120 138.828392,36.524863,120 138.828306,36.525035,120 138.828392,36.525464,120 138.828092,36.525807,120 138.827705,36.526022,120 138.827577,36.526408,120 138.827362,36.526623,120 138.827448,36.526794,120 138.828006,36.527181,120 138.828220,36.527395,120 138.828349,36.527824,120 138.828392,36.528168,120 138.828306,36.528339,120 138.827577,36.529069,120 138.827190,36.529284,120 138.826375,36.529584,120 138.825259,36.530528,120 138.825045,36.530700,120 138.824701,36.531215,120 138.824444,36.531901,120 138.824444,36.532288,120 138.824701,36.532974,120 138.824787,36.533403,120 138.824401,36.534004,120 138.824186,36.535506,120 138.823972,36.536322,120 138.823714,36.536922,120 138.823671,36.537352,120 138.823757,36.537867,120 138.823929,36.538167,120 138.823886,36.538939,120 138.823714,36.539283,120 138.823199,36.540012,120 138.822985,36.540570,120 138.823071,36.540999,120 138.823414,36.541600,120 138.823457,36.542287,120 138.823714,36.543231,120 138.824100,36.544175,120 138.824315,36.544604,120 138.824530,36.545420,120 138.824487,36.546149,120 138.824701,36.546793,120 138.824658,36.547265,120 138.824916,36.547823,120 138.824873,36.549282,120 138.824873,36.549540,120 138.824873,36.549969,120 138.824873,36.551514,120 138.824701,36.552029,120 138.823886,36.552887,120 138.823586,36.553059,120 138.823113,36.553531,120 138.822727,36.553788,120 138.822513,36.554132,120 138.822083,36.554432,120 138.821483,36.554775,120 138.821268,36.554904,120 138.820753,36.555247,120 138.820624,36.555462,120 138.820324,36.556578,120 138.820324,36.557050,120 138.820367,36.557136,120 138.820410,36.557479,120 138.820109,36.557693,120 138.819466,36.558080,120 138.818994,36.558895,120 138.818951,36.559281,120 138.819981,36.559496,120 138.820281,36.559711,120 138.820539,36.559968,120 138.820539,36.560225,120 138.820109,36.560698,120 138.821225,36.561556,120 138.821397,36.561770,120 138.821440,36.562071,120 138.821526,36.562715,120 138.821526,36.563058,120 138.821611,36.563659,120 138.821654,36.564045,120 138.821783,36.565375,120 138.821697,36.565676,120 138.821225,36.566019,120 138.820410,36.566491,120 138.819594,36.566963,120 138.819337,36.567092,120 138.820024,36.567693,120 138.820839,36.568379,120 138.821526,36.568894,120 138.822126,36.569238,120 138.822684,36.569538,120 138.822470,36.570139,120 138.822341,36.570268,120 138.821955,36.570568,120 138.823285,36.571512,120 138.824229,36.572199,120 138.824916,36.572671,120 138.826461,36.573830,120 138.828435,36.575289,120 138.829165,36.576018,120 138.829336,36.576276,120 138.829679,36.576834,120 138.830023,36.577821,120 138.830066,36.577950,120 138.830280,36.578379,120 138.830538,36.578937,120 138.830795,36.579452,120 138.830838,36.579494,120 138.831310,36.580267,120 138.831911,36.580911,120 138.832083,36.581082,120 138.832169,36.581125,120 138.832898,36.581683,120 138.833499,36.582112,120 138.834014,36.582499,120 138.834443,36.582799,120 138.834786,36.583099,120 138.834572,36.583185,120 138.834229,36.583314,120 138.832812,36.583829,120 138.832254,36.584044,120 138.831053,36.584430,120 138.830709,36.584558,120 138.830109,36.584773,120 138.829379,36.585031,120 138.827662,36.585631,120 138.826332,36.586103,120 138.825345,36.586447,120 138.824573,36.586704,120 138.822770,36.587391,120 138.821397,36.587734,120 138.821139,36.587863,120 138.820710,36.588335,120 138.820281,36.588635,120 138.819938,36.589108,120 138.818951,36.589708,120 138.818479,36.590395,120 138.818479,36.590524,120 138.817835,36.591597,120 138.817835,36.591768,120 138.817964,36.592069,120 138.816419,36.593313,120 138.815861,36.593742,120 138.815217,36.594214,120 138.814616,36.594644,120 138.813629,36.595416,120 138.813200,36.595631,120 138.812642,36.595716,120 138.811698,36.595845,120 138.810453,36.596231,120 138.808994,36.596704,120 138.808351,36.596918,120 138.807106,36.597347,120 138.806634,36.597476,120 138.805690,36.597819,120 138.805261,36.598034,120 138.804874,36.598463,120 138.804188,36.599278,120 138.803844,36.599708,120 138.803244,36.600223,120 138.802772,36.601081,120 138.802729,36.601210,120 138.802042,36.602411,120 138.801785,36.602583,120 138.801012,36.602883,120 138.800111,36.603398,120 138.799553,36.603527,120 138.798566,36.603527,120 138.798308,36.603570,120 138.798094,36.603742,120 138.797965,36.603913,120 138.797750,36.604557,120 138.797579,36.604857,120 138.797021,36.605244,120 138.795691,36.606059,120 138.795433,36.606359,120 138.795218,36.606746,120 138.794990,36.607772,120 138.794891,36.607758,120 138.794990,36.607772,120 138.794961,36.607904,120 138.794961,36.608205,120 138.795090,36.608720,120 138.795261,36.609707,120 138.795433,36.610522,120 138.795562,36.610909,120 138.795648,36.611381,120 138.796206,36.613054,120 138.796463,36.613784,120 138.796763,36.614599,120 138.796806,36.615114,120 138.796721,36.615458,120 138.796248,36.616616,120 138.796034,36.617260,120 138.795733,36.618290,120 138.795605,36.618462,120 138.795261,36.618719,120 138.795090,36.619234,120 138.795090,36.619534,120 138.795261,36.620007,120 138.795691,36.620822,120 138.795905,36.621165,120 138.796592,36.621680,120 138.796721,36.621895,120 138.796892,36.622753,120 138.796892,36.623225,120 138.796892,36.623354,120 138.796892,36.623483,120 138.796806,36.623912,120 138.796806,36.624813,120 138.796806,36.625071,120 138.796721,36.625543,120 138.796506,36.625972,120 138.796377,36.626186,120 138.796077,36.626616,120 138.795648,36.627216,120 138.795519,36.627517,120 138.795433,36.627860,120 138.795347,36.628289,120 138.795304,36.628461,120 138.795261,36.628547,120 138.794918,36.629534,120 138.794575,36.629920,120 138.794146,36.630392,120 138.793974,36.630349,120 138.793845,36.630478,120 138.793888,36.631165,120 138.793931,36.631465,120 138.794103,36.631765,120 138.794317,36.632066,120 138.794446,36.632237,120 138.794618,36.632237,120 138.794618,36.633267,120 138.794532,36.634383,120 138.794403,36.634727,120 138.794060,36.635284,120 138.793888,36.635628,120 138.793845,36.636100,120 138.793974,36.636572,120 138.794360,36.637387,120 138.794446,36.637859,120 138.794403,36.638160,120 138.794317,36.638417,120 138.793974,36.638932,120 138.793759,36.639147,120 138.793287,36.639619,120 138.792901,36.640220,120 138.792601,36.641164,120 138.792601,36.641250,120 138.792601,36.641464,120 138.792644,36.641936,120 138.792858,36.642838,120 138.793030,36.643353,120 138.793244,36.643739,120 138.794231,36.644554,120 138.796077,36.646056,120 138.796763,36.646829,120 138.796763,36.646872,120 138.796935,36.647129,120 138.797407,36.648073,120 138.797793,36.648803,120 138.798008,36.649275,120 138.797836,36.650176,120 138.797965,36.650777,120 138.798480,36.651721,120 138.798523,36.652880,120 138.798909,36.653652,120 138.798952,36.653953,120 138.798523,36.654682,120 138.798394,36.655197,120 138.798609,36.655712,120 138.798652,36.656098,120 138.798566,36.656356,120 138.797879,36.657472,120 138.797407,36.658759,120 138.797278,36.659360,120 138.797278,36.659703,120 138.797321,36.660304,120 138.797321,36.660604,120 138.797193,36.660948,120 138.796549,36.661420,120 138.796420,36.661506,120 138.795819,36.662064,120 138.795648,36.662407,120 138.795562,36.662793,120 138.795605,36.663651,120 138.795562,36.663866,120 138.795433,36.664124,120 138.795004,36.664553,120 138.794661,36.664767,120 138.793373,36.664939,120 138.793073,36.665068,120 138.792815,36.665282,120 138.792515,36.665668,120 138.791957,36.666183,120 138.791614,36.666656,120 138.791313,36.667085,120 138.790841,36.667557,120 138.789725,36.668200,120 138.789082,36.668715,120 138.788910,36.668930,120 138.788910,36.669445,120 138.788953,36.669745,120 138.788953,36.670303,120 138.788352,36.670861,120 138.785820,36.672449,120 138.785648,36.672621,120 138.785391,36.673136,120 138.785133,36.673393,120 138.785305,36.673737,120 138.785305,36.674166,120 138.785005,36.674681,120 138.784790,36.674938,120 138.784533,36.675153,120 138.784404,36.675239,120 138.783631,36.675539,120 138.783116,36.675839,120 138.782773,36.676397,120 138.782773,36.676698,120 138.782902,36.676955,120 138.783417,36.677856,120 138.783503,36.678543,120 138.783460,36.679015,120 138.783073,36.679702,120 138.782558,36.680217,120 138.782043,36.680517,120 138.781314,36.680775,120 138.781228,36.680775,120 138.780971,36.680861,120 138.780670,36.680989,120 138.780069,36.681376,120 138.779683,36.681762,120 138.779597,36.682019,120 138.779597,36.682234,120 138.779469,36.682320,120 138.779254,36.682448,120 138.778310,36.682706,120 138.777537,36.683307,120 138.776851,36.684122,120 138.776851,36.684422,120 138.776722,36.684594,120 138.776250,36.684895,120 138.776164,36.685238,120 138.775606,36.685667,120 138.775563,36.685882,120 138.775907,36.686096,120 138.776035,36.686354,120 138.776207,36.686654,120 138.776250,36.687083,120 138.776250,36.687212,120 138.776250,36.687770,120 138.776078,36.688070,120 138.776121,36.688285,120 138.776078,36.688714,120 138.775949,36.688972,120 138.775048,36.689873,120 138.774748,36.690474,120 138.774662,36.690602,120 138.774319,36.692190,120 138.774276,36.692748,120 138.774362,36.693006,120 138.774662,36.693563,120 138.774834,36.693735,120 138.774962,36.693778,120 138.775477,36.693778,120 138.776293,36.694036,120 138.777065,36.694207,120 138.777323,36.694336,120 138.777452,36.694465,120 138.777452,36.694808,120 138.776722,36.694679,120 138.775735,36.694808,120 138.775434,36.694937,120 138.775048,36.695237,120 138.774447,36.696353,120 138.774190,36.696739,120 138.773978,36.696887,120 138.774017,36.696923,120</coordinates></LineString></Placemark>
</Document></kml>
