<?xml version="1.0" encoding="UTF-8"?>
<kml xmlns="http://www.opengis.net/kml/2.2" xmlns:gx="http://www.google.com/kml/ext/2.2">
<Document><name>10/9 Fri · Nikaho → Shizukuishi</name><description>Inland across Akita to the foot of Mount Iwate. Flyover runs 13 min at 300 m (984 ft) above ground, tilt 60°. Double-click the tour below to play it.</description>
<Style id="rt"><LineStyle><color>b32fd5ff</color><width>3</width></LineStyle></Style>
<gx:Tour><name>▶ 10/9 Fri · Nikaho → Shizukuishi — 156 km (97 mi)</name><description>Inland across Akita to the foot of Mount Iwate.</description><gx:Playlist><gx:FlyTo><gx:duration>4</gx:duration><gx:flyToMode>bounce</gx:flyToMode><Camera><longitude>139.943107</longitude><latitude>39.282888</latitude><altitude>300</altitude><heading>64.0</heading><tilt>60</tilt><altitudeMode>relativeToGround</altitudeMode></Camera></gx:FlyTo><gx:FlyTo><gx:duration>5.66</gx:duration><gx:flyToMode>smooth</gx:flyToMode><Camera><longitude>139.953847</longitude><latitude>39.286938</latitude><altitude>300</altitude><heading>92.5</heading><tilt>60</tilt><altitudeMode>relativeToGround</altitudeMode></Camera></gx:FlyTo><gx:FlyTo><gx:duration>5.66</gx:duration><gx:flyToMode>smooth</gx:flyToMode><Camera><longitude>139.965434</longitude><latitude>39.286551</latitude><altitude>300</altitude><heading>53.5</heading><tilt>60</tilt><altitudeMode>relativeToGround</altitudeMode></Camera></gx:FlyTo><gx:FlyTo><gx:duration>5.66</gx:duration><gx:flyToMode>smooth</gx:flyToMode><Camera><longitude>139.974575</longitude><latitude>39.291787</latitude><altitude>300</altitude><heading>12.1</heading><tilt>60</tilt><altitudeMode>relativeToGround</altitudeMode></Camera></gx:FlyTo><gx:FlyTo><gx:duration>5.66</gx:duration><gx:flyToMode>smooth</gx:flyToMode><Camera><longitude>139.976978</longitude><latitude>39.300456</latitude><altitude>300</altitude><heading>28.0</heading><tilt>60</tilt><altitudeMode>relativeToGround</altitudeMode></Camera></gx:FlyTo><gx:FlyTo><gx:duration>5.66</gx:duration><gx:flyToMode>smooth</gx:flyToMode><Camera><longitude>139.983287</longitude><latitude>39.309640</latitude><altitude>300</altitude><heading>37.6</heading><tilt>60</tilt><altitudeMode>relativeToGround</altitudeMode></Camera></gx:FlyTo><gx:FlyTo><gx:duration>5.66</gx:duration><gx:flyToMode>smooth</gx:flyToMode><Camera><longitude>139.990883</longitude><latitude>39.317279</latitude><altitude>300</altitude><heading>78.9</heading><tilt>60</tilt><altitudeMode>relativeToGround</altitudeMode></Camera></gx:FlyTo><gx:FlyTo><gx:duration>5.66</gx:duration><gx:flyToMode>smooth</gx:flyToMode><Camera><longitude>140.003586</longitude><latitude>39.319210</latitude><altitude>300</altitude><heading>100.2</heading><tilt>60</tilt><altitudeMode>relativeToGround</altitudeMode></Camera></gx:FlyTo><gx:FlyTo><gx:duration>5.66</gx:duration><gx:flyToMode>smooth</gx:flyToMode><Camera><longitude>140.015645</longitude><latitude>39.317536</latitude><altitude>300</altitude><heading>64.6</heading><tilt>60</tilt><altitudeMode>relativeToGround</altitudeMode></Camera></gx:FlyTo><gx:FlyTo><gx:duration>5.66</gx:duration><gx:flyToMode>smooth</gx:flyToMode><Camera><longitude>140.028048</longitude><latitude>39.322085</latitude><altitude>300</altitude><heading>35.2</heading><tilt>60</tilt><altitudeMode>relativeToGround</altitudeMode></Camera></gx:FlyTo><gx:FlyTo><gx:duration>5.66</gx:duration><gx:flyToMode>smooth</gx:flyToMode><Camera><longitude>140.035300</longitude><latitude>39.330025</latitude><altitude>300</altitude><heading>29.0</heading><tilt>60</tilt><altitudeMode>relativeToGround</altitudeMode></Camera></gx:FlyTo><gx:FlyTo><gx:duration>5.66</gx:duration><gx:flyToMode>smooth</gx:flyToMode><Camera><longitude>140.040922</longitude><latitude>39.337878</latitude><altitude>300</altitude><heading>33.5</heading><tilt>60</tilt><altitudeMode>relativeToGround</altitudeMode></Camera></gx:FlyTo><gx:FlyTo><gx:duration>5.66</gx:duration><gx:flyToMode>smooth</gx:flyToMode><Camera><longitude>140.048089</longitude><latitude>39.346247</latitude><altitude>300</altitude><heading>33.7</heading><tilt>60</tilt><altitudeMode>relativeToGround</altitudeMode></Camera></gx:FlyTo><gx:FlyTo><gx:duration>5.66</gx:duration><gx:flyToMode>smooth</gx:flyToMode><Camera><longitude>140.055256</longitude><latitude>39.354572</latitude><altitude>300</altitude><heading>55.7</heading><tilt>60</tilt><altitudeMode>relativeToGround</altitudeMode></Camera></gx:FlyTo><gx:FlyTo><gx:duration>5.66</gx:duration><gx:flyToMode>smooth</gx:flyToMode><Camera><longitude>140.066414</longitude><latitude>39.360452</latitude><altitude>300</altitude><heading>37.7</heading><tilt>60</tilt><altitudeMode>relativeToGround</altitudeMode></Camera></gx:FlyTo><gx:FlyTo><gx:duration>5.66</gx:duration><gx:flyToMode>smooth</gx:flyToMode><Camera><longitude>140.071950</longitude><latitude>39.365988</latitude><altitude>300</altitude><heading>151.6</heading><tilt>60</tilt><altitudeMode>relativeToGround</altitudeMode></Camera></gx:FlyTo><gx:FlyTo><gx:duration>5.66</gx:duration><gx:flyToMode>smooth</gx:flyToMode><Camera><longitude>140.076413</longitude><latitude>39.359593</latitude><altitude>300</altitude><heading>124.6</heading><tilt>60</tilt><altitudeMode>relativeToGround</altitudeMode></Camera></gx:FlyTo><gx:FlyTo><gx:duration>5.66</gx:duration><gx:flyToMode>smooth</gx:flyToMode><Camera><longitude>140.085983</longitude><latitude>39.354486</latitude><altitude>300</altitude><heading>99.4</heading><tilt>60</tilt><altitudeMode>relativeToGround</altitudeMode></Camera></gx:FlyTo><gx:FlyTo><gx:duration>5.66</gx:duration><gx:flyToMode>smooth</gx:flyToMode><Camera><longitude>140.098987</longitude><latitude>39.352813</latitude><altitude>300</altitude><heading>115.4</heading><tilt>60</tilt><altitudeMode>relativeToGround</altitudeMode></Camera></gx:FlyTo><gx:FlyTo><gx:duration>5.66</gx:duration><gx:flyToMode>smooth</gx:flyToMode><Camera><longitude>140.109844</longitude><latitude>39.348822</latitude><altitude>300</altitude><heading>118.5</heading><tilt>60</tilt><altitudeMode>relativeToGround</altitudeMode></Camera></gx:FlyTo><gx:FlyTo><gx:duration>5.66</gx:duration><gx:flyToMode>smooth</gx:flyToMode><Camera><longitude>140.121603</longitude><latitude>39.343886</latitude><altitude>300</altitude><heading>114.0</heading><tilt>60</tilt><altitudeMode>relativeToGround</altitudeMode></Camera></gx:FlyTo><gx:FlyTo><gx:duration>5.66</gx:duration><gx:flyToMode>smooth</gx:flyToMode><Camera><longitude>140.136323</longitude><latitude>39.338822</latitude><altitude>300</altitude><heading>106.7</heading><tilt>60</tilt><altitudeMode>relativeToGround</altitudeMode></Camera></gx:FlyTo><gx:FlyTo><gx:duration>5.66</gx:duration><gx:flyToMode>smooth</gx:flyToMode><Camera><longitude>140.147610</longitude><latitude>39.336205</latitude><altitude>300</altitude><heading>82.1</heading><tilt>60</tilt><altitudeMode>relativeToGround</altitudeMode></Camera></gx:FlyTo><gx:FlyTo><gx:duration>5.66</gx:duration><gx:flyToMode>smooth</gx:flyToMode><Camera><longitude>140.161214</longitude><latitude>39.337664</latitude><altitude>300</altitude><heading>115.5</heading><tilt>60</tilt><altitudeMode>relativeToGround</altitudeMode></Camera></gx:FlyTo><gx:FlyTo><gx:duration>5.66</gx:duration><gx:flyToMode>smooth</gx:flyToMode><Camera><longitude>140.170054</longitude><latitude>39.334402</latitude><altitude>300</altitude><heading>146.8</heading><tilt>60</tilt><altitudeMode>relativeToGround</altitudeMode></Camera></gx:FlyTo><gx:FlyTo><gx:duration>5.66</gx:duration><gx:flyToMode>smooth</gx:flyToMode><Camera><longitude>140.175290</longitude><latitude>39.328222</latitude><altitude>300</altitude><heading>108.2</heading><tilt>60</tilt><altitudeMode>relativeToGround</altitudeMode></Camera></gx:FlyTo><gx:FlyTo><gx:duration>5.66</gx:duration><gx:flyToMode>smooth</gx:flyToMode><Camera><longitude>140.185418</longitude><latitude>39.325647</latitude><altitude>300</altitude><heading>111.7</heading><tilt>60</tilt><altitudeMode>relativeToGround</altitudeMode></Camera></gx:FlyTo><gx:FlyTo><gx:duration>5.66</gx:duration><gx:flyToMode>smooth</gx:flyToMode><Camera><longitude>140.197949</longitude><latitude>39.321785</latitude><altitude>300</altitude><heading>124.0</heading><tilt>60</tilt><altitudeMode>relativeToGround</altitudeMode></Camera></gx:FlyTo><gx:FlyTo><gx:duration>5.66</gx:duration><gx:flyToMode>smooth</gx:flyToMode><Camera><longitude>140.208163</longitude><latitude>39.316463</latitude><altitude>300</altitude><heading>106.0</heading><tilt>60</tilt><altitudeMode>relativeToGround</altitudeMode></Camera></gx:FlyTo><gx:FlyTo><gx:duration>5.66</gx:duration><gx:flyToMode>smooth</gx:flyToMode><Camera><longitude>140.219965</longitude><latitude>39.313846</latitude><altitude>300</altitude><heading>94.8</heading><tilt>60</tilt><altitudeMode>relativeToGround</altitudeMode></Camera></gx:FlyTo><gx:FlyTo><gx:duration>5.66</gx:duration><gx:flyToMode>smooth</gx:flyToMode><Camera><longitude>140.231166</longitude><latitude>39.313116</latitude><altitude>300</altitude><heading>122.4</heading><tilt>60</tilt><altitudeMode>relativeToGround</altitudeMode></Camera></gx:FlyTo><gx:FlyTo><gx:duration>5.66</gx:duration><gx:flyToMode>smooth</gx:flyToMode><Camera><longitude>140.242109</longitude><latitude>39.307752</latitude><altitude>300</altitude><heading>94.9</heading><tilt>60</tilt><altitudeMode>relativeToGround</altitudeMode></Camera></gx:FlyTo><gx:FlyTo><gx:duration>5.66</gx:duration><gx:flyToMode>smooth</gx:flyToMode><Camera><longitude>140.253654</longitude><latitude>39.306979</latitude><altitude>300</altitude><heading>15.7</heading><tilt>60</tilt><altitudeMode>relativeToGround</altitudeMode></Camera></gx:FlyTo><gx:FlyTo><gx:duration>5.66</gx:duration><gx:flyToMode>smooth</gx:flyToMode><Camera><longitude>140.257001</longitude><latitude>39.316163</latitude><altitude>300</altitude><heading>30.6</heading><tilt>60</tilt><altitudeMode>relativeToGround</altitudeMode></Camera></gx:FlyTo><gx:FlyTo><gx:duration>5.66</gx:duration><gx:flyToMode>smooth</gx:flyToMode><Camera><longitude>140.262022</longitude><latitude>39.322729</latitude><altitude>300</altitude><heading>57.8</heading><tilt>60</tilt><altitudeMode>relativeToGround</altitudeMode></Camera></gx:FlyTo><gx:FlyTo><gx:duration>5.66</gx:duration><gx:flyToMode>smooth</gx:flyToMode><Camera><longitude>140.269961</longitude><latitude>39.326591</latitude><altitude>300</altitude><heading>22.3</heading><tilt>60</tilt><altitudeMode>relativeToGround</altitudeMode></Camera></gx:FlyTo><gx:FlyTo><gx:duration>5.66</gx:duration><gx:flyToMode>smooth</gx:flyToMode><Camera><longitude>140.273824</longitude><latitude>39.333887</latitude><altitude>300</altitude><heading>84.1</heading><tilt>60</tilt><altitudeMode>relativeToGround</altitudeMode></Camera></gx:FlyTo><gx:FlyTo><gx:duration>5.66</gx:duration><gx:flyToMode>smooth</gx:flyToMode><Camera><longitude>140.286183</longitude><latitude>39.334874</latitude><altitude>300</altitude><heading>20.1</heading><tilt>60</tilt><altitudeMode>relativeToGround</altitudeMode></Camera></gx:FlyTo><gx:FlyTo><gx:duration>5.66</gx:duration><gx:flyToMode>smooth</gx:flyToMode><Camera><longitude>140.290775</longitude><latitude>39.344573</latitude><altitude>300</altitude><heading>8.4</heading><tilt>60</tilt><altitudeMode>relativeToGround</altitudeMode></Camera></gx:FlyTo><gx:FlyTo><gx:duration>5.66</gx:duration><gx:flyToMode>smooth</gx:flyToMode><Camera><longitude>140.292449</longitude><latitude>39.353328</latitude><altitude>300</altitude><heading>354.6</heading><tilt>60</tilt><altitudeMode>relativeToGround</altitudeMode></Camera></gx:FlyTo><gx:FlyTo><gx:duration>5.66</gx:duration><gx:flyToMode>smooth</gx:flyToMode><Camera><longitude>140.291376</longitude><latitude>39.362168</latitude><altitude>300</altitude><heading>342.6</heading><tilt>60</tilt><altitudeMode>relativeToGround</altitudeMode></Camera></gx:FlyTo><gx:FlyTo><gx:duration>5.66</gx:duration><gx:flyToMode>smooth</gx:flyToMode><Camera><longitude>140.289016</longitude><latitude>39.368005</latitude><altitude>300</altitude><heading>18.2</heading><tilt>60</tilt><altitudeMode>relativeToGround</altitudeMode></Camera></gx:FlyTo><gx:FlyTo><gx:duration>5.66</gx:duration><gx:flyToMode>smooth</gx:flyToMode><Camera><longitude>140.292835</longitude><latitude>39.376974</latitude><altitude>300</altitude><heading>20.7</heading><tilt>60</tilt><altitudeMode>relativeToGround</altitudeMode></Camera></gx:FlyTo><gx:FlyTo><gx:duration>5.66</gx:duration><gx:flyToMode>smooth</gx:flyToMode><Camera><longitude>140.297470</longitude><latitude>39.386458</latitude><altitude>300</altitude><heading>353.6</heading><tilt>60</tilt><altitudeMode>relativeToGround</altitudeMode></Camera></gx:FlyTo><gx:FlyTo><gx:duration>5.66</gx:duration><gx:flyToMode>smooth</gx:flyToMode><Camera><longitude>140.296268</longitude><latitude>39.394784</latitude><altitude>300</altitude><heading>60.7</heading><tilt>60</tilt><altitudeMode>relativeToGround</altitudeMode></Camera></gx:FlyTo><gx:FlyTo><gx:duration>5.66</gx:duration><gx:flyToMode>smooth</gx:flyToMode><Camera><longitude>140.305367</longitude><latitude>39.398732</latitude><altitude>300</altitude><heading>52.2</heading><tilt>60</tilt><altitudeMode>relativeToGround</altitudeMode></Camera></gx:FlyTo><gx:FlyTo><gx:duration>5.66</gx:duration><gx:flyToMode>smooth</gx:flyToMode><Camera><longitude>140.314980</longitude><latitude>39.404483</latitude><altitude>300</altitude><heading>62.6</heading><tilt>60</tilt><altitudeMode>relativeToGround</altitudeMode></Camera></gx:FlyTo><gx:FlyTo><gx:duration>5.66</gx:duration><gx:flyToMode>smooth</gx:flyToMode><Camera><longitude>140.324636</longitude><latitude>39.408345</latitude><altitude>300</altitude><heading>46.6</heading><tilt>60</tilt><altitudeMode>relativeToGround</altitudeMode></Camera></gx:FlyTo><gx:FlyTo><gx:duration>5.66</gx:duration><gx:flyToMode>smooth</gx:flyToMode><Camera><longitude>140.332747</longitude><latitude>39.414268</latitude><altitude>300</altitude><heading>61.8</heading><tilt>60</tilt><altitudeMode>relativeToGround</altitudeMode></Camera></gx:FlyTo><gx:FlyTo><gx:duration>5.66</gx:duration><gx:flyToMode>smooth</gx:flyToMode><Camera><longitude>140.342274</longitude><latitude>39.418216</latitude><altitude>300</altitude><heading>55.8</heading><tilt>60</tilt><altitudeMode>relativeToGround</altitudeMode></Camera></gx:FlyTo><gx:FlyTo><gx:duration>5.66</gx:duration><gx:flyToMode>smooth</gx:flyToMode><Camera><longitude>140.354462</longitude><latitude>39.424610</latitude><altitude>300</altitude><heading>23.9</heading><tilt>60</tilt><altitudeMode>relativeToGround</altitudeMode></Camera></gx:FlyTo><gx:FlyTo><gx:duration>5.66</gx:duration><gx:flyToMode>smooth</gx:flyToMode><Camera><longitude>140.358968</longitude><latitude>39.432464</latitude><altitude>300</altitude><heading>44.6</heading><tilt>60</tilt><altitudeMode>relativeToGround</altitudeMode></Camera></gx:FlyTo><gx:FlyTo><gx:duration>5.66</gx:duration><gx:flyToMode>smooth</gx:flyToMode><Camera><longitude>140.364933</longitude><latitude>39.437141</latitude><altitude>300</altitude><heading>108.3</heading><tilt>60</tilt><altitudeMode>relativeToGround</altitudeMode></Camera></gx:FlyTo><gx:FlyTo><gx:duration>5.66</gx:duration><gx:flyToMode>smooth</gx:flyToMode><Camera><longitude>140.375662</longitude><latitude>39.434395</latitude><altitude>300</altitude><heading>94.5</heading><tilt>60</tilt><altitudeMode>relativeToGround</altitudeMode></Camera></gx:FlyTo><gx:FlyTo><gx:duration>5.66</gx:duration><gx:flyToMode>smooth</gx:flyToMode><Camera><longitude>140.386305</longitude><latitude>39.433751</latitude><altitude>300</altitude><heading>58.7</heading><tilt>60</tilt><altitudeMode>relativeToGround</altitudeMode></Camera></gx:FlyTo><gx:FlyTo><gx:duration>5.66</gx:duration><gx:flyToMode>smooth</gx:flyToMode><Camera><longitude>140.396175</longitude><latitude>39.438386</latitude><altitude>300</altitude><heading>126.5</heading><tilt>60</tilt><altitudeMode>relativeToGround</altitudeMode></Camera></gx:FlyTo><gx:FlyTo><gx:duration>5.66</gx:duration><gx:flyToMode>smooth</gx:flyToMode><Camera><longitude>140.406690</longitude><latitude>39.432378</latitude><altitude>300</altitude><heading>111.2</heading><tilt>60</tilt><altitudeMode>relativeToGround</altitudeMode></Camera></gx:FlyTo><gx:FlyTo><gx:duration>5.66</gx:duration><gx:flyToMode>smooth</gx:flyToMode><Camera><longitude>140.418019</longitude><latitude>39.428988</latitude><altitude>300</altitude><heading>86.2</heading><tilt>60</tilt><altitudeMode>relativeToGround</altitudeMode></Camera></gx:FlyTo><gx:FlyTo><gx:duration>5.66</gx:duration><gx:flyToMode>smooth</gx:flyToMode><Camera><longitude>140.429735</longitude><latitude>39.429588</latitude><altitude>300</altitude><heading>69.3</heading><tilt>60</tilt><altitudeMode>relativeToGround</altitudeMode></Camera></gx:FlyTo><gx:FlyTo><gx:duration>5.66</gx:duration><gx:flyToMode>smooth</gx:flyToMode><Camera><longitude>140.441365</longitude><latitude>39.432979</latitude><altitude>300</altitude><heading>44.4</heading><tilt>60</tilt><altitudeMode>relativeToGround</altitudeMode></Camera></gx:FlyTo><gx:FlyTo><gx:duration>5.66</gx:duration><gx:flyToMode>smooth</gx:flyToMode><Camera><longitude>140.447459</longitude><latitude>39.437785</latitude><altitude>300</altitude><heading>3.8</heading><tilt>60</tilt><altitudeMode>relativeToGround</altitudeMode></Camera></gx:FlyTo><gx:FlyTo><gx:duration>5.66</gx:duration><gx:flyToMode>smooth</gx:flyToMode><Camera><longitude>140.448232</longitude><latitude>39.446712</latitude><altitude>300</altitude><heading>20.6</heading><tilt>60</tilt><altitudeMode>relativeToGround</altitudeMode></Camera></gx:FlyTo><gx:FlyTo><gx:duration>5.66</gx:duration><gx:flyToMode>smooth</gx:flyToMode><Camera><longitude>140.452309</longitude><latitude>39.455080</latitude><altitude>300</altitude><heading>359.6</heading><tilt>60</tilt><altitudeMode>relativeToGround</altitudeMode></Camera></gx:FlyTo><gx:FlyTo><gx:duration>5.66</gx:duration><gx:flyToMode>smooth</gx:flyToMode><Camera><longitude>140.452223</longitude><latitude>39.464779</latitude><altitude>300</altitude><heading>59.6</heading><tilt>60</tilt><altitudeMode>relativeToGround</altitudeMode></Camera></gx:FlyTo><gx:FlyTo><gx:duration>5.66</gx:duration><gx:flyToMode>smooth</gx:flyToMode><Camera><longitude>140.464540</longitude><latitude>39.470358</latitude><altitude>300</altitude><heading>64.5</heading><tilt>60</tilt><altitudeMode>relativeToGround</altitudeMode></Camera></gx:FlyTo><gx:FlyTo><gx:duration>5.66</gx:duration><gx:flyToMode>smooth</gx:flyToMode><Camera><longitude>140.474796</longitude><latitude>39.474134</latitude><altitude>300</altitude><heading>47.1</heading><tilt>60</tilt><altitudeMode>relativeToGround</altitudeMode></Camera></gx:FlyTo><gx:FlyTo><gx:duration>5.66</gx:duration><gx:flyToMode>smooth</gx:flyToMode><Camera><longitude>140.484624</longitude><latitude>39.481173</latitude><altitude>300</altitude><heading>46.9</heading><tilt>60</tilt><altitudeMode>relativeToGround</altitudeMode></Camera></gx:FlyTo><gx:FlyTo><gx:duration>5.66</gx:duration><gx:flyToMode>smooth</gx:flyToMode><Camera><longitude>140.494623</longitude><latitude>39.488382</latitude><altitude>300</altitude><heading>30.1</heading><tilt>60</tilt><altitudeMode>relativeToGround</altitudeMode></Camera></gx:FlyTo><gx:FlyTo><gx:duration>5.66</gx:duration><gx:flyToMode>smooth</gx:flyToMode><Camera><longitude>140.500932</longitude><latitude>39.496794</latitude><altitude>300</altitude><heading>32.3</heading><tilt>60</tilt><altitudeMode>relativeToGround</altitudeMode></Camera></gx:FlyTo><gx:FlyTo><gx:duration>5.66</gx:duration><gx:flyToMode>smooth</gx:flyToMode><Camera><longitude>140.507884</longitude><latitude>39.505291</latitude><altitude>300</altitude><heading>23.9</heading><tilt>60</tilt><altitudeMode>relativeToGround</altitudeMode></Camera></gx:FlyTo><gx:FlyTo><gx:duration>5.66</gx:duration><gx:flyToMode>smooth</gx:flyToMode><Camera><longitude>140.512691</longitude><latitude>39.513659</latitude><altitude>300</altitude><heading>38.5</heading><tilt>60</tilt><altitudeMode>relativeToGround</altitudeMode></Camera></gx:FlyTo><gx:FlyTo><gx:duration>5.66</gx:duration><gx:flyToMode>smooth</gx:flyToMode><Camera><longitude>140.519557</longitude><latitude>39.520311</latitude><altitude>300</altitude><heading>32.4</heading><tilt>60</tilt><altitudeMode>relativeToGround</altitudeMode></Camera></gx:FlyTo><gx:FlyTo><gx:duration>5.66</gx:duration><gx:flyToMode>smooth</gx:flyToMode><Camera><longitude>140.526381</longitude><latitude>39.528594</latitude><altitude>300</altitude><heading>23.5</heading><tilt>60</tilt><altitudeMode>relativeToGround</altitudeMode></Camera></gx:FlyTo><gx:FlyTo><gx:duration>5.66</gx:duration><gx:flyToMode>smooth</gx:flyToMode><Camera><longitude>140.531316</longitude><latitude>39.537349</latitude><altitude>300</altitude><heading>50.1</heading><tilt>60</tilt><altitudeMode>relativeToGround</altitudeMode></Camera></gx:FlyTo><gx:FlyTo><gx:duration>5.66</gx:duration><gx:flyToMode>smooth</gx:flyToMode><Camera><longitude>140.540113</longitude><latitude>39.543014</latitude><altitude>300</altitude><heading>37.8</heading><tilt>60</tilt><altitudeMode>relativeToGround</altitudeMode></Camera></gx:FlyTo><gx:FlyTo><gx:duration>5.66</gx:duration><gx:flyToMode>smooth</gx:flyToMode><Camera><longitude>140.547366</longitude><latitude>39.550223</latitude><altitude>300</altitude><heading>38.1</heading><tilt>60</tilt><altitudeMode>relativeToGround</altitudeMode></Camera></gx:FlyTo><gx:FlyTo><gx:duration>5.66</gx:duration><gx:flyToMode>smooth</gx:flyToMode><Camera><longitude>140.554576</longitude><latitude>39.557304</latitude><altitude>300</altitude><heading>24.3</heading><tilt>60</tilt><altitudeMode>relativeToGround</altitudeMode></Camera></gx:FlyTo><gx:FlyTo><gx:duration>5.66</gx:duration><gx:flyToMode>smooth</gx:flyToMode><Camera><longitude>140.559425</longitude><latitude>39.565587</latitude><altitude>300</altitude><heading>19.9</heading><tilt>60</tilt><altitudeMode>relativeToGround</altitudeMode></Camera></gx:FlyTo><gx:FlyTo><gx:duration>5.66</gx:duration><gx:flyToMode>smooth</gx:flyToMode><Camera><longitude>140.563459</longitude><latitude>39.574170</latitude><altitude>300</altitude><heading>27.4</heading><tilt>60</tilt><altitudeMode>relativeToGround</altitudeMode></Camera></gx:FlyTo><gx:FlyTo><gx:duration>5.66</gx:duration><gx:flyToMode>smooth</gx:flyToMode><Camera><longitude>140.569253</longitude><latitude>39.582796</latitude><altitude>300</altitude><heading>25.9</heading><tilt>60</tilt><altitudeMode>relativeToGround</altitudeMode></Camera></gx:FlyTo><gx:FlyTo><gx:duration>5.66</gx:duration><gx:flyToMode>smooth</gx:flyToMode><Camera><longitude>140.574961</longitude><latitude>39.591851</latitude><altitude>300</altitude><heading>358.2</heading><tilt>60</tilt><altitudeMode>relativeToGround</altitudeMode></Camera></gx:FlyTo><gx:FlyTo><gx:duration>5.66</gx:duration><gx:flyToMode>smooth</gx:flyToMode><Camera><longitude>140.574617</longitude><latitude>39.600306</latitude><altitude>300</altitude><heading>324.2</heading><tilt>60</tilt><altitudeMode>relativeToGround</altitudeMode></Camera></gx:FlyTo><gx:FlyTo><gx:duration>5.66</gx:duration><gx:flyToMode>smooth</gx:flyToMode><Camera><longitude>140.567794</longitude><latitude>39.607601</latitude><altitude>300</altitude><heading>17.9</heading><tilt>60</tilt><altitudeMode>relativeToGround</altitudeMode></Camera></gx:FlyTo><gx:FlyTo><gx:duration>5.66</gx:duration><gx:flyToMode>smooth</gx:flyToMode><Camera><longitude>140.571184</longitude><latitude>39.615669</latitude><altitude>300</altitude><heading>1.8</heading><tilt>60</tilt><altitudeMode>relativeToGround</altitudeMode></Camera></gx:FlyTo><gx:FlyTo><gx:duration>5.66</gx:duration><gx:flyToMode>smooth</gx:flyToMode><Camera><longitude>140.571570</longitude><latitude>39.625025</latitude><altitude>300</altitude><heading>355.6</heading><tilt>60</tilt><altitudeMode>relativeToGround</altitudeMode></Camera></gx:FlyTo><gx:FlyTo><gx:duration>5.66</gx:duration><gx:flyToMode>smooth</gx:flyToMode><Camera><longitude>140.570669</longitude><latitude>39.634080</latitude><altitude>300</altitude><heading>2.5</heading><tilt>60</tilt><altitudeMode>relativeToGround</altitudeMode></Camera></gx:FlyTo><gx:FlyTo><gx:duration>5.66</gx:duration><gx:flyToMode>smooth</gx:flyToMode><Camera><longitude>140.571141</longitude><latitude>39.642534</latitude><altitude>300</altitude><heading>358.7</heading><tilt>60</tilt><altitudeMode>relativeToGround</altitudeMode></Camera></gx:FlyTo><gx:FlyTo><gx:duration>5.66</gx:duration><gx:flyToMode>smooth</gx:flyToMode><Camera><longitude>140.570841</longitude><latitude>39.652448</latitude><altitude>300</altitude><heading>353.7</heading><tilt>60</tilt><altitudeMode>relativeToGround</altitudeMode></Camera></gx:FlyTo><gx:FlyTo><gx:duration>5.66</gx:duration><gx:flyToMode>smooth</gx:flyToMode><Camera><longitude>140.569296</longitude><latitude>39.663219</latitude><altitude>300</altitude><heading>346.6</heading><tilt>60</tilt><altitudeMode>relativeToGround</altitudeMode></Camera></gx:FlyTo><gx:FlyTo><gx:duration>5.66</gx:duration><gx:flyToMode>smooth</gx:flyToMode><Camera><longitude>140.565519</longitude><latitude>39.675450</latitude><altitude>300</altitude><heading>320.3</heading><tilt>60</tilt><altitudeMode>relativeToGround</altitudeMode></Camera></gx:FlyTo><gx:FlyTo><gx:duration>5.66</gx:duration><gx:flyToMode>smooth</gx:flyToMode><Camera><longitude>140.558352</longitude><latitude>39.682102</latitude><altitude>300</altitude><heading>350.3</heading><tilt>60</tilt><altitudeMode>relativeToGround</altitudeMode></Camera></gx:FlyTo><gx:FlyTo><gx:duration>5.66</gx:duration><gx:flyToMode>smooth</gx:flyToMode><Camera><longitude>140.556121</longitude><latitude>39.692101</latitude><altitude>300</altitude><heading>78.4</heading><tilt>60</tilt><altitudeMode>relativeToGround</altitudeMode></Camera></gx:FlyTo><gx:FlyTo><gx:duration>5.66</gx:duration><gx:flyToMode>smooth</gx:flyToMode><Camera><longitude>140.568137</longitude><latitude>39.693990</latitude><altitude>300</altitude><heading>64.9</heading><tilt>60</tilt><altitudeMode>relativeToGround</altitudeMode></Camera></gx:FlyTo><gx:FlyTo><gx:duration>5.66</gx:duration><gx:flyToMode>smooth</gx:flyToMode><Camera><longitude>140.578737</longitude><latitude>39.697809</latitude><altitude>300</altitude><heading>37.4</heading><tilt>60</tilt><altitudeMode>relativeToGround</altitudeMode></Camera></gx:FlyTo><gx:FlyTo><gx:duration>5.66</gx:duration><gx:flyToMode>smooth</gx:flyToMode><Camera><longitude>140.585818</longitude><latitude>39.704933</latitude><altitude>300</altitude><heading>77.3</heading><tilt>60</tilt><altitudeMode>relativeToGround</altitudeMode></Camera></gx:FlyTo><gx:FlyTo><gx:duration>5.66</gx:duration><gx:flyToMode>smooth</gx:flyToMode><Camera><longitude>140.596461</longitude><latitude>39.706779</latitude><altitude>300</altitude><heading>73.6</heading><tilt>60</tilt><altitudeMode>relativeToGround</altitudeMode></Camera></gx:FlyTo><gx:FlyTo><gx:duration>5.66</gx:duration><gx:flyToMode>smooth</gx:flyToMode><Camera><longitude>140.608006</longitude><latitude>39.709396</latitude><altitude>300</altitude><heading>64.3</heading><tilt>60</tilt><altitudeMode>relativeToGround</altitudeMode></Camera></gx:FlyTo><gx:FlyTo><gx:duration>5.66</gx:duration><gx:flyToMode>smooth</gx:flyToMode><Camera><longitude>140.618219</longitude><latitude>39.713173</latitude><altitude>300</altitude><heading>72.4</heading><tilt>60</tilt><altitudeMode>relativeToGround</altitudeMode></Camera></gx:FlyTo><gx:FlyTo><gx:duration>5.66</gx:duration><gx:flyToMode>smooth</gx:flyToMode><Camera><longitude>140.625944</longitude><latitude>39.715061</latitude><altitude>300</altitude><heading>102.9</heading><tilt>60</tilt><altitudeMode>relativeToGround</altitudeMode></Camera></gx:FlyTo><gx:FlyTo><gx:duration>5.66</gx:duration><gx:flyToMode>smooth</gx:flyToMode><Camera><longitude>140.634441</longitude><latitude>39.713559</latitude><altitude>300</altitude><heading>148.0</heading><tilt>60</tilt><altitudeMode>relativeToGround</altitudeMode></Camera></gx:FlyTo><gx:FlyTo><gx:duration>5.66</gx:duration><gx:flyToMode>smooth</gx:flyToMode><Camera><longitude>140.640149</longitude><latitude>39.706521</latitude><altitude>300</altitude><heading>141.3</heading><tilt>60</tilt><altitudeMode>relativeToGround</altitudeMode></Camera></gx:FlyTo><gx:FlyTo><gx:duration>5.66</gx:duration><gx:flyToMode>smooth</gx:flyToMode><Camera><longitude>140.648990</longitude><latitude>39.698024</latitude><altitude>300</altitude><heading>82.1</heading><tilt>60</tilt><altitudeMode>relativeToGround</altitudeMode></Camera></gx:FlyTo><gx:FlyTo><gx:duration>5.66</gx:duration><gx:flyToMode>smooth</gx:flyToMode><Camera><longitude>140.660577</longitude><latitude>39.699268</latitude><altitude>300</altitude><heading>84.6</heading><tilt>60</tilt><altitudeMode>relativeToGround</altitudeMode></Camera></gx:FlyTo><gx:FlyTo><gx:duration>5.66</gx:duration><gx:flyToMode>smooth</gx:flyToMode><Camera><longitude>140.670018</longitude><latitude>39.699955</latitude><altitude>300</altitude><heading>91.7</heading><tilt>60</tilt><altitudeMode>relativeToGround</altitudeMode></Camera></gx:FlyTo><gx:FlyTo><gx:duration>5.66</gx:duration><gx:flyToMode>smooth</gx:flyToMode><Camera><longitude>140.681133</longitude><latitude>39.699697</latitude><altitude>300</altitude><heading>43.5</heading><tilt>60</tilt><altitudeMode>relativeToGround</altitudeMode></Camera></gx:FlyTo><gx:FlyTo><gx:duration>5.66</gx:duration><gx:flyToMode>smooth</gx:flyToMode><Camera><longitude>140.688601</longitude><latitude>39.705749</latitude><altitude>300</altitude><heading>3.3</heading><tilt>60</tilt><altitudeMode>relativeToGround</altitudeMode></Camera></gx:FlyTo><gx:FlyTo><gx:duration>5.66</gx:duration><gx:flyToMode>smooth</gx:flyToMode><Camera><longitude>140.689287</longitude><latitude>39.715018</latitude><altitude>300</altitude><heading>41.8</heading><tilt>60</tilt><altitudeMode>relativeToGround</altitudeMode></Camera></gx:FlyTo><gx:FlyTo><gx:duration>5.66</gx:duration><gx:flyToMode>smooth</gx:flyToMode><Camera><longitude>140.696883</longitude><latitude>39.721541</latitude><altitude>300</altitude><heading>13.1</heading><tilt>60</tilt><altitudeMode>relativeToGround</altitudeMode></Camera></gx:FlyTo><gx:FlyTo><gx:duration>5.66</gx:duration><gx:flyToMode>smooth</gx:flyToMode><Camera><longitude>140.699458</longitude><latitude>39.730039</latitude><altitude>300</altitude><heading>40.5</heading><tilt>60</tilt><altitudeMode>relativeToGround</altitudeMode></Camera></gx:FlyTo><gx:FlyTo><gx:duration>5.66</gx:duration><gx:flyToMode>smooth</gx:flyToMode><Camera><longitude>140.704994</longitude><latitude>39.735017</latitude><altitude>300</altitude><heading>108.9</heading><tilt>60</tilt><altitudeMode>relativeToGround</altitudeMode></Camera></gx:FlyTo><gx:FlyTo><gx:duration>5.66</gx:duration><gx:flyToMode>smooth</gx:flyToMode><Camera><longitude>140.714951</longitude><latitude>39.732399</latitude><altitude>300</altitude><heading>149.6</heading><tilt>60</tilt><altitudeMode>relativeToGround</altitudeMode></Camera></gx:FlyTo><gx:FlyTo><gx:duration>5.66</gx:duration><gx:flyToMode>smooth</gx:flyToMode><Camera><longitude>140.720100</longitude><latitude>39.725661</latitude><altitude>300</altitude><heading>162.7</heading><tilt>60</tilt><altitudeMode>relativeToGround</altitudeMode></Camera></gx:FlyTo><gx:FlyTo><gx:duration>5.66</gx:duration><gx:flyToMode>smooth</gx:flyToMode><Camera><longitude>140.723877</longitude><latitude>39.716349</latitude><altitude>300</altitude><heading>167.7</heading><tilt>60</tilt><altitudeMode>relativeToGround</altitudeMode></Camera></gx:FlyTo><gx:FlyTo><gx:duration>5.66</gx:duration><gx:flyToMode>smooth</gx:flyToMode><Camera><longitude>140.726624</longitude><latitude>39.706693</latitude><altitude>300</altitude><heading>106.1</heading><tilt>60</tilt><altitudeMode>relativeToGround</altitudeMode></Camera></gx:FlyTo><gx:FlyTo><gx:duration>5.66</gx:duration><gx:flyToMode>smooth</gx:flyToMode><Camera><longitude>140.736494</longitude><latitude>39.704504</latitude><altitude>300</altitude><heading>109.5</heading><tilt>60</tilt><altitudeMode>relativeToGround</altitudeMode></Camera></gx:FlyTo><gx:FlyTo><gx:duration>5.66</gx:duration><gx:flyToMode>smooth</gx:flyToMode><Camera><longitude>140.744390</longitude><latitude>39.702358</latitude><altitude>300</altitude><heading>88.0</heading><tilt>60</tilt><altitudeMode>relativeToGround</altitudeMode></Camera></gx:FlyTo><gx:FlyTo><gx:duration>5.66</gx:duration><gx:flyToMode>smooth</gx:flyToMode><Camera><longitude>140.755420</longitude><latitude>39.702659</latitude><altitude>300</altitude><heading>106.0</heading><tilt>60</tilt><altitudeMode>relativeToGround</altitudeMode></Camera></gx:FlyTo><gx:FlyTo><gx:duration>5.66</gx:duration><gx:flyToMode>smooth</gx:flyToMode><Camera><longitude>140.766535</longitude><latitude>39.700212</latitude><altitude>300</altitude><heading>115.6</heading><tilt>60</tilt><altitudeMode>relativeToGround</altitudeMode></Camera></gx:FlyTo><gx:FlyTo><gx:duration>5.66</gx:duration><gx:flyToMode>smooth</gx:flyToMode><Camera><longitude>140.777478</longitude><latitude>39.696178</latitude><altitude>300</altitude><heading>123.4</heading><tilt>60</tilt><altitudeMode>relativeToGround</altitudeMode></Camera></gx:FlyTo><gx:FlyTo><gx:duration>5.66</gx:duration><gx:flyToMode>smooth</gx:flyToMode><Camera><longitude>140.790181</longitude><latitude>39.689741</latitude><altitude>300</altitude><heading>51.2</heading><tilt>60</tilt><altitudeMode>relativeToGround</altitudeMode></Camera></gx:FlyTo><gx:FlyTo><gx:duration>5.66</gx:duration><gx:flyToMode>smooth</gx:flyToMode><Camera><longitude>140.797391</longitude><latitude>39.694204</latitude><altitude>300</altitude><heading>36.2</heading><tilt>60</tilt><altitudeMode>relativeToGround</altitudeMode></Camera></gx:FlyTo><gx:FlyTo><gx:duration>5.66</gx:duration><gx:flyToMode>smooth</gx:flyToMode><Camera><longitude>140.810094</longitude><latitude>39.707551</latitude><altitude>300</altitude><heading>35.8</heading><tilt>60</tilt><altitudeMode>relativeToGround</altitudeMode></Camera></gx:FlyTo><gx:FlyTo><gx:duration>5.66</gx:duration><gx:flyToMode>smooth</gx:flyToMode><Camera><longitude>140.818591</longitude><latitude>39.716606</latitude><altitude>300</altitude><heading>60.9</heading><tilt>60</tilt><altitudeMode>relativeToGround</altitudeMode></Camera></gx:FlyTo><gx:FlyTo><gx:duration>5.66</gx:duration><gx:flyToMode>smooth</gx:flyToMode><Camera><longitude>140.827518</longitude><latitude>39.720426</latitude><altitude>300</altitude><heading>69.9</heading><tilt>60</tilt><altitudeMode>relativeToGround</altitudeMode></Camera></gx:FlyTo><gx:FlyTo><gx:duration>5.66</gx:duration><gx:flyToMode>smooth</gx:flyToMode><Camera><longitude>140.837259</longitude><latitude>39.723172</latitude><altitude>300</altitude><heading>123.9</heading><tilt>60</tilt><altitudeMode>relativeToGround</altitudeMode></Camera></gx:FlyTo><gx:FlyTo><gx:duration>5.66</gx:duration><gx:flyToMode>smooth</gx:flyToMode><Camera><longitude>140.844469</longitude><latitude>39.719439</latitude><altitude>300</altitude><heading>126.0</heading><tilt>60</tilt><altitudeMode>relativeToGround</altitudeMode></Camera></gx:FlyTo><gx:FlyTo><gx:duration>5.66</gx:duration><gx:flyToMode>smooth</gx:flyToMode><Camera><longitude>140.853996</longitude><latitude>39.714117</latitude><altitude>300</altitude><heading>123.0</heading><tilt>60</tilt><altitudeMode>relativeToGround</altitudeMode></Camera></gx:FlyTo><gx:FlyTo><gx:duration>5.66</gx:duration><gx:flyToMode>smooth</gx:flyToMode><Camera><longitude>140.864124</longitude><latitude>39.709053</latitude><altitude>300</altitude><heading>114.9</heading><tilt>60</tilt><altitudeMode>relativeToGround</altitudeMode></Camera></gx:FlyTo><gx:FlyTo><gx:duration>5.66</gx:duration><gx:flyToMode>smooth</gx:flyToMode><Camera><longitude>140.874681</longitude><latitude>39.705276</latitude><altitude>300</altitude><heading>125.4</heading><tilt>60</tilt><altitudeMode>relativeToGround</altitudeMode></Camera></gx:FlyTo><gx:FlyTo><gx:duration>5.66</gx:duration><gx:flyToMode>smooth</gx:flyToMode><Camera><longitude>140.883565</longitude><latitude>39.700427</latitude><altitude>300</altitude><heading>136.7</heading><tilt>60</tilt><altitudeMode>relativeToGround</altitudeMode></Camera></gx:FlyTo><gx:FlyTo><gx:duration>5.66</gx:duration><gx:flyToMode>smooth</gx:flyToMode><Camera><longitude>140.892191</longitude><latitude>39.693389</latitude><altitude>300</altitude><heading>134.2</heading><tilt>60</tilt><altitudeMode>relativeToGround</altitudeMode></Camera></gx:FlyTo><gx:FlyTo><gx:duration>5.66</gx:duration><gx:flyToMode>smooth</gx:flyToMode><Camera><longitude>140.902233</longitude><latitude>39.685879</latitude><altitude>300</altitude><heading>103.6</heading><tilt>60</tilt><altitudeMode>relativeToGround</altitudeMode></Camera></gx:FlyTo><gx:FlyTo><gx:duration>5.66</gx:duration><gx:flyToMode>smooth</gx:flyToMode><Camera><longitude>140.912361</longitude><latitude>39.683990</latitude><altitude>300</altitude><heading>92.8</heading><tilt>60</tilt><altitudeMode>relativeToGround</altitudeMode></Camera></gx:FlyTo><gx:FlyTo><gx:duration>5.66</gx:duration><gx:flyToMode>smooth</gx:flyToMode><Camera><longitude>140.923820</longitude><latitude>39.683561</latitude><altitude>300</altitude><heading>77.6</heading><tilt>60</tilt><altitudeMode>relativeToGround</altitudeMode></Camera></gx:FlyTo><gx:FlyTo><gx:duration>5.66</gx:duration><gx:flyToMode>smooth</gx:flyToMode><Camera><longitude>140.934978</longitude><latitude>39.685450</latitude><altitude>300</altitude><heading>85.3</heading><tilt>60</tilt><altitudeMode>relativeToGround</altitudeMode></Camera></gx:FlyTo><gx:FlyTo><gx:duration>5.66</gx:duration><gx:flyToMode>smooth</gx:flyToMode><Camera><longitude>140.947895</longitude><latitude>39.686265</latitude><altitude>300</altitude><heading>107.7</heading><tilt>60</tilt><altitudeMode>relativeToGround</altitudeMode></Camera></gx:FlyTo><gx:FlyTo><gx:duration>5.66</gx:duration><gx:flyToMode>smooth</gx:flyToMode><Camera><longitude>140.959568</longitude><latitude>39.683390</latitude><altitude>300</altitude><heading>158.5</heading><tilt>60</tilt><altitudeMode>relativeToGround</altitudeMode></Camera></gx:FlyTo><gx:FlyTo><gx:duration>5.66</gx:duration><gx:flyToMode>smooth</gx:flyToMode><Camera><longitude>140.963430</longitude><latitude>39.675837</latitude><altitude>300</altitude><heading>147.6</heading><tilt>60</tilt><altitudeMode>relativeToGround</altitudeMode></Camera></gx:FlyTo><gx:FlyTo><gx:duration>5.66</gx:duration><gx:flyToMode>smooth</gx:flyToMode><Camera><longitude>140.969739</longitude><latitude>39.668198</latitude><altitude>300</altitude><heading>204.5</heading><tilt>60</tilt><altitudeMode>relativeToGround</altitudeMode></Camera></gx:FlyTo><gx:FlyTo><gx:duration>5.66</gx:duration><gx:flyToMode>smooth</gx:flyToMode><Camera><longitude>140.965576</longitude><latitude>39.661160</latitude><altitude>300</altitude><heading>224.8</heading><tilt>60</tilt><altitudeMode>relativeToGround</altitudeMode></Camera></gx:FlyTo><gx:FlyTo><gx:duration>5.66</gx:duration><gx:flyToMode>smooth</gx:flyToMode><Camera><longitude>140.957165</longitude><latitude>39.654636</latitude><altitude>300</altitude><heading>220.0</heading><tilt>60</tilt><altitudeMode>relativeToGround</altitudeMode></Camera></gx:FlyTo><gx:FlyTo><gx:duration>5.66</gx:duration><gx:flyToMode>smooth</gx:flyToMode><Camera><longitude>140.950255</longitude><latitude>39.648285</latitude><altitude>300</altitude><heading>238.2</heading><tilt>60</tilt><altitudeMode>relativeToGround</altitudeMode></Camera></gx:FlyTo><gx:FlyTo><gx:duration>5.66</gx:duration><gx:flyToMode>smooth</gx:flyToMode><Camera><longitude>140.938282</longitude><latitude>39.642577</latitude><altitude>300</altitude><heading>225.0</heading><tilt>60</tilt><altitudeMode>relativeToGround</altitudeMode></Camera></gx:FlyTo><gx:FlyTo><gx:duration>5.66</gx:duration><gx:flyToMode>smooth</gx:flyToMode><Camera><longitude>140.934976</longitude><latitude>39.640035</latitude><altitude>300</altitude><heading>225.0</heading><tilt>60</tilt><altitudeMode>relativeToGround</altitudeMode></Camera></gx:FlyTo></gx:Playlist></gx:Tour>
<Placemark><name>Route line — 10/9 Fri</name><visibility>0</visibility><styleUrl>#rt</styleUrl><LineString><altitudeMode>relativeToGround</altitudeMode><coordinates>139.943107,39.282888,120 139.943104,39.282894,120 139.944277,39.283290,120 139.944963,39.283633,120 139.946294,39.284449,120 139.947281,39.285049,120 139.948611,39.285865,120 139.949641,39.286509,120 139.950199,39.286852,120 139.951015,39.287152,120 139.951787,39.287281,120 139.952431,39.287281,120 139.952860,39.287195,120 139.953847,39.286938,120 139.954276,39.286852,120 139.955263,39.286594,120 139.955692,39.286466,120 139.956164,39.286337,120 139.957194,39.286036,120 139.958096,39.285822,120 139.958310,39.285779,120 139.960113,39.285479,120 139.961228,39.285479,120 139.962258,39.285607,120 139.963245,39.285779,120 139.965434,39.286551,120 139.966679,39.286981,120 139.967322,39.287195,120 139.967580,39.287324,120 139.967752,39.287367,120 139.967966,39.287453,120 139.968567,39.287667,120 139.968824,39.287710,120 139.968953,39.287753,120 139.969640,39.288054,120 139.970198,39.288268,120 139.970455,39.288397,120 139.970884,39.288611,120 139.971914,39.289212,120 139.972987,39.290028,120 139.973502,39.290457,120 139.973760,39.290757,120 139.974146,39.291186,120 139.974575,39.291787,120 139.975090,39.292645,120 139.975691,39.292560,120 139.976120,39.292688,120 139.977536,39.294190,120 139.977622,39.294448,120 139.977579,39.294620,120 139.977407,39.294791,120 139.976463,39.295049,120 139.976292,39.295177,120 139.976206,39.295349,120 139.976206,39.295564,120 139.976549,39.296551,120 139.976807,39.297967,120 139.976978,39.300456,120 139.977236,39.301572,120 139.977708,39.302773,120 139.978309,39.303803,120 139.978867,39.304662,120 139.981399,39.307408,120 139.983287,39.309640,120 139.985991,39.313245,120 139.986720,39.314103,120 139.987707,39.315090,120 139.988437,39.315691,120 139.989595,39.316506,120 139.990883,39.317279,120 139.992213,39.317880,120 139.993501,39.318395,120 139.995217,39.318867,120 139.996591,39.319167,120 139.996934,39.319210,120 139.999723,39.319468,120 140.001655,39.319468,120 140.003586,39.319210,120 140.005774,39.318609,120 140.007834,39.318094,120 140.010066,39.317708,120 140.010324,39.317665,120 140.011096,39.317579,120 140.013714,39.317451,120 140.015645,39.317536,120 140.017319,39.317708,120 140.019507,39.318094,120 140.020795,39.318395,120 140.022039,39.318824,120 140.023971,39.319553,120 140.025043,39.320111,120 140.026031,39.320755,120 140.028048,39.322085,120 140.029764,39.323502,120 140.031996,39.325733,120 140.033755,39.327836,120 140.035300,39.330025,120 140.037060,39.332943,120 140.038047,39.334359,120 140.039420,39.336162,120 140.040922,39.337878,120 140.044270,39.341183,120 140.045428,39.342470,120 140.046759,39.344187,120 140.048089,39.346247,120 140.049548,39.348564,120 140.051050,39.350495,120 140.051908,39.351482,120 140.053325,39.352899,120 140.055256,39.354572,120 140.055943,39.355044,120 140.057402,39.356117,120 140.058947,39.357061,120 140.061264,39.358306,120 140.063367,39.359293,120 140.064569,39.359765,120 140.066414,39.360452,120 140.068216,39.361010,120 140.070448,39.361782,120 140.070877,39.361997,120 140.071692,39.362383,120 140.072036,39.362597,120 140.072680,39.363027,120 140.072894,39.363155,120 140.073409,39.363627,120 140.073581,39.363928,120 140.073409,39.364486,120 140.073066,39.365001,120 140.072508,39.365516,120 140.071950,39.365988,120 140.071521,39.366117,120 140.071135,39.366031,120 140.070319,39.365559,120 140.070448,39.365387,120 140.070963,39.364915,120 140.071564,39.364314,120 140.071821,39.364100,120 140.072250,39.363627,120 140.072422,39.363456,120 140.072722,39.363198,120 140.073023,39.362855,120 140.073109,39.362812,120 140.073924,39.361997,120 140.074739,39.361224,120 140.075426,39.360538,120 140.075598,39.360409,120 140.076413,39.359593,120 140.076842,39.359164,120 140.077572,39.358478,120 140.078216,39.357877,120 140.078301,39.357791,120 140.078945,39.357147,120 140.079503,39.356589,120 140.079846,39.356289,120 140.080876,39.355345,120 140.081477,39.354830,120 140.081735,39.354701,120 140.082207,39.354529,120 140.082722,39.354486,120 140.083537,39.354486,120 140.084782,39.354486,120 140.085983,39.354486,120 140.087357,39.354486,120 140.088687,39.354529,120 140.089417,39.354529,120 140.091219,39.354529,120 140.091949,39.354529,120 140.093064,39.354444,120 140.098987,39.352813,120 140.102420,39.351869,120 140.103321,39.351568,120 140.103450,39.351525,120 140.105252,39.350753,120 140.107226,39.349895,120 140.107656,39.349766,120 140.107741,39.349723,120 140.109844,39.348822,120 140.110016,39.348736,120 140.110788,39.348435,120 140.110874,39.348350,120 140.112376,39.347706,120 140.112720,39.347577,120 140.113750,39.347062,120 140.115294,39.346333,120 140.115466,39.346247,120 140.116754,39.345560,120 140.117097,39.345431,120 140.117354,39.345260,120 140.117826,39.345045,120 140.119028,39.344573,120 140.121603,39.343886,120 140.122547,39.343629,120 140.127053,39.342084,120 140.127182,39.341998,120 140.130100,39.340968,120 140.130401,39.340882,120 140.136323,39.338822,120 140.140700,39.337234,120 140.143189,39.336634,120 140.144906,39.336376,120 140.146494,39.336247,120 140.147610,39.336205,120 140.150700,39.336333,120 140.151258,39.336419,120 140.152459,39.336548,120 140.154219,39.336805,120 140.154948,39.336934,120 140.157266,39.337234,120 140.161214,39.337664,120 140.161729,39.337749,120 140.163703,39.338050,120 140.164776,39.338565,120 140.165162,39.338608,120 140.166450,39.338222,120 140.166965,39.338007,120 140.168123,39.337449,120 140.168724,39.337020,120 140.169325,39.336462,120 140.169454,39.336162,120 140.170054,39.334402,120 140.170655,39.333458,120 140.170698,39.333200,120 140.170569,39.332857,120 140.169454,39.331913,120 140.169368,39.331698,120 140.169454,39.331398,120 140.169625,39.331269,120 140.169926,39.331141,120 140.171299,39.331055,120 140.171685,39.330969,120 140.172801,39.330153,120 140.173573,39.329638,120 140.174389,39.328866,120 140.174561,39.328737,120 140.175033,39.328437,120 140.175290,39.328222,120 140.175591,39.327621,120 140.175633,39.326978,120 140.175719,39.326720,120 140.175891,39.326420,120 140.176148,39.326248,120 140.176492,39.326119,120 140.177264,39.325991,120 140.177951,39.325862,120 140.178423,39.325862,120 140.180054,39.326077,120 140.183444,39.325390,120 140.183873,39.325433,120 140.184431,39.325519,120 140.185418,39.325647,120 140.186191,39.325562,120 140.186834,39.325390,120 140.190135,39.324332,120 140.190141,39.324342,120 140.190135,39.324332,120 140.190182,39.324317,120 140.194559,39.322901,120 140.197949,39.321785,120 140.199022,39.321442,120 140.199537,39.321270,120 140.201125,39.320755,120 140.201941,39.320369,120 140.202284,39.320111,120 140.203571,39.319167,120 140.203743,39.319038,120 140.204473,39.318395,120 140.205245,39.317794,120 140.206447,39.317064,120 140.207176,39.316764,120 140.208163,39.316463,120 140.211167,39.315777,120 140.211940,39.315562,120 140.212412,39.315434,120 140.213699,39.314961,120 140.214429,39.314704,120 140.214858,39.314575,120 140.215116,39.314446,120 140.216146,39.314146,120 140.216918,39.313931,120 140.217090,39.313931,120 140.217733,39.313803,120 140.218248,39.313803,120 140.219150,39.313760,120 140.219965,39.313846,120 140.224257,39.314489,120 140.224643,39.314532,120 140.226359,39.314661,120 140.227304,39.314532,120 140.227818,39.314446,120 140.228548,39.314318,120 140.229321,39.314060,120 140.230136,39.313717,120 140.231166,39.313116,120 140.231380,39.312987,120 140.232153,39.312387,120 140.232453,39.312129,120 140.233054,39.311442,120 140.233483,39.310970,120 140.233612,39.310799,120 140.234427,39.309812,120 140.234513,39.309726,120 140.234900,39.309297,120 140.235329,39.308910,120 140.235672,39.308696,120 140.235972,39.308567,120 140.236573,39.308438,120 140.239663,39.308052,120 140.242109,39.307752,120 140.244126,39.307537,120 140.244298,39.307537,120 140.245800,39.307365,120 140.246572,39.307280,120 140.247474,39.307194,120 140.247688,39.307194,120 140.249062,39.307194,120 140.250306,39.307108,120 140.250564,39.307065,120 140.251551,39.306850,120 140.251765,39.306808,120 140.252237,39.306722,120 140.252709,39.306722,120 140.253310,39.306808,120 140.253654,39.306979,120 140.254040,39.307194,120 140.255070,39.308267,120 140.255156,39.308352,120 140.256143,39.309468,120 140.256615,39.310026,120 140.256829,39.310241,120 140.257301,39.310842,120 140.257645,39.311228,120 140.257859,39.311399,120 140.258288,39.311829,120 140.258031,39.311957,120 140.257044,39.312730,120 140.256658,39.313288,120 140.256529,39.313889,120 140.257001,39.316163,120 140.257430,39.317064,120 140.258117,39.317794,120 140.258675,39.318180,120 140.259404,39.318523,120 140.260005,39.318738,120 140.261035,39.318910,120 140.261378,39.318953,120 140.262237,39.319167,120 140.262580,39.319382,120 140.262794,39.319811,120 140.262880,39.321141,120 140.262794,39.321356,120 140.262451,39.321785,120 140.262108,39.322257,120 140.262022,39.322729,120 140.261850,39.324188,120 140.262065,39.324703,120 140.262151,39.324703,120 140.262494,39.324789,120 140.263395,39.324918,120 140.264769,39.324875,120 140.265799,39.325175,120 140.266571,39.325089,120 140.267344,39.324918,120 140.267687,39.324918,120 140.268288,39.324918,120 140.268674,39.325004,120 140.268888,39.325132,120 140.269446,39.325948,120 140.269961,39.326591,120 140.270090,39.326935,120 140.270133,39.328008,120 140.270004,39.330969,120 140.270348,39.331827,120 140.270905,39.333243,120 140.271249,39.333587,120 140.271463,39.333673,120 140.271678,39.333715,120 140.273051,39.334059,120 140.273824,39.333887,120 140.275970,39.333158,120 140.277343,39.332771,120 140.277987,39.332643,120 140.278716,39.332600,120 140.279274,39.332643,120 140.281549,39.333158,120 140.282321,39.333372,120 140.282707,39.333544,120 140.284038,39.334102,120 140.286183,39.334874,120 140.286570,39.335217,120 140.286870,39.335818,120 140.286913,39.336076,120 140.286913,39.336162,120 140.286913,39.336205,120 140.287085,39.337878,120 140.287342,39.338737,120 140.287642,39.339294,120 140.288329,39.340153,120 140.289402,39.341054,120 140.290003,39.341655,120 140.290346,39.342813,120 140.290775,39.344573,120 140.291033,39.345474,120 140.291119,39.345818,120 140.291076,39.346118,120 140.290775,39.346933,120 140.290775,39.347405,120 140.290947,39.347792,120 140.291119,39.348178,120 140.291591,39.349208,120 140.292149,39.350452,120 140.292277,39.350882,120 140.292363,39.352126,120 140.292449,39.353328,120 140.292664,39.353886,120 140.293565,39.355559,120 140.293651,39.356074,120 140.293608,39.356675,120 140.293350,39.357190,120 140.292578,39.358134,120 140.292106,39.358649,120 140.291977,39.358950,120 140.291934,39.359293,120 140.291977,39.359593,120 140.292192,39.360709,120 140.291934,39.360881,120 140.291848,39.361010,120 140.291376,39.362168,120 140.290990,39.362555,120 140.287771,39.363885,120 140.287299,39.364185,120 140.286527,39.365301,120 140.285497,39.366846,120 140.286012,39.367018,120 140.289016,39.368005,120 140.289445,39.368262,120 140.289874,39.368606,120 140.290260,39.369249,120 140.290518,39.370408,120 140.290604,39.371309,120 140.290689,39.372768,120 140.290818,39.373627,120 140.291204,39.374485,120 140.291977,39.375558,120 140.292835,39.376974,120 140.294209,39.379592,120 140.294423,39.380450,120 140.294552,39.380836,120 140.295024,39.382725,120 140.295067,39.383497,120 140.295324,39.384098,120 140.295668,39.384656,120 140.297470,39.386458,120 140.298371,39.387488,120 140.298328,39.387789,120 140.297041,39.389377,120 140.296998,39.389763,120 140.297127,39.390149,120 140.297170,39.390278,120 140.297470,39.391694,120 140.297341,39.392252,120 140.297170,39.392552,120 140.296998,39.393024,120 140.296268,39.394784,120 140.296226,39.395041,120 140.296397,39.395428,120 140.297599,39.396415,120 140.297771,39.396586,120 140.299745,39.398046,120 140.300174,39.398303,120 140.300689,39.398346,120 140.301847,39.397960,120 140.302277,39.397874,120 140.302877,39.397917,120 140.304337,39.398260,120 140.304766,39.398389,120 140.305367,39.398732,120 140.306654,39.400234,120 140.307040,39.400578,120 140.307512,39.400835,120 140.308714,39.401307,120 140.310731,39.402080,120 140.311675,39.402552,120 140.314035,39.403839,120 140.314980,39.404483,120 140.316567,39.405684,120 140.316653,39.405727,120 140.317211,39.406199,120 140.317855,39.406672,120 140.318069,39.406843,120 140.318756,39.407315,120 140.320001,39.407873,120 140.322661,39.409075,120 140.323133,39.409204,120 140.323477,39.409204,120 140.323734,39.409118,120 140.323992,39.408989,120 140.324636,39.408345,120 140.324893,39.408174,120 140.325279,39.408088,120 140.325708,39.408131,120 140.325923,39.408216,120 140.327554,39.409204,120 140.328155,39.409547,120 140.328412,39.409804,120 140.330257,39.412336,120 140.330644,39.412851,120 140.331030,39.413152,120 140.332747,39.414268,120 140.333176,39.414525,120 140.334506,39.415469,120 140.335193,39.415941,120 140.335236,39.416027,120 140.336008,39.416628,120 140.336952,39.417830,120 140.337167,39.418044,120 140.338068,39.418302,120 140.338540,39.418387,120 140.341415,39.418130,120 140.341802,39.418130,120 140.342274,39.418216,120 140.344849,39.419031,120 140.345192,39.419031,120 140.346093,39.418859,120 140.346522,39.418902,120 140.346823,39.419031,120 140.347552,39.419503,120 140.347767,39.419632,120 140.348411,39.419975,120 140.349097,39.420233,120 140.349698,39.420447,120 140.349708,39.420445,120 140.349698,39.420447,120 140.350428,39.420962,120 140.350599,39.421091,120 140.351930,39.422078,120 140.354462,39.424610,120 140.355449,39.425640,120 140.355706,39.425855,120 140.356522,39.426670,120 140.357251,39.427443,120 140.357895,39.428086,120 140.358453,39.428644,120 140.358710,39.428945,120 140.358410,39.429417,120 140.358367,39.429803,120 140.358753,39.431133,120 140.358882,39.431605,120 140.359011,39.431992,120 140.358968,39.432464,120 140.358968,39.432635,120 140.358925,39.432893,120 140.358839,39.433193,120 140.358281,39.434180,120 140.358152,39.434867,120 140.358195,39.435167,120 140.358410,39.435554,120 140.359526,39.436584,120 140.360470,39.437571,120 140.360856,39.438043,120 140.361242,39.438515,120 140.362229,39.437957,120 140.362358,39.437914,120 140.363517,39.437442,120 140.364933,39.437141,120 140.365705,39.436970,120 140.366263,39.436841,120 140.367036,39.436669,120 140.367594,39.436412,120 140.367808,39.436283,120 140.368795,39.435382,120 140.369267,39.435124,120 140.371542,39.434609,120 140.371928,39.434609,120 140.374074,39.434738,120 140.375147,39.434566,120 140.375662,39.434395,120 140.377378,39.433365,120 140.377722,39.433193,120 140.378237,39.433022,120 140.379052,39.432936,120 140.380297,39.433322,120 140.381198,39.433837,120 140.381970,39.434009,120 140.382442,39.433966,120 140.384545,39.433579,120 140.385618,39.433579,120 140.386305,39.433751,120 140.387506,39.434266,120 140.388794,39.434867,120 140.388966,39.434953,120 140.390339,39.435596,120 140.391026,39.436154,120 140.391412,39.436626,120 140.392056,39.437957,120 140.392399,39.438343,120 140.392699,39.438515,120 140.392871,39.438643,120 140.393686,39.438858,120 140.394244,39.438944,120 140.394888,39.438815,120 140.396175,39.438386,120 140.396519,39.438257,120 140.397205,39.438043,120 140.397334,39.438000,120 140.397677,39.437914,120 140.399566,39.437356,120 140.400639,39.436712,120 140.400982,39.436326,120 140.401626,39.435725,120 140.402441,39.435039,120 140.403085,39.434609,120 140.403643,39.434309,120 140.404544,39.433966,120 140.405488,39.433494,120 140.406690,39.432378,120 140.407805,39.431305,120 140.408320,39.431047,120 140.409007,39.430876,120 140.409222,39.430876,120 140.409908,39.430833,120 140.410595,39.430747,120 140.410981,39.430661,120 140.411282,39.430618,120 140.414286,39.429889,120 140.418019,39.428988,120 140.418191,39.428945,120 140.419564,39.428644,120 140.420294,39.428644,120 140.420809,39.428730,120 140.422010,39.429159,120 140.423427,39.429674,120 140.424371,39.430017,120 140.424800,39.430146,120 140.425830,39.430490,120 140.425959,39.430575,120 140.426474,39.430618,120 140.427032,39.430575,120 140.428147,39.430318,120 140.428877,39.430146,120 140.429735,39.429588,120 140.430336,39.429975,120 140.430379,39.430060,120 140.431194,39.430704,120 140.431623,39.431005,120 140.432053,39.431219,120 140.432525,39.431391,120 140.432911,39.431434,120 140.434842,39.431477,120 140.434928,39.431477,120 140.435615,39.431691,120 140.435915,39.431906,120 140.437031,39.432807,120 140.437803,39.433193,120 140.438876,39.433408,120 140.439606,39.433408,120 140.441365,39.432979,120 140.442052,39.432807,120 140.443382,39.432464,120 140.443897,39.432335,120 140.445313,39.432163,120 140.445356,39.432464,120 140.445657,39.433408,120 140.446215,39.434695,120 140.446687,39.435854,120 140.447416,39.437656,120 140.447459,39.437785,120 140.447845,39.438686,120 140.448360,39.439974,120 140.448489,39.440575,120 140.448446,39.441562,120 140.448318,39.442463,120 140.448146,39.443622,120 140.448060,39.444308,120 140.447974,39.444823,120 140.447931,39.445724,120 140.447974,39.446154,120 140.448017,39.446282,120 140.448103,39.446368,120 140.448232,39.446712,120 140.448961,39.447699,120 140.450120,39.449329,120 140.451279,39.451003,120 140.452051,39.452033,120 140.452352,39.452548,120 140.452437,39.452891,120 140.452480,39.453406,120 140.452437,39.453878,120 140.452437,39.454136,120 140.452309,39.455080,120 140.452223,39.455981,120 140.452094,39.456797,120 140.452051,39.457483,120 140.452008,39.457870,120 140.451880,39.458728,120 140.451794,39.459715,120 140.451579,39.461689,120 140.451493,39.462719,120 140.451665,39.463577,120 140.451794,39.464006,120 140.452223,39.464779,120 140.452566,39.465208,120 140.452909,39.465551,120 140.453596,39.466066,120 140.454025,39.466324,120 140.455141,39.466796,120 140.461407,39.469199,120 140.464540,39.470358,120 140.464926,39.470530,120 140.466084,39.470959,120 140.466900,39.470487,120 140.467243,39.470272,120 140.468659,39.469371,120 140.469089,39.469757,120 140.469475,39.470143,120 140.469775,39.470444,120 140.470076,39.470744,120 140.470505,39.471130,120 140.470934,39.471431,120 140.474796,39.474134,120 140.476041,39.474950,120 140.476899,39.475551,120 140.477200,39.475765,120 140.477715,39.476151,120 140.478702,39.476881,120 140.479689,39.477568,120 140.480161,39.477911,120 140.480676,39.478297,120 140.481663,39.479027,120 140.482693,39.479756,120 140.483336,39.480228,120 140.484624,39.481173,120 140.485654,39.481902,120 140.486641,39.482632,120 140.487628,39.483361,120 140.488486,39.483962,120 140.490203,39.485207,120 140.490847,39.485636,120 140.492778,39.487052,120 140.494623,39.488382,120 140.494924,39.488640,120 140.495353,39.488897,120 140.495868,39.489284,120 140.496426,39.489713,120 140.496554,39.489799,120 140.496597,39.489841,120 140.497327,39.490614,120 140.498271,39.492202,120 140.498528,39.492674,120 140.498915,39.493318,120 140.499730,39.494734,120 140.500932,39.496794,120 140.501060,39.497008,120 140.501404,39.497609,120 140.501876,39.498467,120 140.502520,39.499497,120 140.502691,39.499798,120 140.502777,39.499884,120 140.503464,39.501128,120 140.503764,39.501643,120 140.504065,39.502201,120 140.504408,39.502802,120 140.504880,39.503360,120 140.505481,39.503875,120 140.506210,39.504347,120 140.507884,39.505291,120 140.508485,39.505591,120 140.509043,39.505935,120 140.509858,39.506407,120 140.510716,39.506879,120 140.511189,39.507222,120 140.511403,39.507437,120 140.511789,39.508038,120 140.511961,39.509025,120 140.512004,39.509196,120 140.512004,39.509239,120 140.512133,39.509926,120 140.512218,39.510398,120 140.512433,39.511771,120 140.512433,39.511857,120 140.512476,39.512157,120 140.512476,39.512243,120 140.512519,39.512458,120 140.512691,39.513659,120 140.512991,39.515634,120 140.513120,39.516492,120 140.513291,39.516835,120 140.513334,39.516921,120 140.513721,39.517264,120 140.515437,39.518166,120 140.515480,39.518166,120 140.515780,39.518337,120 140.517926,39.519453,120 140.518441,39.519711,120 140.519557,39.520311,120 140.519943,39.520612,120 140.520759,39.521513,120 140.522604,39.523530,120 140.522733,39.523702,120 140.523119,39.524174,120 140.523248,39.524302,120 140.523419,39.524474,120 140.524321,39.525461,120 140.524621,39.525805,120 140.525780,39.527178,120 140.525908,39.527435,120 140.525994,39.527564,120 140.526381,39.528594,120 140.526724,39.529667,120 140.526853,39.530826,120 140.527110,39.531641,120 140.527282,39.532027,120 140.527368,39.532156,120 140.528011,39.532971,120 140.528698,39.533701,120 140.530200,39.535332,120 140.530329,39.535460,120 140.530758,39.536147,120 140.530887,39.536319,120 140.531316,39.537349,120 140.531359,39.537435,120 140.531745,39.538121,120 140.532517,39.538937,120 140.532502,39.538975,120 140.532517,39.538937,120 140.533376,39.539537,120 140.534191,39.539967,120 140.535007,39.540224,120 140.535135,39.540267,120 140.535607,39.540396,120 140.536165,39.540524,120 140.536809,39.540739,120 140.537238,39.540868,120 140.538354,39.541383,120 140.539427,39.542284,120 140.539598,39.542456,120 140.540113,39.543014,120 140.540628,39.543529,120 140.541058,39.543915,120 140.542130,39.544988,120 140.542860,39.545717,120 140.543933,39.546747,120 140.544877,39.547691,120 140.545220,39.548078,120 140.545907,39.548764,120 140.546637,39.549451,120 140.547366,39.550223,120 140.547967,39.550781,120 140.548353,39.551125,120 140.549598,39.552326,120 140.550413,39.553142,120 140.550456,39.553227,120 140.551229,39.553957,120 140.552559,39.555244,120 140.553074,39.555802,120 140.553160,39.555888,120 140.554576,39.557304,120 140.555005,39.557734,120 140.556335,39.559021,120 140.557065,39.559751,120 140.557451,39.560137,120 140.557880,39.560738,120 140.558009,39.561124,120 140.558352,39.562154,120 140.558438,39.562454,120 140.558524,39.562669,120 140.558910,39.563999,120 140.559425,39.565587,120 140.559468,39.565673,120 140.559683,39.566360,120 140.560155,39.567776,120 140.560369,39.568248,120 140.560412,39.568419,120 140.560498,39.568634,120 140.560541,39.568677,120 140.560927,39.569578,120 140.561185,39.570179,120 140.561743,39.571424,120 140.561786,39.571466,120 140.562344,39.572496,120 140.562429,39.572711,120 140.562859,39.573312,120 140.563073,39.573655,120 140.563245,39.573870,120 140.563459,39.574170,120 140.564103,39.574943,120 140.564318,39.575200,120 140.565305,39.576359,120 140.566335,39.577732,120 140.566893,39.578719,120 140.566936,39.578805,120 140.567193,39.579234,120 140.567966,39.580607,120 140.568094,39.580779,120 140.568309,39.581165,120 140.569253,39.582796,120 140.569510,39.583225,120 140.569596,39.583440,120 140.569983,39.584041,120 140.570197,39.584384,120 140.570540,39.584985,120 140.570583,39.585071,120 140.571055,39.585843,120 140.571098,39.585886,120 140.571270,39.586143,120 140.571442,39.586444,120 140.572000,39.587474,120 140.572557,39.588418,120 140.573030,39.589190,120 140.573931,39.590435,120 140.574961,39.591851,120 140.576119,39.593525,120 140.576205,39.593654,120 140.576549,39.594169,120 140.576677,39.594598,120 140.576248,39.595327,120 140.576162,39.595413,120 140.575476,39.596486,120 140.575347,39.596658,120 140.574832,39.597344,120 140.574532,39.597816,120 140.574403,39.598160,120 140.574446,39.598761,120 140.574489,39.599233,120 140.574532,39.599619,120 140.574574,39.599919,120 140.574617,39.600306,120 140.574660,39.600692,120 140.574532,39.601207,120 140.574403,39.601464,120 140.574017,39.601851,120 140.573502,39.602194,120 140.572944,39.602451,120 140.571570,39.603138,120 140.571313,39.603310,120 140.568309,39.605541,120 140.568051,39.605756,120 140.567794,39.605927,120 140.567751,39.606185,120 140.567751,39.606700,120 140.567794,39.607601,120 140.568137,39.608288,120 140.568867,39.609060,120 140.569382,39.609318,120 140.569940,39.609489,120 140.570326,39.609618,120 140.570111,39.610176,120 140.569940,39.610605,120 140.569854,39.610863,120 140.569768,39.611549,120 140.569768,39.611678,120 140.569854,39.612236,120 140.569940,39.612494,120 140.570025,39.612579,120 140.570197,39.612880,120 140.570669,39.613609,120 140.570970,39.614124,120 140.571184,39.614897,120 140.571184,39.615197,120 140.571184,39.615669,120 140.571227,39.616442,120 140.571399,39.617171,120 140.571442,39.617472,120 140.572000,39.619489,120 140.572085,39.619918,120 140.572128,39.620390,120 140.571914,39.622107,120 140.571871,39.622493,120 140.571699,39.623995,120 140.571656,39.624252,120 140.571570,39.625025,120 140.571485,39.625583,120 140.571270,39.626698,120 140.571098,39.627600,120 140.570927,39.628372,120 140.570884,39.628716,120 140.570626,39.629874,120 140.570326,39.631462,120 140.570111,39.632363,120 140.570197,39.633222,120 140.570326,39.633522,120 140.570669,39.634080,120 140.571184,39.634767,120 140.571656,39.635453,120 140.571914,39.635797,120 140.572128,39.636054,120 140.572257,39.636312,120 140.572343,39.636397,120 140.572557,39.636827,120 140.572643,39.637127,120 140.572729,39.637642,120 140.572729,39.638371,120 140.572042,39.640260,120 140.571957,39.640517,120 140.571828,39.640861,120 140.571656,39.641247,120 140.571442,39.641848,120 140.571141,39.642534,120 140.570412,39.644594,120 140.570326,39.644938,120 140.570369,39.646096,120 140.570412,39.646783,120 140.570498,39.647512,120 140.570626,39.649229,120 140.570841,39.652448,120 140.570970,39.654336,120 140.570798,39.655409,120 140.569940,39.659700,120 140.569296,39.663219,120 140.568781,39.666052,120 140.568523,39.667082,120 140.568180,39.667983,120 140.568137,39.668112,120 140.567665,39.669485,120 140.567579,39.669785,120 140.567107,39.671116,120 140.565519,39.675450,120 140.565476,39.675536,120 140.564961,39.677167,120 140.564704,39.677596,120 140.563846,39.678497,120 140.563717,39.678669,120 140.562472,39.679999,120 140.560455,39.681587,120 140.559897,39.681802,120 140.558352,39.682102,120 140.557837,39.682231,120 140.557065,39.682746,120 140.556464,39.683218,120 140.555520,39.684119,120 140.555134,39.684763,120 140.555177,39.685707,120 140.555263,39.687467,120 140.555305,39.688754,120 140.555305,39.689012,120 140.555305,39.689312,120 140.555391,39.689956,120 140.556121,39.692101,120 140.556464,39.692574,120 140.556893,39.692917,120 140.557451,39.693174,120 140.558138,39.693303,120 140.560455,39.693089,120 140.560927,39.692917,120 140.561914,39.692445,120 140.563073,39.691930,120 140.563889,39.691887,120 140.564489,39.692059,120 140.568137,39.693990,120 140.571184,39.694419,120 140.572686,39.694591,120 140.573673,39.694977,120 140.574059,39.695277,120 140.574832,39.696436,120 140.575047,39.696651,120 140.575519,39.696865,120 140.576291,39.697080,120 140.577149,39.697251,120 140.577750,39.697423,120 140.578737,39.697809,120 140.579681,39.698195,120 140.580196,39.698582,120 140.580497,39.698925,120 140.581012,39.699826,120 140.581656,39.700942,120 140.582042,39.701586,120 140.582342,39.701972,120 140.583544,39.702487,120 140.584960,39.703517,120 140.585175,39.703774,120 140.585818,39.704933,120 140.586462,39.705534,120 140.586720,39.706049,120 140.587020,39.706864,120 140.587535,39.706864,120 140.588779,39.706564,120 140.589552,39.706221,120 140.590367,39.706264,120 140.592985,39.705834,120 140.593328,39.705834,120 140.594659,39.706178,120 140.596461,39.706779,120 140.597234,39.706907,120 140.598736,39.707036,120 140.599208,39.707036,120 140.600796,39.706821,120 140.601568,39.706821,120 140.602341,39.706693,120 140.602512,39.706736,120 140.603414,39.707251,120 140.604358,39.707379,120 140.604916,39.707680,120 140.605431,39.707937,120 140.606632,39.708409,120 140.608006,39.709396,120 140.608907,39.709826,120 140.609550,39.710340,120 140.610623,39.710813,120 140.610967,39.710770,120 140.611954,39.710298,120 140.612340,39.710212,120 140.613842,39.710040,120 140.614142,39.710040,120 140.614872,39.710212,120 140.616117,39.711156,120 140.617619,39.712186,120 140.618219,39.713173,120 140.618219,39.713387,120 140.618091,39.714074,120 140.618262,39.714546,120 140.618391,39.714718,120 140.619078,39.715147,120 140.619593,39.715877,120 140.619678,39.716434,120 140.619807,39.716735,120 140.620322,39.717121,120 140.620623,39.717207,120 140.620837,39.717121,120 140.621524,39.716649,120 140.623240,39.716520,120 140.623584,39.716392,120 140.624614,39.715662,120 140.625944,39.715061,120 140.626416,39.714847,120 140.626588,39.714718,120 140.626974,39.713516,120 140.628347,39.712787,120 140.629120,39.712744,120 140.630107,39.712915,120 140.631266,39.713259,120 140.632081,39.713216,120 140.632768,39.712830,120 140.633454,39.712744,120 140.633798,39.712830,120 140.634055,39.713044,120 140.634441,39.713559,120 140.634398,39.713774,120 140.634271,39.713880,120 140.634270,39.713880,120 140.634271,39.713880,120 140.634398,39.713774,120 140.634441,39.713559,120 140.634055,39.713044,120 140.633798,39.712830,120 140.633454,39.712744,120 140.633626,39.712358,120 140.634398,39.711328,120 140.634828,39.711070,120 140.636115,39.710684,120 140.636458,39.710469,120 140.637445,39.709139,120 140.639076,39.707851,120 140.640149,39.706521,120 140.640664,39.705877,120 140.641093,39.704976,120 140.641351,39.704676,120 140.641651,39.704504,120 140.642982,39.703903,120 140.643325,39.703689,120 140.645084,39.701929,120 140.645556,39.700985,120 140.646071,39.700642,120 140.648990,39.698024,120 140.649376,39.697852,120 140.650234,39.697723,120 140.652509,39.697595,120 140.656157,39.698367,120 140.656328,39.698453,120 140.656843,39.698753,120 140.657573,39.699011,120 140.658216,39.699097,120 140.659075,39.699140,120 140.660577,39.699268,120 140.661135,39.699183,120 140.661392,39.699054,120 140.663066,39.697766,120 140.664439,39.697165,120 140.665212,39.697165,120 140.666370,39.697509,120 140.668173,39.697852,120 140.668430,39.697981,120 140.669589,39.699097,120 140.669804,39.699440,120 140.670018,39.699955,120 140.670319,39.700127,120 140.671091,39.700212,120 140.672507,39.700255,120 140.673666,39.700770,120 140.676670,39.701028,120 140.677314,39.701071,120 140.677829,39.700985,120 140.679116,39.700427,120 140.679460,39.700255,120 140.680490,39.699740,120 140.680790,39.699697,120 140.681133,39.699697,120 140.681391,39.699783,120 140.684438,39.701285,120 140.685167,39.701414,120 140.686669,39.701371,120 140.686970,39.701414,120 140.687442,39.701672,120 140.687485,39.701757,120 140.688472,39.702659,120 140.688558,39.702830,120 140.688257,39.704289,120 140.688601,39.705749,120 140.688601,39.706092,120 140.688386,39.706821,120 140.688343,39.708195,120 140.688643,39.708881,120 140.688558,39.710040,120 140.689030,39.711328,120 140.689030,39.712701,120 140.689416,39.713731,120 140.689287,39.715018,120 140.689373,39.715662,120 140.689931,39.716735,120 140.690618,39.717550,120 140.690789,39.717679,120 140.691948,39.717894,120 140.693707,39.718881,120 140.694051,39.719138,120 140.694695,39.719782,120 140.696883,39.721541,120 140.697570,39.722142,120 140.698214,39.722915,120 140.698943,39.724417,120 140.699801,39.725361,120 140.700016,39.725661,120 140.700316,39.726176,120 140.700402,39.726734,120 140.700274,39.727507,120 140.700016,39.728236,120 140.699801,39.728665,120 140.699458,39.730039,120 140.698986,39.731240,120 140.698943,39.732313,120 140.698771,39.733129,120 140.698900,39.733515,120 140.699630,39.734502,120 140.700016,39.734502,120 140.700660,39.734502,120 140.701132,39.734631,120 140.702634,39.735403,120 140.703106,39.735532,120 140.703535,39.735489,120 140.704994,39.735017,120 140.705724,39.734845,120 140.705466,39.733729,120 140.705552,39.733472,120 140.706539,39.733171,120 140.708256,39.732742,120 140.708599,39.732614,120 140.708857,39.732528,120 140.710058,39.732571,120 140.710402,39.732485,120 140.710917,39.732313,120 140.711818,39.732356,120 140.712333,39.732399,120 140.713964,39.732528,120 140.714951,39.732399,120 140.715680,39.732270,120 140.716710,39.732141,120 140.716796,39.732099,120 140.717010,39.732099,120 140.717354,39.732013,120 140.717568,39.731712,120 140.717998,39.730983,120 140.718298,39.730682,120 140.718427,39.730597,120 140.719500,39.729910,120 140.719714,39.729695,120 140.720186,39.728193,120 140.720229,39.727936,120 140.720358,39.727421,120 140.720315,39.726734,120 140.720100,39.725919,120 140.720100,39.725661,120 140.720143,39.725189,120 140.720444,39.724545,120 140.720487,39.723687,120 140.720530,39.723129,120 140.720530,39.722443,120 140.720572,39.721670,120 140.720615,39.721241,120 140.720658,39.721026,120 140.720959,39.720469,120 140.721560,39.719653,120 140.722032,39.718666,120 140.722418,39.717894,120 140.722890,39.717250,120 140.723877,39.716349,120 140.724049,39.716134,120 140.724220,39.716005,120 140.724478,39.715619,120 140.724778,39.714847,120 140.725422,39.711628,120 140.725594,39.711070,120 140.725980,39.710383,120 140.726066,39.709868,120 140.726194,39.709010,120 140.726452,39.708624,120 140.726581,39.708238,120 140.726624,39.707937,120 140.726624,39.706693,120 140.726666,39.705663,120 140.726666,39.704976,120 140.726967,39.704933,120 140.727396,39.704847,120 140.728211,39.704719,120 140.729628,39.704461,120 140.730743,39.704289,120 140.731387,39.704289,120 140.732074,39.704332,120 140.733061,39.704375,120 140.733962,39.704461,120 140.735421,39.704590,120 140.735850,39.704590,120 140.736494,39.704504,120 140.736623,39.704461,120 140.736966,39.704204,120 140.737095,39.704032,120 140.737352,39.703045,120 140.737524,39.702272,120 140.737696,39.701543,120 140.737739,39.701114,120 140.738039,39.701157,120 140.738382,39.701200,120 140.738726,39.701242,120 140.739069,39.701285,120 140.739455,39.701328,120 140.739799,39.701328,120 140.740099,39.701328,120 140.741086,39.701285,120 140.742073,39.701242,120 140.742974,39.701414,120 140.743275,39.701500,120 140.743575,39.701629,120 140.744176,39.702015,120 140.744390,39.702358,120 140.744948,39.702959,120 140.745463,39.703388,120 140.745893,39.703646,120 140.746493,39.703860,120 140.747008,39.703989,120 140.747695,39.703989,120 140.748425,39.703903,120 140.749068,39.703732,120 140.749927,39.703517,120 140.750527,39.703431,120 140.752459,39.703517,120 140.753188,39.703431,120 140.753875,39.703259,120 140.755420,39.702659,120 140.756106,39.702487,120 140.756536,39.702487,120 140.757093,39.702573,120 140.758595,39.702873,120 140.759625,39.702873,120 140.760140,39.702787,120 140.760913,39.702530,120 140.761642,39.702229,120 140.761857,39.702144,120 140.764174,39.701071,120 140.765033,39.700642,120 140.766149,39.700298,120 140.766535,39.700212,120 140.771127,39.699097,120 140.771856,39.698882,120 140.775805,39.696994,120 140.777478,39.696178,120 140.777736,39.696050,120 140.778165,39.695706,120 140.778422,39.695320,120 140.778551,39.695020,120 140.778766,39.694505,120 140.779238,39.694118,120 140.779667,39.693990,120 140.780697,39.693990,120 140.780954,39.693947,120 140.781555,39.693646,120 140.782156,39.693217,120 140.782628,39.693131,120 140.783229,39.693131,120 140.784044,39.693089,120 140.784988,39.692831,120 140.785418,39.692616,120 140.790181,39.689741,120 140.790739,39.689398,120 140.792499,39.688325,120 140.793014,39.688196,120 140.793357,39.688153,120 140.793786,39.688196,120 140.794172,39.688368,120 140.794516,39.688625,120 140.795159,39.689441,120 140.795631,39.689827,120 140.796103,39.690084,120 140.796447,39.690385,120 140.796661,39.690814,120 140.796576,39.691758,120 140.797391,39.694204,120 140.798078,39.695663,120 140.798335,39.696007,120 140.798678,39.696393,120 140.799108,39.696651,120 140.799751,39.696865,120 140.800352,39.697165,120 140.800910,39.697766,120 140.801039,39.697895,120 140.810094,39.707551,120 140.818591,39.716606,120 140.819621,39.717207,120 140.820265,39.717464,120 140.820866,39.717979,120 140.821166,39.718537,120 140.821295,39.719353,120 140.821509,39.719868,120 140.821810,39.720211,120 140.822153,39.720383,120 140.822840,39.720511,120 140.823483,39.720383,120 140.823913,39.720426,120 140.824170,39.720511,120 140.825157,39.721069,120 140.825629,39.721155,120 140.826144,39.721155,120 140.826702,39.720984,120 140.827518,39.720426,120 140.828118,39.720168,120 140.828633,39.720082,120 140.829148,39.720125,120 140.830050,39.720125,120 140.831122,39.720082,120 140.831809,39.719996,120 140.832496,39.720039,120 140.833097,39.720168,120 140.834169,39.720597,120 140.834641,39.720898,120 140.834770,39.721026,120 140.834942,39.721842,120 140.835199,39.722271,120 140.835543,39.722528,120 140.836701,39.722872,120 140.837259,39.723172,120 140.837731,39.723601,120 140.838032,39.724073,120 140.838332,39.724417,120 140.838675,39.724631,120 140.839233,39.724674,120 140.839705,39.724588,120 140.840178,39.724202,120 140.840349,39.723816,120 140.840650,39.722958,120 140.841036,39.722314,120 140.841422,39.722056,120 140.841894,39.721885,120 140.842323,39.721584,120 140.842538,39.721327,120 140.842710,39.720726,120 140.842881,39.720511,120 140.844469,39.719439,120 140.845327,39.718666,120 140.846272,39.717336,120 140.846615,39.716949,120 140.847130,39.716520,120 140.848160,39.716091,120 140.850091,39.715662,120 140.851893,39.714847,120 140.853996,39.714117,120 140.854683,39.713902,120 140.855799,39.713817,120 140.856142,39.713688,120 140.857472,39.712701,120 140.857687,39.712315,120 140.857515,39.711413,120 140.857601,39.711027,120 140.857987,39.710555,120 140.858932,39.709911,120 140.860348,39.709353,120 140.860863,39.709268,120 140.864124,39.709053,120 140.868502,39.708924,120 140.869274,39.708967,120 140.870476,39.709139,120 140.870905,39.709096,120 140.871205,39.709010,120 140.871506,39.708838,120 140.872192,39.708452,120 140.872707,39.708066,120 140.873609,39.706821,120 140.874681,39.705276,120 140.874810,39.705062,120 140.875196,39.704547,120 140.875454,39.704332,120 140.875883,39.704204,120 140.876570,39.704204,120 140.877128,39.704247,120 140.877428,39.704289,120 140.878630,39.704332,120 140.879188,39.704118,120 140.880260,39.703302,120 140.880647,39.703002,120 140.881934,39.702144,120 140.882621,39.701629,120 140.883007,39.701285,120 140.883565,39.700427,120 140.883865,39.699912,120 140.885153,39.697680,120 140.885839,39.696693,120 140.886312,39.696393,120 140.886869,39.696178,120 140.887513,39.696093,120 140.888028,39.696007,120 140.888329,39.695878,120 140.889101,39.695449,120 140.890346,39.694633,120 140.892191,39.693389,120 140.893993,39.691930,120 140.896182,39.690299,120 140.897641,39.689312,120 140.899272,39.688454,120 140.900302,39.687552,120 140.902233,39.685879,120 140.902834,39.685535,120 140.904379,39.684720,120 140.904722,39.684548,120 140.905108,39.684505,120 140.906610,39.684720,120 140.907812,39.684892,120 140.908327,39.684978,120 140.909700,39.685235,120 140.911460,39.685535,120 140.911632,39.685278,120 140.912147,39.684334,120 140.912361,39.683990,120 140.912962,39.683518,120 140.913434,39.683390,120 140.913863,39.683304,120 140.914936,39.683175,120 140.915322,39.683089,120 140.916739,39.682875,120 140.919099,39.682789,120 140.919614,39.682789,120 140.920429,39.682746,120 140.921116,39.682918,120 140.922318,39.682789,120 140.922832,39.683003,120 140.923820,39.683561,120 140.926394,39.685106,120 140.926995,39.685192,120 140.927382,39.685149,120 140.927510,39.685149,120 140.930171,39.684978,120 140.931931,39.685106,120 140.932574,39.685149,120 140.932961,39.685192,120 140.933819,39.685278,120 140.934978,39.685450,120 140.936394,39.685664,120 140.936952,39.685750,120 140.937982,39.685793,120 140.939183,39.685707,120 140.940557,39.685793,120 140.941029,39.685879,120 140.941372,39.685965,120 140.942488,39.686265,120 140.942745,39.686265,120 140.943303,39.686136,120 140.943475,39.686136,120 140.943561,39.686179,120 140.944333,39.686093,120 140.944848,39.686093,120 140.945106,39.686136,120 140.945792,39.686179,120 140.947895,39.686265,120 140.948324,39.686179,120 140.949183,39.685793,120 140.950255,39.685621,120 140.951757,39.685450,120 140.952144,39.685407,120 140.953045,39.684892,120 140.953989,39.684720,120 140.955577,39.684205,120 140.956821,39.683776,120 140.958796,39.683475,120 140.959568,39.683390,120 140.960083,39.683304,120 140.959911,39.682961,120 140.959225,39.681802,120 140.959139,39.681072,120 140.959096,39.680386,120 140.959139,39.679999,120 140.959311,39.679270,120 140.959611,39.678969,120 140.960641,39.678025,120 140.961070,39.677639,120 140.962358,39.676695,120 140.962443,39.676609,120 140.963430,39.675837,120 140.964246,39.675064,120 140.965061,39.674420,120 140.967507,39.672446,120 140.968237,39.671845,120 140.968580,39.670987,120 140.968795,39.670086,120 140.969009,39.669485,120 140.969095,39.669056,120 140.969224,39.668798,120 140.969353,39.668541,120 140.969739,39.668198,120 140.969825,39.668112,120 140.969996,39.667983,120 140.969524,39.667511,120 140.969396,39.666953,120 140.969610,39.665365,120 140.969782,39.664121,120 140.969782,39.663777,120 140.969911,39.663305,120 140.969567,39.663091,120 140.969138,39.662919,120 140.969161,39.662854,120 140.969138,39.662919,120 140.969009,39.662833,120 140.968237,39.662490,120 140.966735,39.661803,120 140.966349,39.661589,120 140.965576,39.661160,120 140.964975,39.660816,120 140.964890,39.660773,120 140.963945,39.660215,120 140.963645,39.660001,120 140.961413,39.658284,120 140.961285,39.658155,120 140.960555,39.657426,120 140.959654,39.656696,120 140.957894,39.655323,120 140.957165,39.654636,120 140.956864,39.653993,120 140.956779,39.653563,120 140.956650,39.652662,120 140.956306,39.651976,120 140.956092,39.651418,120 140.956092,39.650774,120 140.956049,39.650130,120 140.955834,39.649572,120 140.955620,39.649401,120 140.955148,39.648972,120 140.954547,39.648757,120 140.954032,39.648628,120 140.951672,39.648414,120 140.950255,39.648285,120 140.949783,39.648070,120 140.949483,39.647899,120 140.948968,39.647470,120 140.948238,39.647126,120 140.947852,39.646997,120 140.946350,39.646568,120 140.945492,39.646182,120 140.944934,39.645882,120 140.943732,39.645281,120 140.941243,39.644036,120 140.940599,39.643736,120 140.938282,39.642577,120 140.937638,39.642277,120 140.936394,39.641676,120 140.935664,39.641461,120 140.934591,39.641290,120 140.935106,39.640388,120 140.935063,39.640088,120 140.934968,39.640077,120 140.934976,39.640035,120</coordinates></LineString></Placemark>
</Document></kml>
