<?xml version="1.0" encoding="UTF-8"?>
<kml xmlns="http://www.opengis.net/kml/2.2" xmlns:gx="http://www.google.com/kml/ext/2.2">
<Document><name>10/7 Wed · Sanjo → Kaminoyama (Zao)</name><description>North out of Niigata and inland into the Zao foothills. Flyover runs 16 min at 300 m (984 ft) above ground, tilt 60°. Double-click the tour below to play it.</description>
<Style id="rt"><LineStyle><color>b32fd5ff</color><width>3</width></LineStyle></Style>
<gx:Tour><name>▶ 10/7 Wed · Sanjo → Kaminoyama (Zao) — 181 km (113 mi)</name><description>North out of Niigata and inland into the Zao foothills.</description><gx:Playlist><gx:FlyTo><gx:duration>4</gx:duration><gx:flyToMode>bounce</gx:flyToMode><Camera><longitude>139.047447</longitude><latitude>37.544144</latitude><altitude>300</altitude><heading>347.5</heading><tilt>60</tilt><altitudeMode>relativeToGround</altitudeMode></Camera></gx:FlyTo><gx:FlyTo><gx:duration>5.67</gx:duration><gx:flyToMode>smooth</gx:flyToMode><Camera><longitude>139.045587</longitude><latitude>37.550797</latitude><altitude>300</altitude><heading>15.0</heading><tilt>60</tilt><altitudeMode>relativeToGround</altitudeMode></Camera></gx:FlyTo><gx:FlyTo><gx:duration>5.67</gx:duration><gx:flyToMode>smooth</gx:flyToMode><Camera><longitude>139.048076</longitude><latitude>37.558179</latitude><altitude>300</altitude><heading>24.2</heading><tilt>60</tilt><altitudeMode>relativeToGround</altitudeMode></Camera></gx:FlyTo><gx:FlyTo><gx:duration>5.67</gx:duration><gx:flyToMode>smooth</gx:flyToMode><Camera><longitude>139.052453</longitude><latitude>37.565904</latitude><altitude>300</altitude><heading>328.5</heading><tilt>60</tilt><altitudeMode>relativeToGround</altitudeMode></Camera></gx:FlyTo><gx:FlyTo><gx:duration>5.67</gx:duration><gx:flyToMode>smooth</gx:flyToMode><Camera><longitude>139.046445</longitude><latitude>37.573671</latitude><altitude>300</altitude><heading>73.4</heading><tilt>60</tilt><altitudeMode>relativeToGround</altitudeMode></Camera></gx:FlyTo><gx:FlyTo><gx:duration>5.67</gx:duration><gx:flyToMode>smooth</gx:flyToMode><Camera><longitude>139.057174</longitude><latitude>37.576203</latitude><altitude>300</altitude><heading>80.0</heading><tilt>60</tilt><altitudeMode>relativeToGround</altitudeMode></Camera></gx:FlyTo><gx:FlyTo><gx:duration>5.67</gx:duration><gx:flyToMode>smooth</gx:flyToMode><Camera><longitude>139.068246</longitude><latitude>37.577748</latitude><altitude>300</altitude><heading>97.2</heading><tilt>60</tilt><altitudeMode>relativeToGround</altitudeMode></Camera></gx:FlyTo><gx:FlyTo><gx:duration>5.67</gx:duration><gx:flyToMode>smooth</gx:flyToMode><Camera><longitude>139.078889</longitude><latitude>37.576675</latitude><altitude>300</altitude><heading>93.6</heading><tilt>60</tilt><altitudeMode>relativeToGround</altitudeMode></Camera></gx:FlyTo><gx:FlyTo><gx:duration>5.67</gx:duration><gx:flyToMode>smooth</gx:flyToMode><Camera><longitude>139.090004</longitude><latitude>37.576118</latitude><altitude>300</altitude><heading>13.8</heading><tilt>60</tilt><altitudeMode>relativeToGround</altitudeMode></Camera></gx:FlyTo><gx:FlyTo><gx:duration>5.67</gx:duration><gx:flyToMode>smooth</gx:flyToMode><Camera><longitude>139.092407</longitude><latitude>37.583885</latitude><altitude>300</altitude><heading>2.7</heading><tilt>60</tilt><altitudeMode>relativeToGround</altitudeMode></Camera></gx:FlyTo><gx:FlyTo><gx:duration>5.67</gx:duration><gx:flyToMode>smooth</gx:flyToMode><Camera><longitude>139.092879</longitude><latitude>37.591739</latitude><altitude>300</altitude><heading>11.2</heading><tilt>60</tilt><altitudeMode>relativeToGround</altitudeMode></Camera></gx:FlyTo><gx:FlyTo><gx:duration>5.67</gx:duration><gx:flyToMode>smooth</gx:flyToMode><Camera><longitude>139.095025</longitude><latitude>37.600365</latitude><altitude>300</altitude><heading>43.4</heading><tilt>60</tilt><altitudeMode>relativeToGround</altitudeMode></Camera></gx:FlyTo><gx:FlyTo><gx:duration>5.67</gx:duration><gx:flyToMode>smooth</gx:flyToMode><Camera><longitude>139.103823</longitude><latitude>37.607746</latitude><altitude>300</altitude><heading>357.4</heading><tilt>60</tilt><altitudeMode>relativeToGround</altitudeMode></Camera></gx:FlyTo><gx:FlyTo><gx:duration>5.67</gx:duration><gx:flyToMode>smooth</gx:flyToMode><Camera><longitude>139.103351</longitude><latitude>37.616072</latitude><altitude>300</altitude><heading>2.1</heading><tilt>60</tilt><altitudeMode>relativeToGround</altitudeMode></Camera></gx:FlyTo><gx:FlyTo><gx:duration>5.67</gx:duration><gx:flyToMode>smooth</gx:flyToMode><Camera><longitude>139.103780</longitude><latitude>37.625213</latitude><altitude>300</altitude><heading>306.9</heading><tilt>60</tilt><altitudeMode>relativeToGround</altitudeMode></Camera></gx:FlyTo><gx:FlyTo><gx:duration>5.67</gx:duration><gx:flyToMode>smooth</gx:flyToMode><Camera><longitude>139.094982</longitude><latitude>37.630448</latitude><altitude>300</altitude><heading>65.6</heading><tilt>60</tilt><altitudeMode>relativeToGround</altitudeMode></Camera></gx:FlyTo><gx:FlyTo><gx:duration>5.67</gx:duration><gx:flyToMode>smooth</gx:flyToMode><Camera><longitude>139.103479</longitude><latitude>37.633495</latitude><altitude>300</altitude><heading>44.3</heading><tilt>60</tilt><altitudeMode>relativeToGround</altitudeMode></Camera></gx:FlyTo><gx:FlyTo><gx:duration>5.67</gx:duration><gx:flyToMode>smooth</gx:flyToMode><Camera><longitude>139.111934</longitude><latitude>37.640362</latitude><altitude>300</altitude><heading>72.9</heading><tilt>60</tilt><altitudeMode>relativeToGround</altitudeMode></Camera></gx:FlyTo><gx:FlyTo><gx:duration>5.67</gx:duration><gx:flyToMode>smooth</gx:flyToMode><Camera><longitude>139.122534</longitude><latitude>37.642937</latitude><altitude>300</altitude><heading>47.5</heading><tilt>60</tilt><altitudeMode>relativeToGround</altitudeMode></Camera></gx:FlyTo><gx:FlyTo><gx:duration>5.67</gx:duration><gx:flyToMode>smooth</gx:flyToMode><Camera><longitude>139.131160</longitude><latitude>37.649202</latitude><altitude>300</altitude><heading>58.5</heading><tilt>60</tilt><altitudeMode>relativeToGround</altitudeMode></Camera></gx:FlyTo><gx:FlyTo><gx:duration>5.67</gx:duration><gx:flyToMode>smooth</gx:flyToMode><Camera><longitude>139.141502</longitude><latitude>37.654223</latitude><altitude>300</altitude><heading>37.7</heading><tilt>60</tilt><altitudeMode>relativeToGround</altitudeMode></Camera></gx:FlyTo><gx:FlyTo><gx:duration>5.67</gx:duration><gx:flyToMode>smooth</gx:flyToMode><Camera><longitude>139.148540</longitude><latitude>37.661433</latitude><altitude>300</altitude><heading>14.9</heading><tilt>60</tilt><altitudeMode>relativeToGround</altitudeMode></Camera></gx:FlyTo><gx:FlyTo><gx:duration>5.67</gx:duration><gx:flyToMode>smooth</gx:flyToMode><Camera><longitude>139.151545</longitude><latitude>37.670403</latitude><altitude>300</altitude><heading>37.6</heading><tilt>60</tilt><altitudeMode>relativeToGround</altitudeMode></Camera></gx:FlyTo><gx:FlyTo><gx:duration>5.67</gx:duration><gx:flyToMode>smooth</gx:flyToMode><Camera><longitude>139.159312</longitude><latitude>37.678385</latitude><altitude>300</altitude><heading>34.9</heading><tilt>60</tilt><altitudeMode>relativeToGround</altitudeMode></Camera></gx:FlyTo><gx:FlyTo><gx:duration>5.67</gx:duration><gx:flyToMode>smooth</gx:flyToMode><Camera><longitude>139.166222</longitude><latitude>37.686238</latitude><altitude>300</altitude><heading>22.7</heading><tilt>60</tilt><altitudeMode>relativeToGround</altitudeMode></Camera></gx:FlyTo><gx:FlyTo><gx:duration>5.67</gx:duration><gx:flyToMode>smooth</gx:flyToMode><Camera><longitude>139.170556</longitude><latitude>37.694435</latitude><altitude>300</altitude><heading>41.5</heading><tilt>60</tilt><altitudeMode>relativeToGround</altitudeMode></Camera></gx:FlyTo><gx:FlyTo><gx:duration>5.67</gx:duration><gx:flyToMode>smooth</gx:flyToMode><Camera><longitude>139.177465</longitude><latitude>37.700615</latitude><altitude>300</altitude><heading>359.8</heading><tilt>60</tilt><altitudeMode>relativeToGround</altitudeMode></Camera></gx:FlyTo><gx:FlyTo><gx:duration>5.67</gx:duration><gx:flyToMode>smooth</gx:flyToMode><Camera><longitude>139.177423</longitude><latitude>37.710013</latitude><altitude>300</altitude><heading>0.0</heading><tilt>60</tilt><altitudeMode>relativeToGround</altitudeMode></Camera></gx:FlyTo><gx:FlyTo><gx:duration>5.67</gx:duration><gx:flyToMode>smooth</gx:flyToMode><Camera><longitude>139.177423</longitude><latitude>37.719326</latitude><altitude>300</altitude><heading>358.8</heading><tilt>60</tilt><altitudeMode>relativeToGround</altitudeMode></Camera></gx:FlyTo><gx:FlyTo><gx:duration>5.67</gx:duration><gx:flyToMode>smooth</gx:flyToMode><Camera><longitude>139.177165</longitude><latitude>37.729197</latitude><altitude>300</altitude><heading>79.6</heading><tilt>60</tilt><altitudeMode>relativeToGround</altitudeMode></Camera></gx:FlyTo><gx:FlyTo><gx:duration>5.67</gx:duration><gx:flyToMode>smooth</gx:flyToMode><Camera><longitude>139.188066</longitude><latitude>37.730784</latitude><altitude>300</altitude><heading>13.4</heading><tilt>60</tilt><altitudeMode>relativeToGround</altitudeMode></Camera></gx:FlyTo><gx:FlyTo><gx:duration>5.67</gx:duration><gx:flyToMode>smooth</gx:flyToMode><Camera><longitude>139.190726</longitude><latitude>37.739625</latitude><altitude>300</altitude><heading>28.9</heading><tilt>60</tilt><altitudeMode>relativeToGround</altitudeMode></Camera></gx:FlyTo><gx:FlyTo><gx:duration>5.67</gx:duration><gx:flyToMode>smooth</gx:flyToMode><Camera><longitude>139.195189</longitude><latitude>37.746019</latitude><altitude>300</altitude><heading>77.2</heading><tilt>60</tilt><altitudeMode>relativeToGround</altitudeMode></Camera></gx:FlyTo><gx:FlyTo><gx:duration>5.67</gx:duration><gx:flyToMode>smooth</gx:flyToMode><Camera><longitude>139.206862</longitude><latitude>37.748122</latitude><altitude>300</altitude><heading>80.5</heading><tilt>60</tilt><altitudeMode>relativeToGround</altitudeMode></Camera></gx:FlyTo><gx:FlyTo><gx:duration>5.67</gx:duration><gx:flyToMode>smooth</gx:flyToMode><Camera><longitude>139.218535</longitude><latitude>37.749667</latitude><altitude>300</altitude><heading>56.5</heading><tilt>60</tilt><altitudeMode>relativeToGround</altitudeMode></Camera></gx:FlyTo><gx:FlyTo><gx:duration>5.67</gx:duration><gx:flyToMode>smooth</gx:flyToMode><Camera><longitude>139.228535</longitude><latitude>37.754903</latitude><altitude>300</altitude><heading>27.5</heading><tilt>60</tilt><altitudeMode>relativeToGround</altitudeMode></Camera></gx:FlyTo><gx:FlyTo><gx:duration>5.67</gx:duration><gx:flyToMode>smooth</gx:flyToMode><Camera><longitude>139.233899</longitude><latitude>37.763057</latitude><altitude>300</altitude><heading>43.0</heading><tilt>60</tilt><altitudeMode>relativeToGround</altitudeMode></Camera></gx:FlyTo><gx:FlyTo><gx:duration>5.67</gx:duration><gx:flyToMode>smooth</gx:flyToMode><Camera><longitude>139.242568</longitude><latitude>37.770395</latitude><altitude>300</altitude><heading>39.7</heading><tilt>60</tilt><altitudeMode>relativeToGround</altitudeMode></Camera></gx:FlyTo><gx:FlyTo><gx:duration>5.67</gx:duration><gx:flyToMode>smooth</gx:flyToMode><Camera><longitude>139.250550</longitude><latitude>37.777991</latitude><altitude>300</altitude><heading>51.6</heading><tilt>60</tilt><altitudeMode>relativeToGround</altitudeMode></Camera></gx:FlyTo><gx:FlyTo><gx:duration>5.67</gx:duration><gx:flyToMode>smooth</gx:flyToMode><Camera><longitude>139.259520</longitude><latitude>37.783613</latitude><altitude>300</altitude><heading>93.9</heading><tilt>60</tilt><altitudeMode>relativeToGround</altitudeMode></Camera></gx:FlyTo><gx:FlyTo><gx:duration>5.67</gx:duration><gx:flyToMode>smooth</gx:flyToMode><Camera><longitude>139.270806</longitude><latitude>37.783012</latitude><altitude>300</altitude><heading>29.0</heading><tilt>60</tilt><altitudeMode>relativeToGround</altitudeMode></Camera></gx:FlyTo><gx:FlyTo><gx:duration>5.67</gx:duration><gx:flyToMode>smooth</gx:flyToMode><Camera><longitude>139.276385</longitude><latitude>37.790952</latitude><altitude>300</altitude><heading>51.5</heading><tilt>60</tilt><altitudeMode>relativeToGround</altitudeMode></Camera></gx:FlyTo><gx:FlyTo><gx:duration>5.67</gx:duration><gx:flyToMode>smooth</gx:flyToMode><Camera><longitude>139.284925</longitude><latitude>37.796316</latitude><altitude>300</altitude><heading>28.4</heading><tilt>60</tilt><altitudeMode>relativeToGround</altitudeMode></Camera></gx:FlyTo><gx:FlyTo><gx:duration>5.67</gx:duration><gx:flyToMode>smooth</gx:flyToMode><Camera><longitude>139.289947</longitude><latitude>37.803655</latitude><altitude>300</altitude><heading>15.4</heading><tilt>60</tilt><altitudeMode>relativeToGround</altitudeMode></Camera></gx:FlyTo><gx:FlyTo><gx:duration>5.67</gx:duration><gx:flyToMode>smooth</gx:flyToMode><Camera><longitude>139.292951</longitude><latitude>37.812281</latitude><altitude>300</altitude><heading>17.1</heading><tilt>60</tilt><altitudeMode>relativeToGround</altitudeMode></Camera></gx:FlyTo><gx:FlyTo><gx:duration>5.67</gx:duration><gx:flyToMode>smooth</gx:flyToMode><Camera><longitude>139.296255</longitude><latitude>37.820778</latitude><altitude>300</altitude><heading>11.3</heading><tilt>60</tilt><altitudeMode>relativeToGround</altitudeMode></Camera></gx:FlyTo><gx:FlyTo><gx:duration>5.67</gx:duration><gx:flyToMode>smooth</gx:flyToMode><Camera><longitude>139.298615</longitude><latitude>37.830133</latitude><altitude>300</altitude><heading>11.1</heading><tilt>60</tilt><altitudeMode>relativeToGround</altitudeMode></Camera></gx:FlyTo><gx:FlyTo><gx:duration>5.67</gx:duration><gx:flyToMode>smooth</gx:flyToMode><Camera><longitude>139.300890</longitude><latitude>37.839274</latitude><altitude>300</altitude><heading>21.7</heading><tilt>60</tilt><altitudeMode>relativeToGround</altitudeMode></Camera></gx:FlyTo><gx:FlyTo><gx:duration>5.67</gx:duration><gx:flyToMode>smooth</gx:flyToMode><Camera><longitude>139.305139</longitude><latitude>37.847686</latitude><altitude>300</altitude><heading>19.1</heading><tilt>60</tilt><altitudeMode>relativeToGround</altitudeMode></Camera></gx:FlyTo><gx:FlyTo><gx:duration>5.67</gx:duration><gx:flyToMode>smooth</gx:flyToMode><Camera><longitude>139.308872</longitude><latitude>37.856183</latitude><altitude>300</altitude><heading>11.5</heading><tilt>60</tilt><altitudeMode>relativeToGround</altitudeMode></Camera></gx:FlyTo><gx:FlyTo><gx:duration>5.67</gx:duration><gx:flyToMode>smooth</gx:flyToMode><Camera><longitude>139.311318</longitude><latitude>37.865710</latitude><altitude>300</altitude><heading>24.5</heading><tilt>60</tilt><altitudeMode>relativeToGround</altitudeMode></Camera></gx:FlyTo><gx:FlyTo><gx:duration>5.67</gx:duration><gx:flyToMode>smooth</gx:flyToMode><Camera><longitude>139.316468</longitude><latitude>37.874637</latitude><altitude>300</altitude><heading>19.5</heading><tilt>60</tilt><altitudeMode>relativeToGround</altitudeMode></Camera></gx:FlyTo><gx:FlyTo><gx:duration>5.67</gx:duration><gx:flyToMode>smooth</gx:flyToMode><Camera><longitude>139.320245</longitude><latitude>37.883048</latitude><altitude>300</altitude><heading>34.4</heading><tilt>60</tilt><altitudeMode>relativeToGround</altitudeMode></Camera></gx:FlyTo><gx:FlyTo><gx:duration>5.67</gx:duration><gx:flyToMode>smooth</gx:flyToMode><Camera><longitude>139.326725</longitude><latitude>37.890515</latitude><altitude>300</altitude><heading>27.0</heading><tilt>60</tilt><altitudeMode>relativeToGround</altitudeMode></Camera></gx:FlyTo><gx:FlyTo><gx:duration>5.67</gx:duration><gx:flyToMode>smooth</gx:flyToMode><Camera><longitude>139.331660</longitude><latitude>37.898154</latitude><altitude>300</altitude><heading>30.2</heading><tilt>60</tilt><altitudeMode>relativeToGround</altitudeMode></Camera></gx:FlyTo><gx:FlyTo><gx:duration>5.67</gx:duration><gx:flyToMode>smooth</gx:flyToMode><Camera><longitude>139.337840</longitude><latitude>37.906523</latitude><altitude>300</altitude><heading>24.4</heading><tilt>60</tilt><altitudeMode>relativeToGround</altitudeMode></Camera></gx:FlyTo><gx:FlyTo><gx:duration>5.67</gx:duration><gx:flyToMode>smooth</gx:flyToMode><Camera><longitude>139.342475</longitude><latitude>37.914591</latitude><altitude>300</altitude><heading>30.8</heading><tilt>60</tilt><altitudeMode>relativeToGround</altitudeMode></Camera></gx:FlyTo><gx:FlyTo><gx:duration>5.67</gx:duration><gx:flyToMode>smooth</gx:flyToMode><Camera><longitude>139.348826</longitude><latitude>37.923002</latitude><altitude>300</altitude><heading>1.0</heading><tilt>60</tilt><altitudeMode>relativeToGround</altitudeMode></Camera></gx:FlyTo><gx:FlyTo><gx:duration>5.67</gx:duration><gx:flyToMode>smooth</gx:flyToMode><Camera><longitude>139.348998</longitude><latitude>37.930770</latitude><altitude>300</altitude><heading>20.7</heading><tilt>60</tilt><altitudeMode>relativeToGround</altitudeMode></Camera></gx:FlyTo><gx:FlyTo><gx:duration>5.67</gx:duration><gx:flyToMode>smooth</gx:flyToMode><Camera><longitude>139.352989</longitude><latitude>37.939095</latitude><altitude>300</altitude><heading>19.9</heading><tilt>60</tilt><altitudeMode>relativeToGround</altitudeMode></Camera></gx:FlyTo><gx:FlyTo><gx:duration>5.67</gx:duration><gx:flyToMode>smooth</gx:flyToMode><Camera><longitude>139.356637</longitude><latitude>37.947035</latitude><altitude>300</altitude><heading>342.0</heading><tilt>60</tilt><altitudeMode>relativeToGround</altitudeMode></Camera></gx:FlyTo><gx:FlyTo><gx:duration>5.67</gx:duration><gx:flyToMode>smooth</gx:flyToMode><Camera><longitude>139.353290</longitude><latitude>37.955146</latitude><altitude>300</altitude><heading>21.3</heading><tilt>60</tilt><altitudeMode>relativeToGround</altitudeMode></Camera></gx:FlyTo><gx:FlyTo><gx:duration>5.67</gx:duration><gx:flyToMode>smooth</gx:flyToMode><Camera><longitude>139.356894</longitude><latitude>37.962441</latitude><altitude>300</altitude><heading>31.2</heading><tilt>60</tilt><altitudeMode>relativeToGround</altitudeMode></Camera></gx:FlyTo><gx:FlyTo><gx:duration>5.67</gx:duration><gx:flyToMode>smooth</gx:flyToMode><Camera><longitude>139.362774</longitude><latitude>37.970080</latitude><altitude>300</altitude><heading>350.0</heading><tilt>60</tilt><altitudeMode>relativeToGround</altitudeMode></Camera></gx:FlyTo><gx:FlyTo><gx:duration>5.67</gx:duration><gx:flyToMode>smooth</gx:flyToMode><Camera><longitude>139.360800</longitude><latitude>37.978878</latitude><altitude>300</altitude><heading>17.6</heading><tilt>60</tilt><altitudeMode>relativeToGround</altitudeMode></Camera></gx:FlyTo><gx:FlyTo><gx:duration>5.67</gx:duration><gx:flyToMode>smooth</gx:flyToMode><Camera><longitude>139.364748</longitude><latitude>37.988663</latitude><altitude>300</altitude><heading>20.7</heading><tilt>60</tilt><altitudeMode>relativeToGround</altitudeMode></Camera></gx:FlyTo><gx:FlyTo><gx:duration>5.67</gx:duration><gx:flyToMode>smooth</gx:flyToMode><Camera><longitude>139.369125</longitude><latitude>37.997804</latitude><altitude>300</altitude><heading>20.5</heading><tilt>60</tilt><altitudeMode>relativeToGround</altitudeMode></Camera></gx:FlyTo><gx:FlyTo><gx:duration>5.67</gx:duration><gx:flyToMode>smooth</gx:flyToMode><Camera><longitude>139.373288</longitude><latitude>38.006558</latitude><altitude>300</altitude><heading>20.9</heading><tilt>60</tilt><altitudeMode>relativeToGround</altitudeMode></Camera></gx:FlyTo><gx:FlyTo><gx:duration>5.67</gx:duration><gx:flyToMode>smooth</gx:flyToMode><Camera><longitude>139.377623</longitude><latitude>38.015485</latitude><altitude>300</altitude><heading>20.4</heading><tilt>60</tilt><altitudeMode>relativeToGround</altitudeMode></Camera></gx:FlyTo><gx:FlyTo><gx:duration>5.67</gx:duration><gx:flyToMode>smooth</gx:flyToMode><Camera><longitude>139.383245</longitude><latitude>38.027415</latitude><altitude>300</altitude><heading>35.5</heading><tilt>60</tilt><altitudeMode>relativeToGround</altitudeMode></Camera></gx:FlyTo><gx:FlyTo><gx:duration>5.67</gx:duration><gx:flyToMode>smooth</gx:flyToMode><Camera><longitude>139.390154</longitude><latitude>38.035054</latitude><altitude>300</altitude><heading>34.1</heading><tilt>60</tilt><altitudeMode>relativeToGround</altitudeMode></Camera></gx:FlyTo><gx:FlyTo><gx:duration>5.67</gx:duration><gx:flyToMode>smooth</gx:flyToMode><Camera><longitude>139.397836</longitude><latitude>38.043981</latitude><altitude>300</altitude><heading>56.9</heading><tilt>60</tilt><altitudeMode>relativeToGround</altitudeMode></Camera></gx:FlyTo><gx:FlyTo><gx:duration>5.67</gx:duration><gx:flyToMode>smooth</gx:flyToMode><Camera><longitude>139.407878</longitude><latitude>38.049130</latitude><altitude>300</altitude><heading>31.9</heading><tilt>60</tilt><altitudeMode>relativeToGround</altitudeMode></Camera></gx:FlyTo><gx:FlyTo><gx:duration>5.67</gx:duration><gx:flyToMode>smooth</gx:flyToMode><Camera><longitude>139.414015</longitude><latitude>38.056898</latitude><altitude>300</altitude><heading>53.2</heading><tilt>60</tilt><altitudeMode>relativeToGround</altitudeMode></Camera></gx:FlyTo><gx:FlyTo><gx:duration>5.67</gx:duration><gx:flyToMode>smooth</gx:flyToMode><Camera><longitude>139.423113</longitude><latitude>38.062263</latitude><altitude>300</altitude><heading>70.7</heading><tilt>60</tilt><altitudeMode>relativeToGround</altitudeMode></Camera></gx:FlyTo><gx:FlyTo><gx:duration>5.67</gx:duration><gx:flyToMode>smooth</gx:flyToMode><Camera><longitude>139.434443</longitude><latitude>38.065395</latitude><altitude>300</altitude><heading>45.3</heading><tilt>60</tilt><altitudeMode>relativeToGround</altitudeMode></Camera></gx:FlyTo><gx:FlyTo><gx:duration>5.67</gx:duration><gx:flyToMode>smooth</gx:flyToMode><Camera><longitude>139.442039</longitude><latitude>38.071318</latitude><altitude>300</altitude><heading>354.7</heading><tilt>60</tilt><altitudeMode>relativeToGround</altitudeMode></Camera></gx:FlyTo><gx:FlyTo><gx:duration>5.67</gx:duration><gx:flyToMode>smooth</gx:flyToMode><Camera><longitude>139.440966</longitude><latitude>38.080459</latitude><altitude>300</altitude><heading>348.8</heading><tilt>60</tilt><altitudeMode>relativeToGround</altitudeMode></Camera></gx:FlyTo><gx:FlyTo><gx:duration>5.67</gx:duration><gx:flyToMode>smooth</gx:flyToMode><Camera><longitude>139.438477</longitude><latitude>38.090372</latitude><altitude>300</altitude><heading>25.5</heading><tilt>60</tilt><altitudeMode>relativeToGround</altitudeMode></Camera></gx:FlyTo><gx:FlyTo><gx:duration>5.67</gx:duration><gx:flyToMode>smooth</gx:flyToMode><Camera><longitude>139.444184</longitude><latitude>38.099771</latitude><altitude>300</altitude><heading>36.2</heading><tilt>60</tilt><altitudeMode>relativeToGround</altitudeMode></Camera></gx:FlyTo><gx:FlyTo><gx:duration>5.67</gx:duration><gx:flyToMode>smooth</gx:flyToMode><Camera><longitude>139.450407</longitude><latitude>38.106465</latitude><altitude>300</altitude><heading>84.8</heading><tilt>60</tilt><altitudeMode>relativeToGround</altitudeMode></Camera></gx:FlyTo><gx:FlyTo><gx:duration>5.67</gx:duration><gx:flyToMode>smooth</gx:flyToMode><Camera><longitude>139.461908</longitude><latitude>38.107281</latitude><altitude>300</altitude><heading>85.1</heading><tilt>60</tilt><altitudeMode>relativeToGround</altitudeMode></Camera></gx:FlyTo><gx:FlyTo><gx:duration>5.67</gx:duration><gx:flyToMode>smooth</gx:flyToMode><Camera><longitude>139.475899</longitude><latitude>38.108225</latitude><altitude>300</altitude><heading>96.8</heading><tilt>60</tilt><altitudeMode>relativeToGround</altitudeMode></Camera></gx:FlyTo><gx:FlyTo><gx:duration>5.67</gx:duration><gx:flyToMode>smooth</gx:flyToMode><Camera><longitude>139.488301</longitude><latitude>38.107066</latitude><altitude>300</altitude><heading>102.2</heading><tilt>60</tilt><altitudeMode>relativeToGround</altitudeMode></Camera></gx:FlyTo><gx:FlyTo><gx:duration>5.67</gx:duration><gx:flyToMode>smooth</gx:flyToMode><Camera><longitude>139.502892</longitude><latitude>38.104577</latitude><altitude>300</altitude><heading>107.1</heading><tilt>60</tilt><altitudeMode>relativeToGround</altitudeMode></Camera></gx:FlyTo><gx:FlyTo><gx:duration>5.67</gx:duration><gx:flyToMode>smooth</gx:flyToMode><Camera><longitude>139.513879</longitude><latitude>38.101916</latitude><altitude>300</altitude><heading>93.1</heading><tilt>60</tilt><altitudeMode>relativeToGround</altitudeMode></Camera></gx:FlyTo><gx:FlyTo><gx:duration>5.67</gx:duration><gx:flyToMode>smooth</gx:flyToMode><Camera><longitude>139.524951</longitude><latitude>38.101444</latitude><altitude>300</altitude><heading>115.7</heading><tilt>60</tilt><altitudeMode>relativeToGround</altitudeMode></Camera></gx:FlyTo><gx:FlyTo><gx:duration>5.67</gx:duration><gx:flyToMode>smooth</gx:flyToMode><Camera><longitude>139.535723</longitude><latitude>38.097367</latitude><altitude>300</altitude><heading>80.9</heading><tilt>60</tilt><altitudeMode>relativeToGround</altitudeMode></Camera></gx:FlyTo><gx:FlyTo><gx:duration>5.67</gx:duration><gx:flyToMode>smooth</gx:flyToMode><Camera><longitude>139.547267</longitude><latitude>38.098826</latitude><altitude>300</altitude><heading>111.8</heading><tilt>60</tilt><altitudeMode>relativeToGround</altitudeMode></Camera></gx:FlyTo><gx:FlyTo><gx:duration>5.67</gx:duration><gx:flyToMode>smooth</gx:flyToMode><Camera><longitude>139.561429</longitude><latitude>38.094363</latitude><altitude>300</altitude><heading>128.0</heading><tilt>60</tilt><altitudeMode>relativeToGround</altitudeMode></Camera></gx:FlyTo><gx:FlyTo><gx:duration>5.67</gx:duration><gx:flyToMode>smooth</gx:flyToMode><Camera><longitude>139.570785</longitude><latitude>38.088613</latitude><altitude>300</altitude><heading>146.7</heading><tilt>60</tilt><altitudeMode>relativeToGround</altitudeMode></Camera></gx:FlyTo><gx:FlyTo><gx:duration>5.67</gx:duration><gx:flyToMode>smooth</gx:flyToMode><Camera><longitude>139.577651</longitude><latitude>38.080373</latitude><altitude>300</altitude><heading>125.6</heading><tilt>60</tilt><altitudeMode>relativeToGround</altitudeMode></Camera></gx:FlyTo><gx:FlyTo><gx:duration>5.67</gx:duration><gx:flyToMode>smooth</gx:flyToMode><Camera><longitude>139.586878</longitude><latitude>38.075180</latitude><altitude>300</altitude><heading>103.3</heading><tilt>60</tilt><altitudeMode>relativeToGround</altitudeMode></Camera></gx:FlyTo><gx:FlyTo><gx:duration>5.67</gx:duration><gx:flyToMode>smooth</gx:flyToMode><Camera><longitude>139.596577</longitude><latitude>38.073378</latitude><altitude>300</altitude><heading>145.9</heading><tilt>60</tilt><altitudeMode>relativeToGround</altitudeMode></Camera></gx:FlyTo><gx:FlyTo><gx:duration>5.67</gx:duration><gx:flyToMode>smooth</gx:flyToMode><Camera><longitude>139.601340</longitude><latitude>38.067842</latitude><altitude>300</altitude><heading>83.1</heading><tilt>60</tilt><altitudeMode>relativeToGround</altitudeMode></Camera></gx:FlyTo><gx:FlyTo><gx:duration>5.67</gx:duration><gx:flyToMode>smooth</gx:flyToMode><Camera><longitude>139.613528</longitude><latitude>38.069000</latitude><altitude>300</altitude><heading>71.1</heading><tilt>60</tilt><altitudeMode>relativeToGround</altitudeMode></Camera></gx:FlyTo><gx:FlyTo><gx:duration>5.67</gx:duration><gx:flyToMode>smooth</gx:flyToMode><Camera><longitude>139.625158</longitude><latitude>38.072133</latitude><altitude>300</altitude><heading>54.2</heading><tilt>60</tilt><altitudeMode>relativeToGround</altitudeMode></Camera></gx:FlyTo><gx:FlyTo><gx:duration>5.67</gx:duration><gx:flyToMode>smooth</gx:flyToMode><Camera><longitude>139.634471</longitude><latitude>38.077412</latitude><altitude>300</altitude><heading>95.0</heading><tilt>60</tilt><altitudeMode>relativeToGround</altitudeMode></Camera></gx:FlyTo><gx:FlyTo><gx:duration>5.67</gx:duration><gx:flyToMode>smooth</gx:flyToMode><Camera><longitude>139.645672</longitude><latitude>38.076639</latitude><altitude>300</altitude><heading>69.0</heading><tilt>60</tilt><altitudeMode>relativeToGround</altitudeMode></Camera></gx:FlyTo><gx:FlyTo><gx:duration>5.67</gx:duration><gx:flyToMode>smooth</gx:flyToMode><Camera><longitude>139.656315</longitude><latitude>38.079858</latitude><altitude>300</altitude><heading>135.8</heading><tilt>60</tilt><altitudeMode>relativeToGround</altitudeMode></Camera></gx:FlyTo><gx:FlyTo><gx:duration>5.67</gx:duration><gx:flyToMode>smooth</gx:flyToMode><Camera><longitude>139.664640</longitude><latitude>38.073120</latitude><altitude>300</altitude><heading>180.9</heading><tilt>60</tilt><altitudeMode>relativeToGround</altitudeMode></Camera></gx:FlyTo><gx:FlyTo><gx:duration>5.67</gx:duration><gx:flyToMode>smooth</gx:flyToMode><Camera><longitude>139.664469</longitude><latitude>38.064365</latitude><altitude>300</altitude><heading>91.9</heading><tilt>60</tilt><altitudeMode>relativeToGround</altitudeMode></Camera></gx:FlyTo><gx:FlyTo><gx:duration>5.67</gx:duration><gx:flyToMode>smooth</gx:flyToMode><Camera><longitude>139.679060</longitude><latitude>38.063979</latitude><altitude>300</altitude><heading>93.3</heading><tilt>60</tilt><altitudeMode>relativeToGround</altitudeMode></Camera></gx:FlyTo><gx:FlyTo><gx:duration>5.67</gx:duration><gx:flyToMode>smooth</gx:flyToMode><Camera><longitude>139.691248</longitude><latitude>38.063421</latitude><altitude>300</altitude><heading>47.2</heading><tilt>60</tilt><altitudeMode>relativeToGround</altitudeMode></Camera></gx:FlyTo><gx:FlyTo><gx:duration>5.67</gx:duration><gx:flyToMode>smooth</gx:flyToMode><Camera><longitude>139.699144</longitude><latitude>38.069172</latitude><altitude>300</altitude><heading>57.8</heading><tilt>60</tilt><altitudeMode>relativeToGround</altitudeMode></Camera></gx:FlyTo><gx:FlyTo><gx:duration>5.67</gx:duration><gx:flyToMode>smooth</gx:flyToMode><Camera><longitude>139.713607</longitude><latitude>38.076339</latitude><altitude>300</altitude><heading>97.5</heading><tilt>60</tilt><altitudeMode>relativeToGround</altitudeMode></Camera></gx:FlyTo><gx:FlyTo><gx:duration>5.67</gx:duration><gx:flyToMode>smooth</gx:flyToMode><Camera><longitude>139.724808</longitude><latitude>38.075180</latitude><altitude>300</altitude><heading>125.3</heading><tilt>60</tilt><altitudeMode>relativeToGround</altitudeMode></Camera></gx:FlyTo><gx:FlyTo><gx:duration>5.67</gx:duration><gx:flyToMode>smooth</gx:flyToMode><Camera><longitude>139.734206</longitude><latitude>38.069944</latitude><altitude>300</altitude><heading>144.1</heading><tilt>60</tilt><altitudeMode>relativeToGround</altitudeMode></Camera></gx:FlyTo><gx:FlyTo><gx:duration>5.67</gx:duration><gx:flyToMode>smooth</gx:flyToMode><Camera><longitude>139.740901</longitude><latitude>38.062649</latitude><altitude>300</altitude><heading>125.1</heading><tilt>60</tilt><altitudeMode>relativeToGround</altitudeMode></Camera></gx:FlyTo><gx:FlyTo><gx:duration>5.67</gx:duration><gx:flyToMode>smooth</gx:flyToMode><Camera><longitude>139.750299</longitude><latitude>38.057456</latitude><altitude>300</altitude><heading>137.7</heading><tilt>60</tilt><altitudeMode>relativeToGround</altitudeMode></Camera></gx:FlyTo><gx:FlyTo><gx:duration>5.67</gx:duration><gx:flyToMode>smooth</gx:flyToMode><Camera><longitude>139.758196</longitude><latitude>38.050632</latitude><altitude>300</altitude><heading>133.8</heading><tilt>60</tilt><altitudeMode>relativeToGround</altitudeMode></Camera></gx:FlyTo><gx:FlyTo><gx:duration>5.67</gx:duration><gx:flyToMode>smooth</gx:flyToMode><Camera><longitude>139.766436</longitude><latitude>38.044410</latitude><altitude>300</altitude><heading>96.7</heading><tilt>60</tilt><altitudeMode>relativeToGround</altitudeMode></Camera></gx:FlyTo><gx:FlyTo><gx:duration>5.67</gx:duration><gx:flyToMode>smooth</gx:flyToMode><Camera><longitude>139.777508</longitude><latitude>38.043380</latitude><altitude>300</altitude><heading>62.5</heading><tilt>60</tilt><altitudeMode>relativeToGround</altitudeMode></Camera></gx:FlyTo><gx:FlyTo><gx:duration>5.67</gx:duration><gx:flyToMode>smooth</gx:flyToMode><Camera><longitude>139.789867</longitude><latitude>38.048444</latitude><altitude>300</altitude><heading>77.5</heading><tilt>60</tilt><altitudeMode>relativeToGround</altitudeMode></Camera></gx:FlyTo><gx:FlyTo><gx:duration>5.67</gx:duration><gx:flyToMode>smooth</gx:flyToMode><Camera><longitude>139.801412</longitude><latitude>38.050461</latitude><altitude>300</altitude><heading>76.2</heading><tilt>60</tilt><altitudeMode>relativeToGround</altitudeMode></Camera></gx:FlyTo><gx:FlyTo><gx:duration>5.67</gx:duration><gx:flyToMode>smooth</gx:flyToMode><Camera><longitude>139.813128</longitude><latitude>38.052735</latitude><altitude>300</altitude><heading>109.0</heading><tilt>60</tilt><altitudeMode>relativeToGround</altitudeMode></Camera></gx:FlyTo><gx:FlyTo><gx:duration>5.67</gx:duration><gx:flyToMode>smooth</gx:flyToMode><Camera><longitude>139.827204</longitude><latitude>38.048916</latitude><altitude>300</altitude><heading>112.2</heading><tilt>60</tilt><altitudeMode>relativeToGround</altitudeMode></Camera></gx:FlyTo><gx:FlyTo><gx:duration>5.67</gx:duration><gx:flyToMode>smooth</gx:flyToMode><Camera><longitude>139.834156</longitude><latitude>38.046684</latitude><altitude>300</altitude><heading>77.7</heading><tilt>60</tilt><altitudeMode>relativeToGround</altitudeMode></Camera></gx:FlyTo><gx:FlyTo><gx:duration>5.67</gx:duration><gx:flyToMode>smooth</gx:flyToMode><Camera><longitude>139.843941</longitude><latitude>38.048358</latitude><altitude>300</altitude><heading>96.8</heading><tilt>60</tilt><altitudeMode>relativeToGround</altitudeMode></Camera></gx:FlyTo><gx:FlyTo><gx:duration>5.67</gx:duration><gx:flyToMode>smooth</gx:flyToMode><Camera><longitude>139.855356</longitude><latitude>38.047285</latitude><altitude>300</altitude><heading>147.4</heading><tilt>60</tilt><altitudeMode>relativeToGround</altitudeMode></Camera></gx:FlyTo><gx:FlyTo><gx:duration>5.67</gx:duration><gx:flyToMode>smooth</gx:flyToMode><Camera><longitude>139.861879</longitude><latitude>38.039260</latitude><altitude>300</altitude><heading>145.2</heading><tilt>60</tilt><altitudeMode>relativeToGround</altitudeMode></Camera></gx:FlyTo><gx:FlyTo><gx:duration>5.67</gx:duration><gx:flyToMode>smooth</gx:flyToMode><Camera><longitude>139.868660</longitude><latitude>38.031578</latitude><altitude>300</altitude><heading>136.1</heading><tilt>60</tilt><altitudeMode>relativeToGround</altitudeMode></Camera></gx:FlyTo><gx:FlyTo><gx:duration>5.67</gx:duration><gx:flyToMode>smooth</gx:flyToMode><Camera><longitude>139.877114</longitude><latitude>38.024669</latitude><altitude>300</altitude><heading>117.6</heading><tilt>60</tilt><altitudeMode>relativeToGround</altitudeMode></Camera></gx:FlyTo><gx:FlyTo><gx:duration>5.67</gx:duration><gx:flyToMode>smooth</gx:flyToMode><Camera><longitude>139.887929</longitude><latitude>38.020205</latitude><altitude>300</altitude><heading>117.1</heading><tilt>60</tilt><altitudeMode>relativeToGround</altitudeMode></Camera></gx:FlyTo><gx:FlyTo><gx:duration>5.67</gx:duration><gx:flyToMode>smooth</gx:flyToMode><Camera><longitude>139.898486</longitude><latitude>38.015957</latitude><altitude>300</altitude><heading>76.1</heading><tilt>60</tilt><altitudeMode>relativeToGround</altitudeMode></Camera></gx:FlyTo><gx:FlyTo><gx:duration>5.67</gx:duration><gx:flyToMode>smooth</gx:flyToMode><Camera><longitude>139.909687</longitude><latitude>38.018146</latitude><altitude>300</altitude><heading>100.7</heading><tilt>60</tilt><altitudeMode>relativeToGround</altitudeMode></Camera></gx:FlyTo><gx:FlyTo><gx:duration>5.67</gx:duration><gx:flyToMode>smooth</gx:flyToMode><Camera><longitude>139.927583</longitude><latitude>38.015485</latitude><altitude>300</altitude><heading>124.2</heading><tilt>60</tilt><altitudeMode>relativeToGround</altitudeMode></Camera></gx:FlyTo><gx:FlyTo><gx:duration>5.67</gx:duration><gx:flyToMode>smooth</gx:flyToMode><Camera><longitude>139.937024</longitude><latitude>38.010421</latitude><altitude>300</altitude><heading>121.9</heading><tilt>60</tilt><altitudeMode>relativeToGround</altitudeMode></Camera></gx:FlyTo><gx:FlyTo><gx:duration>5.67</gx:duration><gx:flyToMode>smooth</gx:flyToMode><Camera><longitude>139.946551</longitude><latitude>38.005743</latitude><altitude>300</altitude><heading>71.9</heading><tilt>60</tilt><altitudeMode>relativeToGround</altitudeMode></Camera></gx:FlyTo><gx:FlyTo><gx:duration>5.67</gx:duration><gx:flyToMode>smooth</gx:flyToMode><Camera><longitude>139.960756</longitude><latitude>38.009391</latitude><altitude>300</altitude><heading>56.3</heading><tilt>60</tilt><altitudeMode>relativeToGround</altitudeMode></Camera></gx:FlyTo><gx:FlyTo><gx:duration>5.67</gx:duration><gx:flyToMode>smooth</gx:flyToMode><Camera><longitude>139.969811</longitude><latitude>38.014154</latitude><altitude>300</altitude><heading>67.4</heading><tilt>60</tilt><altitudeMode>relativeToGround</altitudeMode></Camera></gx:FlyTo><gx:FlyTo><gx:duration>5.67</gx:duration><gx:flyToMode>smooth</gx:flyToMode><Camera><longitude>139.980283</longitude><latitude>38.017588</latitude><altitude>300</altitude><heading>42.8</heading><tilt>60</tilt><altitudeMode>relativeToGround</altitudeMode></Camera></gx:FlyTo><gx:FlyTo><gx:duration>5.67</gx:duration><gx:flyToMode>smooth</gx:flyToMode><Camera><longitude>139.988050</longitude><latitude>38.024197</latitude><altitude>300</altitude><heading>70.0</heading><tilt>60</tilt><altitudeMode>relativeToGround</altitudeMode></Camera></gx:FlyTo><gx:FlyTo><gx:duration>5.67</gx:duration><gx:flyToMode>smooth</gx:flyToMode><Camera><longitude>140.000024</longitude><latitude>38.027630</latitude><altitude>300</altitude><heading>83.5</heading><tilt>60</tilt><altitudeMode>relativeToGround</altitudeMode></Camera></gx:FlyTo><gx:FlyTo><gx:duration>5.67</gx:duration><gx:flyToMode>smooth</gx:flyToMode><Camera><longitude>140.014315</longitude><latitude>38.028917</latitude><altitude>300</altitude><heading>71.9</heading><tilt>60</tilt><altitudeMode>relativeToGround</altitudeMode></Camera></gx:FlyTo><gx:FlyTo><gx:duration>5.67</gx:duration><gx:flyToMode>smooth</gx:flyToMode><Camera><longitude>140.025516</longitude><latitude>38.031793</latitude><altitude>300</altitude><heading>30.5</heading><tilt>60</tilt><altitudeMode>relativeToGround</altitudeMode></Camera></gx:FlyTo><gx:FlyTo><gx:duration>5.67</gx:duration><gx:flyToMode>smooth</gx:flyToMode><Camera><longitude>140.031781</longitude><latitude>38.040161</latitude><altitude>300</altitude><heading>37.4</heading><tilt>60</tilt><altitudeMode>relativeToGround</altitudeMode></Camera></gx:FlyTo><gx:FlyTo><gx:duration>5.67</gx:duration><gx:flyToMode>smooth</gx:flyToMode><Camera><longitude>140.038691</longitude><latitude>38.047285</latitude><altitude>300</altitude><heading>94.6</heading><tilt>60</tilt><altitudeMode>relativeToGround</altitudeMode></Camera></gx:FlyTo><gx:FlyTo><gx:duration>5.67</gx:duration><gx:flyToMode>smooth</gx:flyToMode><Camera><longitude>140.050278</longitude><latitude>38.046556</latitude><altitude>300</altitude><heading>104.8</heading><tilt>60</tilt><altitudeMode>relativeToGround</altitudeMode></Camera></gx:FlyTo><gx:FlyTo><gx:duration>5.67</gx:duration><gx:flyToMode>smooth</gx:flyToMode><Camera><longitude>140.061822</longitude><latitude>38.044152</latitude><altitude>300</altitude><heading>65.9</heading><tilt>60</tilt><altitudeMode>relativeToGround</altitudeMode></Camera></gx:FlyTo><gx:FlyTo><gx:duration>5.67</gx:duration><gx:flyToMode>smooth</gx:flyToMode><Camera><longitude>140.073023</longitude><latitude>38.048100</latitude><altitude>300</altitude><heading>84.0</heading><tilt>60</tilt><altitudeMode>relativeToGround</altitudeMode></Camera></gx:FlyTo><gx:FlyTo><gx:duration>5.67</gx:duration><gx:flyToMode>smooth</gx:flyToMode><Camera><longitude>140.085039</longitude><latitude>38.049088</latitude><altitude>300</altitude><heading>73.5</heading><tilt>60</tilt><altitudeMode>relativeToGround</altitudeMode></Camera></gx:FlyTo><gx:FlyTo><gx:duration>5.67</gx:duration><gx:flyToMode>smooth</gx:flyToMode><Camera><longitude>140.095897</longitude><latitude>38.051620</latitude><altitude>300</altitude><heading>52.2</heading><tilt>60</tilt><altitudeMode>relativeToGround</altitudeMode></Camera></gx:FlyTo><gx:FlyTo><gx:duration>5.67</gx:duration><gx:flyToMode>smooth</gx:flyToMode><Camera><longitude>140.105724</longitude><latitude>38.057628</latitude><altitude>300</altitude><heading>98.4</heading><tilt>60</tilt><altitudeMode>relativeToGround</altitudeMode></Camera></gx:FlyTo><gx:FlyTo><gx:duration>5.67</gx:duration><gx:flyToMode>smooth</gx:flyToMode><Camera><longitude>140.121646</longitude><latitude>38.055782</latitude><altitude>300</altitude><heading>120.3</heading><tilt>60</tilt><altitudeMode>relativeToGround</altitudeMode></Camera></gx:FlyTo><gx:FlyTo><gx:duration>5.67</gx:duration><gx:flyToMode>smooth</gx:flyToMode><Camera><longitude>140.132289</longitude><latitude>38.050890</latitude><altitude>300</altitude><heading>149.1</heading><tilt>60</tilt><altitudeMode>relativeToGround</altitudeMode></Camera></gx:FlyTo><gx:FlyTo><gx:duration>5.67</gx:duration><gx:flyToMode>smooth</gx:flyToMode><Camera><longitude>140.139542</longitude><latitude>38.041363</latitude><altitude>300</altitude><heading>123.2</heading><tilt>60</tilt><altitudeMode>relativeToGround</altitudeMode></Camera></gx:FlyTo><gx:FlyTo><gx:duration>5.67</gx:duration><gx:flyToMode>smooth</gx:flyToMode><Camera><longitude>140.151386</longitude><latitude>38.035269</latitude><altitude>300</altitude><heading>124.4</heading><tilt>60</tilt><altitudeMode>relativeToGround</altitudeMode></Camera></gx:FlyTo><gx:FlyTo><gx:duration>5.67</gx:duration><gx:flyToMode>smooth</gx:flyToMode><Camera><longitude>140.160871</longitude><latitude>38.030162</latitude><altitude>300</altitude><heading>103.6</heading><tilt>60</tilt><altitudeMode>relativeToGround</altitudeMode></Camera></gx:FlyTo><gx:FlyTo><gx:duration>5.67</gx:duration><gx:flyToMode>smooth</gx:flyToMode><Camera><longitude>140.170140</longitude><latitude>38.028402</latitude><altitude>300</altitude><heading>15.6</heading><tilt>60</tilt><altitudeMode>relativeToGround</altitudeMode></Camera></gx:FlyTo><gx:FlyTo><gx:duration>5.67</gx:duration><gx:flyToMode>smooth</gx:flyToMode><Camera><longitude>140.173359</longitude><latitude>38.037500</latitude><altitude>300</altitude><heading>9.1</heading><tilt>60</tilt><altitudeMode>relativeToGround</altitudeMode></Camera></gx:FlyTo><gx:FlyTo><gx:duration>5.67</gx:duration><gx:flyToMode>smooth</gx:flyToMode><Camera><longitude>140.175290</longitude><latitude>38.047028</latitude><altitude>300</altitude><heading>355.1</heading><tilt>60</tilt><altitudeMode>relativeToGround</altitudeMode></Camera></gx:FlyTo><gx:FlyTo><gx:duration>5.67</gx:duration><gx:flyToMode>smooth</gx:flyToMode><Camera><longitude>140.174131</longitude><latitude>38.057714</latitude><altitude>300</altitude><heading>19.5</heading><tilt>60</tilt><altitudeMode>relativeToGround</altitudeMode></Camera></gx:FlyTo><gx:FlyTo><gx:duration>5.67</gx:duration><gx:flyToMode>smooth</gx:flyToMode><Camera><longitude>140.177994</longitude><latitude>38.066297</latitude><altitude>300</altitude><heading>33.3</heading><tilt>60</tilt><altitudeMode>relativeToGround</altitudeMode></Camera></gx:FlyTo><gx:FlyTo><gx:duration>5.67</gx:duration><gx:flyToMode>smooth</gx:flyToMode><Camera><longitude>140.183787</longitude><latitude>38.073249</latitude><altitude>300</altitude><heading>12.3</heading><tilt>60</tilt><altitudeMode>relativeToGround</altitudeMode></Camera></gx:FlyTo><gx:FlyTo><gx:duration>5.67</gx:duration><gx:flyToMode>smooth</gx:flyToMode><Camera><longitude>140.186362</longitude><latitude>38.082519</latitude><altitude>300</altitude><heading>25.0</heading><tilt>60</tilt><altitudeMode>relativeToGround</altitudeMode></Camera></gx:FlyTo><gx:FlyTo><gx:duration>5.67</gx:duration><gx:flyToMode>smooth</gx:flyToMode><Camera><longitude>140.191684</longitude><latitude>38.091488</latitude><altitude>300</altitude><heading>49.5</heading><tilt>60</tilt><altitudeMode>relativeToGround</altitudeMode></Camera></gx:FlyTo><gx:FlyTo><gx:duration>5.67</gx:duration><gx:flyToMode>smooth</gx:flyToMode><Camera><longitude>140.202284</longitude><latitude>38.098612</latitude><altitude>300</altitude><heading>37.3</heading><tilt>60</tilt><altitudeMode>relativeToGround</altitudeMode></Camera></gx:FlyTo><gx:FlyTo><gx:duration>5.67</gx:duration><gx:flyToMode>smooth</gx:flyToMode><Camera><longitude>140.209794</longitude><latitude>38.106380</latitude><altitude>300</altitude><heading>4.4</heading><tilt>60</tilt><altitudeMode>relativeToGround</altitudeMode></Camera></gx:FlyTo><gx:FlyTo><gx:duration>5.67</gx:duration><gx:flyToMode>smooth</gx:flyToMode><Camera><longitude>140.210867</longitude><latitude>38.117366</latitude><altitude>300</altitude><heading>25.5</heading><tilt>60</tilt><altitudeMode>relativeToGround</altitudeMode></Camera></gx:FlyTo><gx:FlyTo><gx:duration>5.67</gx:duration><gx:flyToMode>smooth</gx:flyToMode><Camera><longitude>140.215673</longitude><latitude>38.125305</latitude><altitude>300</altitude><heading>58.4</heading><tilt>60</tilt><altitudeMode>relativeToGround</altitudeMode></Camera></gx:FlyTo><gx:FlyTo><gx:duration>5.67</gx:duration><gx:flyToMode>smooth</gx:flyToMode><Camera><longitude>140.225887</longitude><latitude>38.130240</latitude><altitude>300</altitude><heading>88.1</heading><tilt>60</tilt><altitudeMode>relativeToGround</altitudeMode></Camera></gx:FlyTo><gx:FlyTo><gx:duration>5.67</gx:duration><gx:flyToMode>smooth</gx:flyToMode><Camera><longitude>140.237389</longitude><latitude>38.130541</latitude><altitude>300</altitude><heading>80.0</heading><tilt>60</tilt><altitudeMode>relativeToGround</altitudeMode></Camera></gx:FlyTo><gx:FlyTo><gx:duration>5.67</gx:duration><gx:flyToMode>smooth</gx:flyToMode><Camera><longitude>140.248804</longitude><latitude>38.132129</latitude><altitude>300</altitude><heading>59.5</heading><tilt>60</tilt><altitudeMode>relativeToGround</altitudeMode></Camera></gx:FlyTo><gx:FlyTo><gx:duration>5.67</gx:duration><gx:flyToMode>smooth</gx:flyToMode><Camera><longitude>140.258889</longitude><latitude>38.136806</latitude><altitude>300</altitude><heading>21.3</heading><tilt>60</tilt><altitudeMode>relativeToGround</altitudeMode></Camera></gx:FlyTo><gx:FlyTo><gx:duration>5.67</gx:duration><gx:flyToMode>smooth</gx:flyToMode><Camera><longitude>140.263481</longitude><latitude>38.146076</latitude><altitude>300</altitude><heading>312.9</heading><tilt>60</tilt><altitudeMode>relativeToGround</altitudeMode></Camera></gx:FlyTo><gx:FlyTo><gx:duration>5.67</gx:duration><gx:flyToMode>smooth</gx:flyToMode><Camera><longitude>140.261017</longitude><latitude>38.147874</latitude><altitude>300</altitude><heading>312.9</heading><tilt>60</tilt><altitudeMode>relativeToGround</altitudeMode></Camera></gx:FlyTo></gx:Playlist></gx:Tour>
<Placemark><name>Route line — 10/7 Wed</name><visibility>0</visibility><styleUrl>#rt</styleUrl><LineString><altitudeMode>relativeToGround</altitudeMode><coordinates>139.047447,37.544144,120 139.047432,37.544134,120 139.047003,37.544532,120 139.046531,37.544961,120 139.045973,37.545433,120 139.045329,37.545905,120 139.045115,37.546077,120 139.044514,37.546463,120 139.043355,37.546849,120 139.043183,37.547021,120 139.043012,37.547450,120 139.043698,37.547708,120 139.044814,37.548265,120 139.045286,37.548995,120 139.045243,37.549167,120 139.045372,37.549682,120 139.045072,37.550282,120 139.045587,37.550797,120 139.045587,37.551012,120 139.045587,37.551398,120 139.045458,37.551570,120 139.044557,37.551956,120 139.044342,37.552471,120 139.043999,37.552643,120 139.043956,37.552943,120 139.044642,37.553716,120 139.044728,37.553802,120 139.044771,37.553844,120 139.044900,37.553930,120 139.045115,37.554317,120 139.045715,37.554703,120 139.046316,37.555389,120 139.047174,37.556634,120 139.047346,37.556806,120 139.047732,37.557278,120 139.047432,37.557449,120 139.047732,37.557836,120 139.048076,37.558179,120 139.048204,37.558351,120 139.048290,37.558522,120 139.048333,37.558994,120 139.048204,37.559638,120 139.048333,37.559853,120 139.048934,37.560625,120 139.049063,37.560797,120 139.049535,37.561612,120 139.049664,37.561827,120 139.049792,37.562041,120 139.050093,37.562385,120 139.051037,37.563071,120 139.051509,37.563415,120 139.051981,37.563715,120 139.052281,37.563972,120 139.052582,37.564273,120 139.052882,37.564788,120 139.053097,37.565389,120 139.052711,37.565646,120 139.052453,37.565904,120 139.052410,37.565989,120 139.052367,37.566032,120 139.051852,37.566848,120 139.051466,37.567406,120 139.051208,37.567835,120 139.051080,37.568178,120 139.051037,37.568564,120 139.051037,37.569251,120 139.051037,37.569637,120 139.050908,37.570024,120 139.050651,37.570367,120 139.049320,37.571440,120 139.049063,37.571611,120 139.047604,37.572513,120 139.046960,37.573071,120 139.046445,37.573671,120 139.046745,37.573886,120 139.047647,37.574530,120 139.048033,37.574744,120 139.048333,37.574959,120 139.049106,37.575688,120 139.049749,37.575989,120 139.050264,37.576118,120 139.050565,37.576246,120 139.051337,37.576461,120 139.051595,37.576461,120 139.052625,37.576418,120 139.052796,37.576418,120 139.053397,37.576418,120 139.053912,37.576418,120 139.055543,37.576375,120 139.057174,37.576203,120 139.058676,37.575989,120 139.059362,37.575946,120 139.061594,37.576075,120 139.062624,37.576246,120 139.064384,37.577019,120 139.064856,37.577147,120 139.067173,37.577662,120 139.068246,37.577748,120 139.068761,37.577748,120 139.069662,37.577791,120 139.070220,37.577963,120 139.070821,37.578306,120 139.070992,37.578435,120 139.072065,37.579165,120 139.072280,37.579379,120 139.072580,37.579036,120 139.073009,37.578521,120 139.073396,37.578049,120 139.073782,37.577534,120 139.074254,37.577233,120 139.074426,37.577147,120 139.074984,37.577105,120 139.076872,37.577062,120 139.077387,37.577019,120 139.078889,37.576675,120 139.079661,37.576547,120 139.081893,37.576632,120 139.082065,37.576632,120 139.084382,37.576418,120 139.084682,37.576332,120 139.085970,37.575946,120 139.086828,37.575688,120 139.087429,37.575474,120 139.087772,37.575431,120 139.088159,37.575474,120 139.088674,37.575603,120 139.088931,37.575688,120 139.090004,37.576118,120 139.090390,37.576289,120 139.090691,37.576375,120 139.090862,37.576461,120 139.091120,37.576547,120 139.091549,37.576718,120 139.091763,37.576847,120 139.092021,37.577062,120 139.092321,37.577405,120 139.092622,37.577834,120 139.092922,37.578950,120 139.093008,37.579165,120 139.093137,37.579679,120 139.093308,37.580066,120 139.093695,37.580538,120 139.093823,37.580795,120 139.093866,37.580967,120 139.093781,37.581353,120 139.093051,37.583156,120 139.092407,37.583885,120 139.092321,37.583971,120 139.092064,37.584314,120 139.091978,37.584701,120 139.092021,37.585087,120 139.092193,37.585559,120 139.092879,37.586331,120 139.093866,37.587404,120 139.094081,37.587705,120 139.094596,37.588649,120 139.094896,37.589464,120 139.094896,37.589722,120 139.094725,37.590108,120 139.094424,37.590537,120 139.093909,37.590837,120 139.093180,37.591224,120 139.093008,37.591438,120 139.092879,37.591739,120 139.092965,37.592812,120 139.093137,37.593842,120 139.094081,37.596073,120 139.094682,37.597017,120 139.095154,37.598090,120 139.095111,37.598433,120 139.094853,37.598948,120 139.094768,37.599335,120 139.094768,37.599807,120 139.095025,37.600365,120 139.095111,37.600536,120 139.095969,37.601395,120 139.096527,37.601995,120 139.097428,37.603240,120 139.097686,37.603498,120 139.098287,37.603927,120 139.100003,37.604871,120 139.100990,37.605600,120 139.102278,37.606587,120 139.103823,37.607746,120 139.104810,37.608347,120 139.105239,37.608562,120 139.105582,37.608862,120 139.105067,37.609549,120 139.104681,37.610235,120 139.104166,37.611008,120 139.102664,37.612553,120 139.102192,37.613239,120 139.102106,37.613711,120 139.102192,37.614141,120 139.103351,37.616072,120 139.103951,37.617145,120 139.104209,37.618089,120 139.104123,37.619205,120 139.104295,37.619934,120 139.104424,37.620621,120 139.104424,37.621050,120 139.104252,37.622166,120 139.104209,37.622595,120 139.103994,37.623925,120 139.103780,37.625213,120 139.103394,37.625771,120 139.103093,37.625985,120 139.102707,37.626200,120 139.101720,37.626457,120 139.101505,37.626500,120 139.100690,37.626543,120 139.100132,37.626672,120 139.099832,37.626843,120 139.099016,37.627401,120 139.098716,37.627573,120 139.098201,37.627916,120 139.097342,37.628431,120 139.097171,37.628603,120 139.096699,37.628946,120 139.096441,37.629204,120 139.095883,37.629633,120 139.094982,37.630448,120 139.094639,37.630792,120 139.094338,37.631178,120 139.094639,37.631435,120 139.095111,37.631779,120 139.096613,37.633066,120 139.097300,37.633452,120 139.097986,37.633624,120 139.098673,37.633710,120 139.099188,37.633624,120 139.101205,37.633281,120 139.101934,37.633238,120 139.102707,37.633281,120 139.103479,37.633495,120 139.104166,37.633839,120 139.104810,37.634225,120 139.105668,37.634525,120 139.106269,37.634740,120 139.107814,37.635169,120 139.108500,37.635469,120 139.108801,37.635727,120 139.109101,37.636027,120 139.109616,37.636929,120 139.109917,37.637272,120 139.111118,37.638130,120 139.111376,37.638388,120 139.111676,37.638946,120 139.111934,37.640362,120 139.112148,37.640748,120 139.112663,37.641177,120 139.115067,37.642422,120 139.115195,37.642508,120 139.115968,37.642808,120 139.116740,37.642937,120 139.117255,37.642937,120 139.118629,37.642722,120 139.119041,37.642696,120 139.119045,37.642734,120 139.119041,37.642696,120 139.119315,37.642679,120 139.121761,37.642851,120 139.122534,37.642937,120 139.123478,37.643194,120 139.124207,37.643580,120 139.124551,37.643709,120 139.125323,37.644224,120 139.126482,37.645469,120 139.126611,37.645597,120 139.127512,37.646542,120 139.128156,37.647057,120 139.128671,37.647400,120 139.130430,37.648644,120 139.130559,37.648773,120 139.131160,37.649202,120 139.131846,37.649760,120 139.132190,37.650018,120 139.132447,37.650189,120 139.134808,37.651305,120 139.135237,37.651649,120 139.135795,37.652292,120 139.136310,37.653022,120 139.136782,37.653108,120 139.139013,37.653837,120 139.139400,37.653966,120 139.139786,37.654009,120 139.141502,37.654223,120 139.143648,37.654481,120 139.144678,37.654610,120 139.145365,37.654824,120 139.145923,37.655168,120 139.146094,37.655339,120 139.146652,37.655940,120 139.146910,37.656369,120 139.147081,37.657056,120 139.147811,37.659287,120 139.148540,37.661433,120 139.149055,37.663021,120 139.149270,37.663579,120 139.149442,37.664051,120 139.150171,37.666154,120 139.150257,37.666454,120 139.150600,37.667785,120 139.151244,37.669630,120 139.151244,37.669673,120 139.151287,37.669802,120 139.151545,37.670403,120 139.152102,37.671003,120 139.153519,37.672462,120 139.153776,37.672763,120 139.154849,37.673836,120 139.155021,37.674050,120 139.155149,37.674136,120 139.156222,37.675252,120 139.156566,37.675638,120 139.157338,37.676411,120 139.157982,37.677054,120 139.158239,37.677312,120 139.159312,37.678385,120 139.161716,37.680874,120 139.162574,37.681775,120 139.163389,37.682590,120 139.164205,37.683449,120 139.165063,37.684264,120 139.165792,37.685165,120 139.166222,37.686238,120 139.166436,37.687440,120 139.166608,37.688127,120 139.166694,37.688642,120 139.166694,37.688684,120 139.166908,37.689929,120 139.167037,37.690787,120 139.167080,37.691045,120 139.167209,37.691603,120 139.167552,37.692118,120 139.168239,37.692676,120 139.168668,37.693019,120 139.168882,37.693148,120 139.169612,37.693706,120 139.170556,37.694435,120 139.170814,37.694607,120 139.171672,37.695293,120 139.172316,37.695723,120 139.172745,37.695980,120 139.172916,37.696152,120 139.173045,37.696495,120 139.173045,37.697225,120 139.173088,37.698512,120 139.173045,37.700658,120 139.175191,37.700658,120 139.177465,37.700615,120 139.177423,37.701645,120 139.177423,37.702718,120 139.177380,37.703276,120 139.177380,37.703748,120 139.177380,37.703791,120 139.177423,37.704778,120 139.177380,37.705851,120 139.177423,37.706409,120 139.177380,37.706881,120 139.177423,37.707911,120 139.177423,37.708941,120 139.177423,37.710013,120 139.177423,37.711043,120 139.177423,37.712073,120 139.177423,37.713103,120 139.177423,37.714133,120 139.177423,37.715206,120 139.177423,37.716236,120 139.177423,37.717266,120 139.177423,37.718296,120 139.177423,37.719326,120 139.177423,37.720399,120 139.177423,37.721429,120 139.177423,37.722502,120 139.177423,37.723532,120 139.177423,37.724562,120 139.177465,37.725935,120 139.177380,37.727094,120 139.177251,37.728124,120 139.177165,37.729197,120 139.178367,37.729154,120 139.180770,37.729154,120 139.181714,37.729239,120 139.182959,37.729497,120 139.183087,37.729540,120 139.184375,37.729669,120 139.185662,37.729797,120 139.186950,37.729969,120 139.187551,37.730227,120 139.187808,37.730441,120 139.188066,37.730784,120 139.189696,37.734561,120 139.189739,37.734733,120 139.189954,37.735162,120 139.190297,37.735848,120 139.190512,37.736363,120 139.190555,37.736664,120 139.190598,37.737179,120 139.190598,37.737565,120 139.190640,37.737865,120 139.190683,37.738595,120 139.190726,37.739625,120 139.190769,37.740655,120 139.190683,37.741342,120 139.190512,37.741685,120 139.189825,37.742715,120 139.189568,37.743058,120 139.189267,37.743530,120 139.189739,37.743702,120 139.189868,37.743788,120 139.190469,37.744002,120 139.191971,37.744646,120 139.194160,37.745547,120 139.194245,37.745590,120 139.195189,37.746019,120 139.195876,37.746277,120 139.196134,37.746320,120 139.198108,37.746792,120 139.198580,37.746921,120 139.199095,37.747006,120 139.199867,37.747178,120 139.201198,37.747393,120 139.202528,37.747564,120 139.203558,37.747693,120 139.204845,37.747822,120 139.205103,37.747865,120 139.206862,37.748122,120 139.207678,37.748208,120 139.210124,37.748551,120 139.210253,37.748551,120 139.211283,37.748594,120 139.211798,37.748551,120 139.212484,37.748380,120 139.212613,37.748380,120 139.213428,37.748251,120 139.213600,37.748251,120 139.214072,37.748208,120 139.215446,37.748380,120 139.216390,37.748680,120 139.218535,37.749667,120 139.218922,37.749839,120 139.220123,37.750397,120 139.224887,37.752671,120 139.225531,37.752972,120 139.227676,37.754002,120 139.227934,37.754173,120 139.228535,37.754903,120 139.228706,37.755117,120 139.229608,37.756491,120 139.229736,37.756705,120 139.231195,37.758937,120 139.231668,37.759666,120 139.231925,37.759967,120 139.232268,37.760568,120 139.232612,37.761083,120 139.233770,37.762842,120 139.233899,37.763057,120 139.233985,37.763186,120 139.234886,37.764516,120 139.235058,37.764773,120 139.235444,37.765288,120 139.236088,37.765889,120 139.236560,37.766275,120 139.237075,37.766619,120 139.237633,37.767005,120 139.238019,37.767262,120 139.238105,37.767305,120 139.238405,37.767520,120 139.239178,37.768078,120 139.239392,37.768207,120 139.240208,37.768764,120 139.240465,37.768936,120 139.240937,37.769279,120 139.242568,37.770395,120 139.243555,37.771211,120 139.246216,37.773871,120 139.246731,37.774386,120 139.248490,37.776017,120 139.250550,37.777991,120 139.252396,37.779708,120 139.252567,37.779880,120 139.253254,37.780480,120 139.254327,37.781167,120 139.254799,37.781425,120 139.256301,37.782283,120 139.256902,37.782669,120 139.257674,37.783055,120 139.258533,37.783313,120 139.259520,37.783613,120 139.260936,37.784214,120 139.261065,37.784257,120 139.261580,37.784429,120 139.262266,37.784557,120 139.264326,37.784386,120 139.265270,37.784171,120 139.266129,37.783656,120 139.266214,37.783613,120 139.266515,37.783356,120 139.267030,37.783184,120 139.268188,37.783098,120 139.268575,37.783098,120 139.268918,37.783055,120 139.270034,37.783055,120 139.270806,37.783012,120 139.271193,37.783055,120 139.271536,37.783184,120 139.271836,37.783527,120 139.274712,37.787519,120 139.275055,37.788334,120 139.275355,37.789450,120 139.275870,37.790608,120 139.276385,37.790952,120 139.277844,37.791638,120 139.278359,37.792110,120 139.278746,37.792625,120 139.278789,37.792668,120 139.278960,37.792883,120 139.279003,37.793012,120 139.279947,37.794299,120 139.280591,37.795029,120 139.281106,37.795501,120 139.281793,37.795758,120 139.283381,37.795973,120 139.284539,37.796230,120 139.284925,37.796316,120 139.285269,37.796402,120 139.285741,37.796531,120 139.286513,37.796702,120 139.287415,37.796960,120 139.287672,37.797089,120 139.287930,37.797260,120 139.288445,37.797861,120 139.288659,37.798247,120 139.288788,37.799063,120 139.288917,37.800093,120 139.289088,37.800608,120 139.289260,37.801080,120 139.289646,37.802067,120 139.289775,37.802453,120 139.289947,37.803655,120 139.289989,37.804041,120 139.290032,37.804341,120 139.290161,37.805200,120 139.291062,37.807131,120 139.291062,37.807217,120 139.291406,37.807946,120 139.291492,37.808075,120 139.291534,37.808204,120 139.292006,37.809277,120 139.292264,37.809877,120 139.292436,37.810307,120 139.292479,37.810392,120 139.292607,37.810607,120 139.292693,37.810907,120 139.292736,37.810993,120 139.292951,37.812281,120 139.293208,37.813869,120 139.293251,37.813997,120 139.293380,37.814770,120 139.293380,37.814813,120 139.293509,37.815585,120 139.293723,37.816014,120 139.294367,37.816916,120 139.295225,37.817817,120 139.295483,37.818117,120 139.295697,37.818503,120 139.295783,37.818718,120 139.295955,37.819147,120 139.296083,37.819791,120 139.296083,37.819834,120 139.296255,37.820778,120 139.296298,37.821636,120 139.296556,37.823396,120 139.296556,37.823524,120 139.296641,37.823954,120 139.296684,37.824426,120 139.296684,37.824512,120 139.296813,37.825413,120 139.296942,37.826056,120 139.297071,37.826400,120 139.297156,37.826743,120 139.297371,37.827258,120 139.297671,37.827687,120 139.297800,37.827816,120 139.298186,37.828588,120 139.298401,37.829275,120 139.298444,37.829447,120 139.298615,37.830133,120 139.298744,37.830691,120 139.298916,37.831035,120 139.299002,37.831206,120 139.299259,37.831550,120 139.299431,37.831850,120 139.299903,37.832623,120 139.299946,37.832708,120 139.299989,37.832794,120 139.300203,37.833138,120 139.300332,37.833738,120 139.300332,37.833867,120 139.300289,37.834768,120 139.300246,37.835283,120 139.300160,37.836142,120 139.300160,37.836270,120 139.300160,37.836313,120 139.300203,37.836399,120 139.300375,37.837129,120 139.300504,37.837687,120 139.300675,37.838459,120 139.300890,37.839274,120 139.300976,37.839618,120 139.301062,37.840004,120 139.301276,37.840819,120 139.301276,37.840862,120 139.301534,37.842107,120 139.301577,37.842236,120 139.301791,37.842751,120 139.301877,37.842922,120 139.302049,37.843180,120 139.302306,37.843480,120 139.302521,37.843823,120 139.302950,37.844424,120 139.303379,37.845068,120 139.303765,37.845626,120 139.304409,37.846613,120 139.304581,37.846828,120 139.304709,37.847042,120 139.305139,37.847686,120 139.305439,37.848201,120 139.305739,37.849102,120 139.305954,37.849789,120 139.306211,37.850518,120 139.306297,37.850819,120 139.306855,37.851763,120 139.307499,37.852836,120 139.307671,37.853308,120 139.307885,37.853909,120 139.307971,37.854123,120 139.308143,37.854595,120 139.308186,37.854681,120 139.308443,37.855239,120 139.308486,37.855368,120 139.308872,37.856183,120 139.309087,37.856569,120 139.309216,37.856827,120 139.309602,37.857471,120 139.309645,37.857556,120 139.310074,37.858286,120 139.310460,37.859058,120 139.310589,37.859530,120 139.310503,37.859960,120 139.310160,37.860861,120 139.309859,37.861676,120 139.309816,37.862148,120 139.309816,37.862492,120 139.309859,37.862792,120 139.309902,37.863050,120 139.309945,37.863393,120 139.309988,37.863522,120 139.310117,37.863908,120 139.310632,37.864680,120 139.311318,37.865710,120 139.311705,37.866311,120 139.312305,37.867255,120 139.312778,37.867985,120 139.313078,37.868328,120 139.313636,37.868800,120 139.313893,37.869015,120 139.313979,37.869143,120 139.314494,37.870002,120 139.314752,37.870431,120 139.314795,37.870474,120 139.314923,37.870731,120 139.315524,37.871804,120 139.315567,37.871890,120 139.315782,37.872362,120 139.315867,37.872491,120 139.316211,37.873392,120 139.316468,37.874637,120 139.316640,37.875109,120 139.317155,37.875924,120 139.317198,37.876010,120 139.317584,37.876439,120 139.318142,37.876911,120 139.318228,37.876997,120 139.319386,37.878070,120 139.319656,37.878416,120 139.319697,37.878396,120 139.319656,37.878416,120 139.319687,37.878456,120 139.319901,37.878928,120 139.319987,37.879314,120 139.320030,37.879872,120 139.320030,37.880902,120 139.320030,37.881975,120 139.320030,37.882361,120 139.320245,37.883048,120 139.320674,37.883649,120 139.320803,37.883778,120 139.321489,37.884336,120 139.321790,37.884550,120 139.322047,37.884765,120 139.323635,37.885923,120 139.323850,37.886052,120 139.324579,37.886610,120 139.324622,37.886610,120 139.325523,37.887511,120 139.325695,37.887726,120 139.326081,37.888627,120 139.326382,37.889571,120 139.326468,37.889786,120 139.326725,37.890515,120 139.326897,37.891459,120 139.326940,37.892361,120 139.326897,37.892532,120 139.326854,37.893348,120 139.326897,37.894249,120 139.327240,37.894979,120 139.327540,37.895365,120 139.327884,37.895665,120 139.328570,37.896094,120 139.329214,37.896438,120 139.329643,37.896695,120 139.330459,37.897210,120 139.330673,37.897296,120 139.331660,37.898154,120 139.332347,37.899013,120 139.332390,37.899098,120 139.332819,37.899699,120 139.332948,37.899871,120 139.333806,37.901115,120 139.334021,37.901416,120 139.334278,37.901802,120 139.334922,37.902746,120 139.335222,37.903218,120 139.335566,37.903733,120 139.335608,37.903776,120 139.335995,37.904205,120 139.336295,37.904420,120 139.336596,37.904720,120 139.336767,37.904849,120 139.336853,37.904935,120 139.336982,37.905064,120 139.337068,37.905107,120 139.337497,37.905579,120 139.337840,37.906523,120 139.337926,37.906995,120 139.338140,37.907767,120 139.338226,37.908068,120 139.338398,37.909012,120 139.338441,37.909226,120 139.338655,37.910042,120 139.338870,37.910643,120 139.339085,37.910986,120 139.339256,37.911243,120 139.339900,37.911973,120 139.340072,37.912145,120 139.340115,37.912188,120 139.340715,37.912831,120 139.340801,37.912960,120 139.340973,37.913218,120 139.341016,37.913389,120 139.341145,37.913432,120 139.341445,37.913733,120 139.342303,37.914462,120 139.342475,37.914591,120 139.343290,37.915235,120 139.343419,37.915320,120 139.343977,37.916265,120 139.343977,37.916307,120 139.344535,37.917252,120 139.345136,37.918196,120 139.345222,37.918282,120 139.345307,37.918410,120 139.345479,37.918668,120 139.345608,37.918839,120 139.345951,37.919183,120 139.346123,37.919397,120 139.346209,37.919526,120 139.346294,37.919569,120 139.346337,37.919655,120 139.347024,37.920213,120 139.347110,37.920299,120 139.347668,37.920728,120 139.347796,37.920942,120 139.347839,37.921028,120 139.348097,37.921672,120 139.348226,37.921844,120 139.348826,37.923002,120 139.348912,37.923088,120 139.349084,37.923346,120 139.349127,37.923474,120 139.349170,37.923560,120 139.349298,37.923689,120 139.349642,37.924290,120 139.350200,37.925277,120 139.350243,37.925406,120 139.350843,37.926435,120 139.349985,37.927208,120 139.349341,37.927809,120 139.348655,37.928452,120 139.348269,37.928839,120 139.347925,37.929139,120 139.348140,37.929440,120 139.348612,37.930169,120 139.348698,37.930298,120 139.348869,37.930598,120 139.348998,37.930770,120 139.349298,37.931242,120 139.349341,37.931328,120 139.349899,37.932272,120 139.350200,37.932701,120 139.350586,37.933345,120 139.350843,37.933731,120 139.351273,37.934461,120 139.351487,37.934761,120 139.351873,37.935405,120 139.351959,37.935534,120 139.352045,37.935662,120 139.352088,37.935963,120 139.351959,37.936563,120 139.351959,37.936692,120 139.352002,37.936821,120 139.352045,37.936950,120 139.352303,37.937593,120 139.352603,37.938194,120 139.352989,37.939095,120 139.353247,37.939353,120 139.354062,37.940125,120 139.354234,37.940254,120 139.354491,37.940469,120 139.354577,37.940555,120 139.355049,37.940984,120 139.355092,37.941027,120 139.355650,37.941456,120 139.355907,37.941713,120 139.356251,37.942014,120 139.356551,37.942314,120 139.356894,37.943044,120 139.357023,37.943344,120 139.357409,37.944160,120 139.357409,37.944975,120 139.357066,37.945833,120 139.356809,37.946563,120 139.356637,37.947035,120 139.356465,37.947507,120 139.356337,37.947893,120 139.356294,37.948365,120 139.356208,37.949352,120 139.356165,37.949653,120 139.356294,37.950082,120 139.357023,37.950983,120 139.357152,37.951584,120 139.357195,37.952142,120 139.357066,37.952528,120 139.356894,37.952828,120 139.356637,37.953086,120 139.354706,37.954245,120 139.353290,37.955146,120 139.351873,37.955961,120 139.350500,37.956820,120 139.350071,37.957034,120 139.351058,37.957764,120 139.351487,37.958193,120 139.351745,37.958493,120 139.352474,37.959352,120 139.352860,37.959781,120 139.355049,37.961240,120 139.356894,37.962441,120 139.357109,37.962613,120 139.357324,37.962785,120 139.357924,37.963171,120 139.358568,37.963600,120 139.358654,37.963643,120 139.358869,37.963815,120 139.359426,37.964158,120 139.359856,37.964501,120 139.360285,37.964802,120 139.360499,37.965145,120 139.361143,37.966046,120 139.361529,37.966733,120 139.361744,37.967033,120 139.362302,37.967978,120 139.362473,37.968535,120 139.362559,37.968879,120 139.362774,37.970080,120 139.362903,37.970510,120 139.362903,37.970552,120 139.362988,37.971025,120 139.363117,37.971711,120 139.363160,37.972140,120 139.363160,37.972398,120 139.363074,37.972784,120 139.362903,37.973299,120 139.362774,37.973599,120 139.362559,37.973986,120 139.362302,37.974544,120 139.362259,37.974629,120 139.361787,37.975531,120 139.361100,37.977033,120 139.360843,37.977977,120 139.360800,37.978878,120 139.360886,37.979779,120 139.361014,37.980337,120 139.361358,37.981195,120 139.361444,37.981367,120 139.361572,37.981710,120 139.361744,37.982011,120 139.362001,37.982697,120 139.362216,37.983298,120 139.362817,37.984672,120 139.363117,37.985358,120 139.363718,37.986603,120 139.363933,37.986989,120 139.364748,37.988663,120 139.365048,37.989306,120 139.365306,37.989907,120 139.366250,37.991881,120 139.366765,37.992868,120 139.367237,37.993855,120 139.367709,37.994843,120 139.368181,37.995830,120 139.368525,37.996559,120 139.368610,37.996731,120 139.368696,37.996902,120 139.369125,37.997804,120 139.369597,37.998791,120 139.370070,37.999778,120 139.371014,38.001752,120 139.371486,38.002739,120 139.371572,38.002954,120 139.371700,38.003211,120 139.371743,38.003297,120 139.371786,38.003383,120 139.372301,38.004498,120 139.372473,38.004799,120 139.372816,38.005571,120 139.373288,38.006558,120 139.373374,38.006687,120 139.374146,38.008275,120 139.374661,38.009391,120 139.375262,38.010550,120 139.375734,38.011580,120 139.376249,38.012652,120 139.376636,38.013425,120 139.377151,38.014455,120 139.377623,38.015485,120 139.378095,38.016472,120 139.378438,38.017159,120 139.378610,38.017588,120 139.379039,38.018446,120 139.379253,38.018875,120 139.379640,38.019733,120 139.380069,38.020592,120 139.380240,38.020935,120 139.381099,38.022738,120 139.383245,38.027415,120 139.383631,38.028102,120 139.384017,38.028617,120 139.384317,38.029003,120 139.384489,38.029175,120 139.384875,38.029561,120 139.385176,38.029861,120 139.387236,38.031492,120 139.387579,38.031750,120 139.388180,38.032308,120 139.388695,38.032780,120 139.389253,38.033381,120 139.389553,38.033895,120 139.389853,38.034368,120 139.389939,38.034539,120 139.390154,38.035054,120 139.390497,38.035913,120 139.390755,38.036513,120 139.391098,38.037114,120 139.391313,38.037415,120 139.391699,38.037801,120 139.392128,38.038273,120 139.393072,38.039217,120 139.393158,38.039303,120 139.394102,38.040247,120 139.394317,38.040462,120 139.395390,38.041534,120 139.395518,38.041663,120 139.395647,38.041835,120 139.395990,38.042092,120 139.396334,38.042479,120 139.397836,38.043981,120 139.397922,38.044066,120 139.398136,38.044281,120 139.398780,38.044667,120 139.399166,38.044925,120 139.400282,38.045397,120 139.402428,38.045955,120 139.402685,38.046041,120 139.403243,38.046212,120 139.403801,38.046341,120 139.404702,38.046556,120 139.405303,38.046770,120 139.406247,38.047242,120 139.406633,38.047500,120 139.407105,38.047972,120 139.407277,38.048143,120 139.407878,38.049130,120 139.408436,38.050160,120 139.408951,38.051233,120 139.409509,38.052092,120 139.409766,38.052392,120 139.410496,38.053164,120 139.410582,38.053250,120 139.411354,38.054109,120 139.412169,38.054924,120 139.413157,38.055954,120 139.414015,38.056898,120 139.414358,38.057284,120 139.414873,38.057799,120 139.415560,38.058786,120 139.415646,38.059001,120 139.415646,38.059216,120 139.415689,38.059387,120 139.415731,38.059602,120 139.415817,38.059816,120 139.415860,38.059945,120 139.416289,38.060589,120 139.416804,38.061061,120 139.417362,38.061361,120 139.417920,38.061576,120 139.418607,38.061748,120 139.419723,38.061876,120 139.420023,38.061919,120 139.420280,38.061962,120 139.420495,38.061962,120 139.420753,38.062005,120 139.423113,38.062263,120 139.423242,38.062263,120 139.424229,38.062391,120 139.425044,38.062520,120 139.426546,38.062863,120 139.428434,38.063550,120 139.429421,38.063893,120 139.430108,38.064151,120 139.432125,38.064795,120 139.432554,38.064923,120 139.434443,38.065395,120 139.435043,38.065524,120 139.435859,38.065696,120 139.436159,38.065739,120 139.437747,38.066039,120 139.438305,38.066168,120 139.438734,38.066254,120 139.439249,38.066382,120 139.440022,38.066726,120 139.440536,38.067026,120 139.440966,38.067455,120 139.441352,38.068056,120 139.441566,38.068871,120 139.441609,38.069043,120 139.441695,38.069515,120 139.441738,38.069773,120 139.442039,38.071318,120 139.442124,38.071833,120 139.442167,38.072176,120 139.442210,38.072391,120 139.442253,38.072691,120 139.442425,38.073506,120 139.442425,38.073592,120 139.442725,38.075438,120 139.442811,38.076553,120 139.442725,38.077154,120 139.442468,38.078141,120 139.441910,38.079171,120 139.440966,38.080459,120 139.440622,38.080845,120 139.439249,38.082604,120 139.438820,38.083291,120 139.438305,38.084321,120 139.438262,38.084450,120 139.438047,38.085351,120 139.437962,38.086295,120 139.437919,38.087239,120 139.438047,38.088441,120 139.438477,38.090372,120 139.438992,38.091831,120 139.439979,38.093848,120 139.442768,38.097796,120 139.443069,38.098226,120 139.443240,38.098440,120 139.443240,38.098483,120 139.444184,38.099771,120 139.444227,38.099856,120 139.444399,38.100114,120 139.444571,38.100500,120 139.444742,38.100886,120 139.445214,38.102045,120 139.445386,38.102517,120 139.446244,38.104534,120 139.446244,38.104620,120 139.446888,38.106208,120 139.447188,38.106251,120 139.447746,38.106294,120 139.448390,38.106337,120 139.450407,38.106465,120 139.452338,38.106594,120 139.454184,38.106723,120 139.455171,38.106809,120 139.455557,38.106852,120 139.456158,38.106894,120 139.458218,38.107023,120 139.459505,38.107109,120 139.459977,38.107152,120 139.460707,38.107238,120 139.461908,38.107281,120 139.462595,38.107324,120 139.462938,38.107367,120 139.464097,38.107452,120 139.464183,38.107452,120 139.464827,38.107495,120 139.464955,38.107495,120 139.465427,38.107495,120 139.466586,38.107581,120 139.467101,38.107624,120 139.468946,38.107753,120 139.469891,38.107839,120 139.471092,38.107924,120 139.471822,38.107967,120 139.475899,38.108225,120 139.478302,38.108397,120 139.478474,38.108439,120 139.480877,38.108568,120 139.481049,38.108611,120 139.484525,38.108826,120 139.485126,38.108740,120 139.485512,38.108611,120 139.486156,38.108268,120 139.486370,38.108096,120 139.488301,38.107066,120 139.488859,38.106766,120 139.490576,38.105950,120 139.496326,38.104234,120 139.496713,38.104148,120 139.496970,38.104105,120 139.497871,38.104019,120 139.498687,38.104019,120 139.502892,38.104577,120 139.504309,38.104491,120 139.505124,38.104320,120 139.505982,38.104062,120 139.511390,38.101745,120 139.511991,38.101616,120 139.512763,38.101616,120 139.513879,38.101916,120 139.515767,38.102431,120 139.515982,38.102474,120 139.517698,38.102860,120 139.518342,38.102946,120 139.518685,38.102946,120 139.519072,38.102946,120 139.519329,38.102946,120 139.520359,38.102946,120 139.520960,38.102903,120 139.521990,38.102732,120 139.524136,38.101916,120 139.524951,38.101444,120 139.525466,38.101144,120 139.528813,38.099985,120 139.529715,38.099685,120 139.530702,38.099341,120 139.532290,38.098826,120 139.533277,38.098483,120 139.533706,38.098269,120 139.534650,38.097839,120 139.535723,38.097367,120 139.536796,38.097024,120 139.537525,38.096938,120 139.538426,38.096895,120 139.539027,38.096895,120 139.539585,38.096895,120 139.539800,38.096895,120 139.540186,38.096895,120 139.541216,38.097153,120 139.541903,38.097367,120 139.543447,38.098226,120 139.544606,38.098655,120 139.545808,38.098869,120 139.547267,38.098826,120 139.548554,38.098655,120 139.549327,38.098440,120 139.553232,38.097410,120 139.555035,38.096809,120 139.561429,38.094363,120 139.562588,38.094020,120 139.565077,38.093376,120 139.565549,38.093204,120 139.566321,38.092775,120 139.567094,38.092175,120 139.567480,38.091702,120 139.568467,38.090415,120 139.568682,38.090200,120 139.569025,38.089771,120 139.569626,38.089213,120 139.569883,38.089042,120 139.570785,38.088613,120 139.571257,38.088441,120 139.571857,38.088140,120 139.572759,38.087282,120 139.573274,38.086510,120 139.573445,38.086295,120 139.575548,38.083377,120 139.575934,38.082819,120 139.576750,38.081703,120 139.577651,38.080373,120 139.578252,38.079772,120 139.578724,38.079214,120 139.579582,38.078613,120 139.581213,38.077669,120 139.581342,38.077583,120 139.582715,38.076854,120 139.583359,38.076468,120 139.585290,38.075480,120 139.585719,38.075309,120 139.586277,38.075223,120 139.586878,38.075180,120 139.589453,38.075438,120 139.590225,38.075523,120 139.590440,38.075652,120 139.590783,38.075867,120 139.591470,38.076510,120 139.591899,38.076768,120 139.592543,38.076854,120 139.593058,38.076768,120 139.594431,38.076038,120 139.594774,38.075867,120 139.595504,38.075438,120 139.595933,38.075008,120 139.596148,38.074665,120 139.596577,38.073378,120 139.596748,38.072863,120 139.596877,38.072605,120 139.597006,38.072047,120 139.596963,38.071618,120 139.596362,38.069987,120 139.596190,38.069515,120 139.596190,38.068657,120 139.596319,38.068271,120 139.596448,38.068013,120 139.596834,38.067799,120 139.597092,38.067756,120 139.598336,38.067799,120 139.601340,38.067842,120 139.601812,38.067713,120 139.602070,38.067627,120 139.603057,38.066940,120 139.603486,38.066897,120 139.604344,38.066983,120 139.605117,38.067112,120 139.605718,38.067412,120 139.606662,38.068571,120 139.606748,38.068657,120 139.607477,38.069000,120 139.608722,38.069429,120 139.609280,38.069558,120 139.609966,38.069644,120 139.610481,38.069644,120 139.611082,38.069558,120 139.613528,38.069000,120 139.614129,38.068871,120 139.614387,38.068829,120 139.614601,38.068829,120 139.615202,38.068914,120 139.615631,38.069043,120 139.616661,38.069301,120 139.616919,38.069386,120 139.619622,38.070116,120 139.621081,38.070545,120 139.621682,38.070717,120 139.625158,38.072133,120 139.625845,38.072519,120 139.626746,38.073292,120 139.628119,38.074965,120 139.628463,38.075352,120 139.628720,38.075523,120 139.630008,38.075995,120 139.631338,38.077025,120 139.631767,38.077240,120 139.632497,38.077369,120 139.634471,38.077412,120 139.635158,38.077412,120 139.635715,38.077283,120 139.636402,38.077068,120 139.637218,38.076682,120 139.637733,38.076425,120 139.637861,38.076339,120 139.639535,38.075480,120 139.640050,38.075266,120 139.640908,38.075051,120 139.641809,38.075008,120 139.642668,38.075094,120 139.643269,38.075266,120 139.643955,38.075566,120 139.645672,38.076639,120 139.649062,38.078742,120 139.649792,38.079085,120 139.650650,38.079386,120 139.655242,38.079901,120 139.656315,38.079858,120 139.656701,38.079772,120 139.657345,38.079557,120 139.658461,38.078957,120 139.659276,38.078570,120 139.659963,38.078485,120 139.660907,38.078442,120 139.661336,38.078356,120 139.661679,38.078184,120 139.662666,38.077154,120 139.663439,38.076596,120 139.663997,38.076038,120 139.664254,38.075523,120 139.664340,38.075223,120 139.664640,38.073120,120 139.664769,38.072133,120 139.664726,38.071747,120 139.664598,38.071017,120 139.664125,38.070202,120 139.663653,38.069086,120 139.663568,38.068743,120 139.663568,38.067327,120 139.664211,38.065138,120 139.664469,38.064365,120 139.664640,38.064022,120 139.664941,38.063636,120 139.666314,38.061962,120 139.667001,38.061275,120 139.667387,38.061061,120 139.668331,38.060803,120 139.669361,38.060846,120 139.670134,38.061018,120 139.671335,38.061447,120 139.673138,38.062048,120 139.679060,38.063979,120 139.679790,38.064151,120 139.684939,38.064108,120 139.685926,38.063936,120 139.686999,38.064108,120 139.687729,38.064108,120 139.689403,38.063807,120 139.690132,38.063765,120 139.691248,38.063421,120 139.692450,38.063293,120 139.693136,38.063207,120 139.693651,38.063293,120 139.696827,38.065782,120 139.697900,38.066554,120 139.698114,38.066812,120 139.699144,38.069172,120 139.699831,38.069944,120 139.700775,38.070889,120 139.701591,38.072004,120 139.701805,38.072219,120 139.702535,38.072691,120 139.703479,38.073678,120 139.704123,38.074365,120 139.704509,38.074622,120 139.706011,38.074923,120 139.713607,38.076339,120 139.714251,38.076382,120 139.714808,38.076167,120 139.715195,38.076124,120 139.716525,38.076167,120 139.718285,38.076553,120 139.718542,38.076510,120 139.718885,38.076339,120 139.719443,38.075523,120 139.719830,38.075309,120 139.720130,38.075309,120 139.722662,38.075523,120 139.723907,38.075395,120 139.724808,38.075180,120 139.727125,38.074236,120 139.727898,38.073936,120 139.728756,38.073764,120 139.730344,38.073421,120 139.730902,38.073249,120 139.731803,38.072820,120 139.732919,38.071961,120 139.733562,38.071318,120 139.733992,38.070631,120 139.734206,38.069944,120 139.734507,38.068571,120 139.734979,38.067927,120 139.736009,38.067198,120 139.736524,38.066683,120 139.737296,38.065825,120 139.737554,38.065610,120 139.739013,38.064752,120 139.739742,38.064194,120 139.740171,38.063679,120 139.740429,38.063335,120 139.740515,38.063164,120 139.740901,38.062649,120 139.741158,38.062263,120 139.741416,38.061833,120 139.741545,38.061619,120 139.742103,38.060803,120 139.742832,38.059773,120 139.743261,38.059258,120 139.743605,38.059001,120 139.744635,38.058786,120 139.745321,38.058658,120 139.745965,38.058529,120 139.746695,38.058400,120 139.747810,38.058228,120 139.747939,38.058186,120 139.748197,38.058100,120 139.748626,38.057971,120 139.749012,38.057842,120 139.750299,38.057456,120 139.750857,38.057284,120 139.753132,38.056684,120 139.753261,38.056641,120 139.754033,38.056254,120 139.754205,38.056083,120 139.755321,38.054667,120 139.757037,38.052778,120 139.757295,38.052392,120 139.757423,38.052220,120 139.758196,38.050632,120 139.758496,38.050160,120 139.758925,38.049731,120 139.760685,38.048100,120 139.760985,38.047843,120 139.761972,38.047071,120 139.762402,38.046727,120 139.762616,38.046556,120 139.764977,38.044796,120 139.765320,38.044624,120 139.765792,38.044496,120 139.766436,38.044410,120 139.768410,38.044496,120 139.768496,38.044496,120 139.769483,38.044496,120 139.770555,38.044238,120 139.770899,38.044109,120 139.772272,38.043251,120 139.772959,38.042951,120 139.773860,38.042822,120 139.774504,38.042865,120 139.776435,38.043294,120 139.776607,38.043337,120 139.777508,38.043380,120 139.777894,38.043466,120 139.778066,38.043509,120 139.778881,38.043852,120 139.780126,38.044453,120 139.780726,38.044753,120 139.781499,38.045139,120 139.782143,38.045440,120 139.783044,38.045869,120 139.784160,38.046384,120 139.786220,38.047113,120 139.789867,38.048444,120 139.793000,38.049474,120 139.794374,38.049903,120 139.796691,38.050289,120 139.797549,38.050547,120 139.798150,38.050804,120 139.798708,38.051019,120 139.799309,38.051105,120 139.801412,38.050461,120 139.802442,38.050332,120 139.802999,38.050375,120 139.803557,38.050504,120 139.805059,38.051105,120 139.805403,38.051233,120 139.805489,38.051319,120 139.806089,38.051491,120 139.807935,38.051791,120 139.811454,38.052263,120 139.812098,38.052435,120 139.813128,38.052735,120 139.814072,38.052907,120 139.814758,38.052864,120 139.817162,38.052564,120 139.817505,38.052478,120 139.822698,38.050675,120 139.827204,38.048916,120 139.827805,38.048658,120 139.828148,38.048358,120 139.828749,38.047585,120 139.829607,38.045869,120 139.829779,38.045053,120 139.829907,38.044839,120 139.830251,38.044581,120 139.830637,38.044453,120 139.830980,38.044453,120 139.831581,38.044624,120 139.831624,38.044667,120 139.832268,38.045139,120 139.833899,38.046255,120 139.834027,38.046427,120 139.834156,38.046684,120 139.834328,38.047414,120 139.834671,38.047800,120 139.836774,38.048959,120 139.837160,38.049130,120 139.838061,38.049259,120 139.838619,38.049259,120 139.839177,38.049130,120 139.841452,38.048487,120 139.843426,38.048315,120 139.843941,38.048358,120 139.844499,38.048530,120 139.845185,38.048916,120 139.845400,38.049002,120 139.845700,38.049002,120 139.847374,38.048744,120 139.848104,38.048615,120 139.848361,38.048615,120 139.849262,38.048444,120 139.851408,38.048058,120 139.855356,38.047285,120 139.855614,38.047242,120 139.856644,38.047028,120 139.857073,38.046856,120 139.857244,38.046684,120 139.857459,38.046341,120 139.857974,38.044839,120 139.858918,38.044066,120 139.859047,38.043895,120 139.859390,38.042865,120 139.859562,38.042607,120 139.860764,38.041406,120 139.861021,38.040891,120 139.861150,38.040247,120 139.861879,38.039260,120 139.862609,38.038101,120 139.862866,38.037844,120 139.863682,38.036900,120 139.865527,38.034711,120 139.865656,38.034539,120 139.866428,38.033681,120 139.867244,38.032780,120 139.868660,38.031578,120 139.869304,38.031149,120 139.870162,38.030548,120 139.871664,38.029733,120 139.872479,38.029304,120 139.873080,38.028874,120 139.873724,38.028145,120 139.874325,38.027244,120 139.874840,38.026514,120 139.875054,38.026299,120 139.875741,38.025699,120 139.877114,38.024669,120 139.878702,38.023596,120 139.880161,38.022866,120 139.880462,38.022695,120 139.881191,38.022094,120 139.881878,38.021750,120 139.883294,38.021235,120 139.884925,38.020678,120 139.885483,38.020506,120 139.887929,38.020205,120 139.891448,38.019562,120 139.892220,38.019433,120 139.892693,38.019261,120 139.893036,38.019047,120 139.893208,38.018789,120 139.893293,38.018661,120 139.894066,38.017116,120 139.894495,38.016601,120 139.895225,38.016257,120 139.896255,38.016043,120 139.898486,38.015957,120 139.899516,38.015957,120 139.899945,38.016043,120 139.901404,38.016601,120 139.901876,38.016772,120 139.902906,38.016944,120 139.904194,38.017459,120 139.905052,38.017845,120 139.905696,38.018017,120 139.906425,38.018103,120 139.907069,38.018060,120 139.907799,38.017974,120 139.907885,38.017931,120 139.908786,38.017845,120 139.909086,38.017931,120 139.909687,38.018146,120 139.910202,38.018231,120 139.911017,38.018274,120 139.913678,38.017802,120 139.915566,38.017502,120 139.927583,38.015485,120 139.928784,38.015141,120 139.929900,38.014584,120 139.930630,38.014069,120 139.931102,38.013639,120 139.931531,38.013167,120 139.932132,38.012223,120 139.932346,38.011966,120 139.932775,38.011665,120 139.933677,38.011322,120 139.933934,38.011236,120 139.934063,38.011193,120 139.935179,38.010936,120 139.937024,38.010421,120 139.937453,38.010249,120 139.937754,38.009992,120 139.942603,38.006816,120 139.943504,38.006344,120 139.944663,38.005958,120 139.945607,38.005786,120 139.946551,38.005743,120 139.947410,38.005743,120 139.948096,38.005872,120 139.950027,38.006387,120 139.951701,38.006687,120 139.954491,38.006773,120 139.955349,38.006945,120 139.956508,38.007331,120 139.960756,38.009391,120 139.961400,38.009906,120 139.961829,38.010464,120 139.962087,38.011193,120 139.962387,38.011923,120 139.962559,38.012223,120 139.962816,38.012438,120 139.963331,38.012652,120 139.964576,38.012910,120 139.965949,38.013253,120 139.966121,38.013296,120 139.966249,38.013339,120 139.967322,38.013597,120 139.967537,38.013639,120 139.967580,38.013682,120 139.967709,38.013682,120 139.969811,38.014154,120 139.969897,38.014197,120 139.972386,38.014627,120 139.973416,38.014927,120 139.975691,38.015614,120 139.978008,38.016343,120 139.978995,38.016644,120 139.979510,38.016858,120 139.979811,38.017030,120 139.980111,38.017373,120 139.980283,38.017588,120 139.980497,38.017845,120 139.981055,38.018360,120 139.982343,38.019390,120 139.982643,38.019648,120 139.983373,38.020377,120 139.984016,38.020978,120 139.984961,38.021665,120 139.985476,38.022051,120 139.985647,38.022180,120 139.987278,38.023510,120 139.988050,38.024197,120 139.988737,38.024712,120 139.989767,38.025312,120 139.990582,38.025699,120 139.991913,38.026085,120 139.995990,38.027201,120 139.996634,38.027329,120 140.000024,38.027630,120 140.005388,38.028145,120 140.008349,38.028402,120 140.014315,38.028917,120 140.014529,38.028917,120 140.015945,38.029046,120 140.017662,38.029218,120 140.019507,38.029389,120 140.019722,38.029432,120 140.020409,38.029561,120 140.020967,38.029690,120 140.021138,38.029733,120 140.022683,38.030205,120 140.024400,38.031020,120 140.025516,38.031793,120 140.026073,38.032222,120 140.026932,38.033037,120 140.027747,38.033938,120 140.029335,38.035827,120 140.030107,38.036942,120 140.030580,38.037758,120 140.030966,38.038487,120 140.031781,38.040161,120 140.032210,38.041019,120 140.033112,38.042908,120 140.033755,38.043852,120 140.034313,38.044538,120 140.035429,38.045568,120 140.036974,38.046598,120 140.038691,38.047285,120 140.040579,38.047757,120 140.042081,38.047886,120 140.043926,38.047843,120 140.046244,38.047585,120 140.048432,38.047113,120 140.050278,38.046556,120 140.053926,38.045268,120 140.054655,38.045011,120 140.056801,38.044410,120 140.058303,38.044152,120 140.059977,38.044066,120 140.061822,38.044152,120 140.063453,38.044367,120 140.064440,38.044581,120 140.065470,38.044925,120 140.066972,38.045568,120 140.070705,38.047328,120 140.073023,38.048100,120 140.075083,38.048615,120 140.077014,38.048916,120 140.078902,38.049088,120 140.081177,38.049130,120 140.085039,38.049088,120 140.087786,38.049173,120 140.089073,38.049345,120 140.090404,38.049560,120 140.092678,38.050203,120 140.094223,38.050804,120 140.095897,38.051620,120 140.097656,38.052735,120 140.100532,38.054881,120 140.102162,38.055954,120 140.103922,38.056898,120 140.105724,38.057628,120 140.107527,38.058143,120 140.108428,38.058357,120 140.109544,38.058486,120 140.111003,38.058572,120 140.112376,38.058529,120 140.113149,38.058443,120 140.113535,38.058400,120 140.114307,38.058271,120 140.114908,38.058143,120 140.116711,38.057628,120 140.121646,38.055782,120 140.124178,38.054838,120 140.124521,38.054709,120 140.125079,38.054495,120 140.125852,38.054194,120 140.128384,38.053250,120 140.130272,38.052306,120 140.131087,38.051834,120 140.132289,38.050890,120 140.133405,38.049688,120 140.133877,38.049130,120 140.134563,38.048100,120 140.135250,38.047199,120 140.136495,38.045483,120 140.137010,38.044796,120 140.139542,38.041363,120 140.140486,38.040333,120 140.141559,38.039346,120 140.141902,38.039045,120 140.142632,38.038530,120 140.143747,38.037801,120 140.144563,38.037372,120 140.145893,38.036814,120 140.146923,38.036470,120 140.147781,38.036170,120 140.151386,38.035269,120 140.152116,38.035011,120 140.152931,38.034754,120 140.153532,38.034539,120 140.153918,38.034368,120 140.155549,38.033509,120 140.157309,38.032308,120 140.159025,38.031106,120 140.160699,38.030248,120 140.160871,38.030162,120 140.161686,38.029861,120 140.162501,38.029604,120 140.164561,38.028917,120 140.165377,38.028574,120 140.165849,38.028359,120 140.166063,38.028231,120 140.166535,38.027973,120 140.166707,38.027844,120 140.167522,38.027329,120 140.168595,38.026471,120 140.168724,38.026643,120 140.169454,38.027458,120 140.170140,38.028402,120 140.170870,38.030248,120 140.171170,38.031106,120 140.172629,38.035226,120 140.172844,38.035741,120 140.173144,38.036814,120 140.173359,38.037500,120 140.173960,38.039775,120 140.174432,38.041620,120 140.174990,38.043680,120 140.175290,38.044753,120 140.175462,38.045740,120 140.175462,38.046255,120 140.175290,38.047028,120 140.174861,38.048143,120 140.174818,38.048229,120 140.174775,38.048358,120 140.174303,38.049302,120 140.173488,38.051105,120 140.173316,38.051963,120 140.173316,38.052778,120 140.173531,38.054323,120 140.173788,38.055739,120 140.174131,38.057714,120 140.174518,38.058529,120 140.174689,38.058829,120 140.174775,38.058958,120 140.175118,38.059387,120 140.176277,38.060889,120 140.176620,38.061533,120 140.176792,38.061962,120 140.176835,38.062177,120 140.176835,38.062263,120 140.176964,38.062906,120 140.176921,38.064752,120 140.177135,38.065352,120 140.177393,38.065782,120 140.177994,38.066297,120 140.181084,38.068185,120 140.181384,38.068399,120 140.181856,38.068743,120 140.182157,38.069000,120 140.182886,38.069687,120 140.183229,38.070030,120 140.183744,38.070760,120 140.184131,38.071575,120 140.184259,38.072133,120 140.184045,38.072906,120 140.183787,38.073249,120 140.183444,38.073678,120 140.183229,38.074107,120 140.183058,38.074536,120 140.182929,38.075395,120 140.182929,38.075438,120 140.183015,38.075995,120 140.183144,38.076510,120 140.183830,38.077540,120 140.184431,38.078399,120 140.184560,38.078699,120 140.184646,38.078871,120 140.185204,38.080029,120 140.185547,38.080759,120 140.185804,38.081231,120 140.185890,38.081403,120 140.186362,38.082519,120 140.187006,38.083806,120 140.187006,38.083849,120 140.187693,38.085222,120 140.188208,38.086295,120 140.188379,38.086681,120 140.189023,38.088055,120 140.189538,38.088999,120 140.189967,38.089685,120 140.190225,38.089986,120 140.190825,38.090715,120 140.191684,38.091488,120 140.192027,38.091745,120 140.196791,38.094878,120 140.199022,38.096423,120 140.202284,38.098612,120 140.203614,38.099599,120 140.205116,38.100929,120 140.206447,38.102260,120 140.207477,38.103375,120 140.208764,38.104835,120 140.209794,38.106380,120 140.210567,38.107882,120 140.210996,38.109212,120 140.211167,38.110285,120 140.211210,38.111358,120 140.210910,38.113117,120 140.210781,38.114448,120 140.210867,38.117366,120 140.211124,38.119984,120 140.211382,38.120799,120 140.211639,38.121357,120 140.212326,38.122473,120 140.212884,38.123074,120 140.213442,38.123674,120 140.214643,38.124576,120 140.215673,38.125305,120 140.216618,38.126035,120 140.217776,38.126936,120 140.219064,38.127966,120 140.219579,38.128309,120 140.220308,38.128824,120 140.220952,38.129210,120 140.222068,38.129640,120 140.222969,38.129854,120 140.225887,38.130240,120 140.226917,38.130412,120 140.228977,38.130627,120 140.229578,38.130627,120 140.230994,38.130498,120 140.232582,38.130326,120 140.233741,38.130283,120 140.234256,38.130326,120 140.234470,38.130326,120 140.235157,38.130412,120 140.236917,38.130541,120 140.237389,38.130541,120 140.238590,38.130455,120 140.240264,38.130240,120 140.241380,38.130155,120 140.242710,38.130240,120 140.243611,38.130369,120 140.244555,38.130584,120 140.246186,38.130798,120 140.246615,38.131013,120 140.247002,38.131442,120 140.247345,38.131657,120 140.248117,38.132000,120 140.248804,38.132129,120 140.252838,38.132644,120 140.254555,38.133287,120 140.255198,38.133588,120 140.255885,38.133974,120 140.256400,38.134446,120 140.256915,38.134918,120 140.257130,38.135090,120 140.257258,38.135176,120 140.257902,38.135777,120 140.258160,38.136034,120 140.258889,38.136806,120 140.259275,38.137450,120 140.261378,38.141098,120 140.261850,38.141999,120 140.262237,38.142943,120 140.262623,38.143888,120 140.262837,38.144403,120 140.263481,38.146076,120 140.263782,38.146763,120 140.264425,38.148308,120 140.263224,38.148479,120 140.262880,38.148522,120 140.262494,38.148394,120 140.262494,38.148136,120 140.262151,38.147793,120 140.261765,38.147793,120 140.261292,38.147321,120 140.260949,38.147321,120 140.260949,38.147874,120 140.261017,38.147874,120</coordinates></LineString></Placemark>
</Document></kml>
